{
"type": "FeatureCollection",
"name": "aguascalientes",
"crs": { "type": "name", "properties": { "name": "urn:ogc:def:crs:OGC:1.3:CRS84" } },
"features": [
{ "type": "Feature", "properties": { "NAME_1": "Aguascalientes", "NAME_2": "Aguascalientes" }, "geometry": { "type": "Polygon", "coordinates": [ [ [ -102.44799041748, 21.6610717773437 ], [ -102.506462097167997, 21.7087306976318 ], [ -102.61302947998, 21.722980499267599 ], [ -102.610237121582003, 21.733650207519599 ], [ -102.578147888184006, 21.770309448242301 ], [ -102.510520935059006, 21.784330368041999 ], [ -102.445526123047003, 21.854511260986399 ], [ -102.357452392577997, 21.876062393188601 ], [ -102.341888427734006, 21.9086608886719 ], [ -102.305625915527003, 21.914100646972699 ], [ -102.277709960937997, 21.955539703369102 ], [ -102.285079956055, 21.992500305175799 ], [ -102.296920776367003, 22.003860473632798 ], [ -102.316169738769005, 22.007461547851602 ], [ -102.296897888184006, 22.0542697906494 ], [ -102.213470458984006, 22.0364093780518 ], [ -102.191741943359006, 22.044889450073299 ], [ -102.180862426757997, 22.0663681030275 ], [ -102.171722412109006, 22.066900253296001 ], [ -102.157180786132997, 22.054651260376001 ], [ -102.126449584960994, 21.994962692260899 ], [ -102.114852905272997, 21.9941806793213 ], [ -102.08275604248, 22.019212722778398 ], [ -102.001022338867003, 21.978950500488299 ], [ -101.975639343262003, 21.9757194519043 ], [ -101.896942138672003, 21.898170471191399 ], [ -101.90055847168, 21.883520126342798 ], [ -101.911346435547003, 21.877080917358501 ], [ -101.9794921875, 21.859380722046001 ], [ -102.066963195800994, 21.816932678222699 ], [ -102.16886138916, 21.6846103668213 ], [ -102.197563171387003, 21.6657829284668 ], [ -102.346366882324006, 21.621749877929801 ], [ -102.368362426757997, 21.624620437622099 ], [ -102.40503692627, 21.6474514007569 ], [ -102.44799041748, 21.6610717773437 ] ] ] } },
{ "type": "Feature", "properties": { "NAME_1": "Aguascalientes", "NAME_2": "Asientos" }, "geometry": { "type": "Polygon", "coordinates": [ [ [ -102.229011535644005, 22.0406208038331 ], [ -102.201286315917997, 22.130399703979599 ], [ -102.185722351074006, 22.15092086792 ], [ -102.176826477050994, 22.150529861450298 ], [ -102.16227722168, 22.122390747070401 ], [ -102.144248962402003, 22.129331588745099 ], [ -102.147926330565994, 22.1680507659912 ], [ -102.133338928222997, 22.2659606933594 ], [ -102.063446044922003, 22.236160278320298 ], [ -102.044532775879006, 22.218439102173001 ], [ -102.024139404297003, 22.134670257568398 ], [ -101.994087219237997, 22.071172714233398 ], [ -101.964729309082003, 22.029621124267699 ], [ -101.975639343262003, 21.9757194519043 ], [ -101.983779907227003, 21.9748306274413 ], [ -102.08275604248, 22.019212722778398 ], [ -102.114852905272997, 21.9941806793213 ], [ -102.126449584960994, 21.994962692260899 ], [ -102.157180786132997, 22.054651260376001 ], [ -102.171722412109006, 22.066900253296001 ], [ -102.180862426757997, 22.0663681030275 ], [ -102.201866149902003, 22.038860321044901 ], [ -102.229011535644005, 22.0406208038331 ] ] ] } },
{ "type": "Feature", "properties": { "NAME_1": "Aguascalientes", "NAME_2": "Calvillo" }, "geometry": { "type": "Polygon", "coordinates": [ [ [ -102.61302947998, 21.722980499267599 ], [ -102.698921203612997, 21.728401184081999 ], [ -102.781219482422003, 21.688930511474702 ], [ -102.842140197754006, 21.736860275268601 ], [ -102.86841583252, 21.7716903686525 ], [ -102.871376037597997, 21.8171291351319 ], [ -102.821426391602003, 21.923812866211001 ], [ -102.77912902832, 21.983671188354499 ], [ -102.718467712402003, 22.0477809906007 ], [ -102.702102661132997, 22.029729843139599 ], [ -102.697830200195, 22.0051498413087 ], [ -102.673858642577997, 22.008140563964901 ], [ -102.667640686035, 21.991361618042099 ], [ -102.623931884765994, 22.006050109863299 ], [ -102.609817504882997, 21.989589691162202 ], [ -102.597137451172003, 21.9388027191162 ], [ -102.626991271972997, 21.821212768554702 ], [ -102.619827270507997, 21.808111190795898 ], [ -102.591445922852003, 21.822168350219702 ], [ -102.577400207519005, 21.776910781860401 ], [ -102.61302947998, 21.722980499267599 ] ] ] } },
{ "type": "Feature", "properties": { "NAME_1": "Aguascalientes", "NAME_2": "Cosío" }, "geometry": { "type": "Polygon", "coordinates": [ [ [ -102.253677368164006, 22.346210479736399 ], [ -102.26082611084, 22.289751052856602 ], [ -102.252906799315994, 22.260971069335898 ], [ -102.260070800780994, 22.245029449462901 ], [ -102.285278320312003, 22.234561920166001 ], [ -102.322616577147997, 22.241800308227599 ], [ -102.349555969237997, 22.221702575683601 ], [ -102.350326538085994, 22.252790451049901 ], [ -102.38427734375, 22.290582656860401 ], [ -102.371696472167997, 22.328781127929801 ], [ -102.381156921387003, 22.3412895202638 ], [ -102.345031738280994, 22.371131896972798 ], [ -102.341918945312003, 22.4049091339112 ], [ -102.305641174315994, 22.417680740356499 ], [ -102.274620056152003, 22.3661098480225 ], [ -102.253677368164006, 22.346210479736399 ] ] ] } },
{ "type": "Feature", "properties": { "NAME_1": "Aguascalientes", "NAME_2": "Jesús María" }, "geometry": { "type": "Polygon", "coordinates": [ [ [ -102.578147888184006, 21.770309448242301 ], [ -102.591445922852003, 21.822168350219702 ], [ -102.619827270507997, 21.808111190795898 ], [ -102.626991271972997, 21.821212768554702 ], [ -102.597137451172003, 21.9388027191162 ], [ -102.565773010254006, 21.935289382934599 ], [ -102.498123168945, 21.948200225830199 ], [ -102.454940795897997, 22.011650085449201 ], [ -102.441368103027003, 22.019670486450298 ], [ -102.408515930175994, 22.0238990783693 ], [ -102.398376464844006, 22.004091262817401 ], [ -102.36727142334, 22.017328262329201 ], [ -102.344306945800994, 21.999139785766602 ], [ -102.316169738769005, 22.007461547851602 ], [ -102.290496826172003, 21.999559402465898 ], [ -102.277709960937997, 21.955539703369102 ], [ -102.305625915527003, 21.914100646972699 ], [ -102.341888427734006, 21.9086608886719 ], [ -102.357452392577997, 21.876062393188601 ], [ -102.445526123047003, 21.854511260986399 ], [ -102.510520935059006, 21.784330368041999 ], [ -102.578147888184006, 21.770309448242301 ] ] ] } },
{ "type": "Feature", "properties": { "NAME_1": "Aguascalientes", "NAME_2": "Pabellón de Arteaga" }, "geometry": { "type": "Polygon", "coordinates": [ [ [ -102.412216186522997, 22.0246696472169 ], [ -102.387283325195, 22.067409515381001 ], [ -102.33960723877, 22.0848999023438 ], [ -102.301567077637003, 22.136970520019499 ], [ -102.260063171387003, 22.143501281738299 ], [ -102.201286315917997, 22.130399703979599 ], [ -102.229011535644005, 22.0406208038331 ], [ -102.296897888184006, 22.0542697906494 ], [ -102.316169738769005, 22.007461547851602 ], [ -102.335418701172003, 21.998561859131001 ], [ -102.36727142334, 22.017328262329201 ], [ -102.398376464844006, 22.004091262817401 ], [ -102.412216186522997, 22.0246696472169 ] ] ] } },
{ "type": "Feature", "properties": { "NAME_1": "Aguascalientes", "NAME_2": "Rincón de Romos" }, "geometry": { "type": "Polygon", "coordinates": [ [ [ -102.189987182617003, 22.293949127197301 ], [ -102.225700378417997, 22.230140686035199 ], [ -102.232139587402003, 22.191978454589901 ], [ -102.227935791015994, 22.165111541748001 ], [ -102.237586975097997, 22.138870239257798 ], [ -102.267471313475994, 22.143909454345799 ], [ -102.301567077637003, 22.136970520019499 ], [ -102.33960723877, 22.0848999023438 ], [ -102.35888671875, 22.078491210937599 ], [ -102.37296295166, 22.082950592041001 ], [ -102.387298583984006, 22.101701736450298 ], [ -102.410606384277003, 22.187320709228601 ], [ -102.446983337402003, 22.1968097686768 ], [ -102.444526672362997, 22.211219787597699 ], [ -102.460136413574006, 22.227420806884901 ], [ -102.463645935059006, 22.248640060424901 ], [ -102.479751586914006, 22.257780075073399 ], [ -102.476119995117003, 22.297451019287202 ], [ -102.381156921387003, 22.3412895202638 ], [ -102.371696472167997, 22.328781127929801 ], [ -102.38427734375, 22.290582656860401 ], [ -102.350326538085994, 22.252790451049901 ], [ -102.349555969237997, 22.221702575683601 ], [ -102.322616577147997, 22.241800308227599 ], [ -102.285278320312003, 22.234561920166001 ], [ -102.260070800780994, 22.245029449462901 ], [ -102.252906799315994, 22.260971069335898 ], [ -102.26082611084, 22.289751052856602 ], [ -102.253677368164006, 22.346210479736399 ], [ -102.189987182617003, 22.293949127197301 ] ] ] } },
{ "type": "Feature", "properties": { "NAME_1": "Aguascalientes", "NAME_2": "San José de Gracia" }, "geometry": { "type": "Polygon", "coordinates": [ [ [ -102.412216186522997, 22.0246696472169 ], [ -102.449256896972997, 22.017089843750099 ], [ -102.498123168945, 21.948200225830199 ], [ -102.578598022460994, 21.9345512390137 ], [ -102.601325988769005, 21.941810607910298 ], [ -102.616020202637003, 22.001831054687599 ], [ -102.652099609375, 22.001750946045 ], [ -102.667640686035, 21.991361618042099 ], [ -102.673858642577997, 22.008140563964901 ], [ -102.697830200195, 22.0051498413087 ], [ -102.702102661132997, 22.029729843139599 ], [ -102.718467712402003, 22.0477809906007 ], [ -102.678802490234006, 22.118289947509801 ], [ -102.664840698242003, 22.192569732666001 ], [ -102.651756286620994, 22.2159194946288 ], [ -102.619071960449006, 22.239740371704201 ], [ -102.537269592285, 22.256771087646499 ], [ -102.476119995117003, 22.297451019287202 ], [ -102.479751586914006, 22.257780075073399 ], [ -102.463645935059006, 22.248640060424901 ], [ -102.460136413574006, 22.227420806884901 ], [ -102.444526672362997, 22.211219787597699 ], [ -102.446983337402003, 22.1968097686768 ], [ -102.410606384277003, 22.187320709228601 ], [ -102.389778137207003, 22.107730865478501 ], [ -102.366287231445, 22.078660964965799 ], [ -102.387283325195, 22.067409515381001 ], [ -102.412216186522997, 22.0246696472169 ] ] ] } },
{ "type": "Feature", "properties": { "NAME_1": "Aguascalientes", "NAME_2": "Tepezalá" }, "geometry": { "type": "Polygon", "coordinates": [ [ [ -102.237586975097997, 22.138870239257798 ], [ -102.227935791015994, 22.165111541748001 ], [ -102.232139587402003, 22.191978454589901 ], [ -102.225700378417997, 22.230140686035199 ], [ -102.189987182617003, 22.293949127197301 ], [ -102.133338928222997, 22.2659606933594 ], [ -102.143188476562003, 22.2233905792237 ], [ -102.145736694335994, 22.127010345458999 ], [ -102.169937133789006, 22.126909255981399 ], [ -102.182006835937003, 22.152410507202099 ], [ -102.201286315917997, 22.130399703979599 ], [ -102.237586975097997, 22.138870239257798 ] ] ] } }
]
}
