{
"type": "FeatureCollection",
"name": "baja-california",
"crs": { "type": "name", "properties": { "name": "urn:ogc:def:crs:OGC:1.3:CRS84" } },
"features": [
{ "type": "Feature", "properties": { "NAME_1": "Baja California", "NAME_2": "Ensenada" }, "geometry": { "type": "GeometryCollection", "geometries": [ { "type": "Polygon", "coordinates": [ [ [ -114.7158203125, 29.108886718749901 ], [ -114.724227905272997, 29.133628845215 ], [ -114.737449645995994, 29.138990402221701 ], [ -114.734725952147997, 29.157499313354499 ], [ -114.743225097655994, 29.180908203125099 ], [ -114.757774353027003, 29.183399200439499 ], [ -114.770370483397997, 29.1971225738525 ], [ -114.78694152832, 29.196945190429702 ], [ -114.796020507812003, 29.214973449706999 ], [ -114.80492401123, 29.208658218383899 ], [ -114.813865661620994, 29.213901519775401 ], [ -114.825073242187003, 29.238195419311499 ], [ -114.837524414062003, 29.2366943359375 ], [ -114.846664428710994, 29.246112823486399 ], [ -114.875, 29.2855224609375 ], [ -114.868423461914006, 29.286090850830099 ], [ -114.873649597167997, 29.287223815917901 ], [ -114.87939453125, 29.284301757812599 ], [ -114.968330383300994, 29.375555038452099 ], [ -115.011947631835994, 29.3850002288819 ], [ -115.073608398437997, 29.416093826293999 ], [ -115.189445495605, 29.427778244018601 ], [ -115.211120605469006, 29.471923828125 ], [ -115.251663208007997, 29.515834808349599 ], [ -115.343322753905994, 29.556129455566499 ], [ -115.378608703612997, 29.558057785034201 ], [ -115.457778930664006, 29.625 ], [ -115.477500915527003, 29.626708984375099 ], [ -115.505310058594006, 29.6160888671875 ], [ -115.564163208007997, 29.663610458374102 ], [ -115.58472442627, 29.691944122314499 ], [ -115.620834350585994, 29.695278167724702 ], [ -115.698608398437003, 29.755277633666999 ], [ -115.684722900390994, 29.827222824096701 ], [ -115.702209472655994, 29.900331497192401 ], [ -115.743049621582003, 29.947557449340898 ], [ -115.787498474120994, 29.959167480468899 ], [ -115.8125, 29.9502773284913 ], [ -115.792503356934006, 30.0355548858643 ], [ -115.780212402344006, 30.038511276245099 ], [ -115.788612365722997, 30.046943664550799 ], [ -115.781921386719006, 30.091918945312599 ], [ -115.803886413574006, 30.133611679077301 ], [ -115.7958984375, 30.2472229003906 ], [ -115.811622619629006, 30.3000392913818 ], [ -115.845558166504006, 30.3533325195313 ], [ -115.915832519530994, 30.402221679687599 ], [ -115.948120117187003, 30.4066772460938 ], [ -115.986511230469006, 30.3903198242188 ], [ -115.971557617187003, 30.410556793212798 ], [ -115.940490722655994, 30.4130172729493 ], [ -115.944725036620994, 30.4466667175293 ], [ -115.935623168945, 30.458194732666101 ], [ -115.9501953125, 30.462097167968899 ], [ -115.968330383300994, 30.4855556488038 ], [ -115.978309631347997, 30.484855651855401 ], [ -115.982139587402003, 30.494138717651499 ], [ -115.976669311522997, 30.496110916137798 ], [ -115.992858886719006, 30.499145507812599 ], [ -115.991668701172003, 30.5083332061769 ], [ -115.998886108397997, 30.496667861938601 ], [ -115.963310241699006, 30.4634609222412 ], [ -115.95662689209, 30.4463920593263 ], [ -115.958129882812003, 30.437683105468899 ], [ -115.978057861327997, 30.426664352416999 ], [ -115.995895385742003, 30.4512615203857 ], [ -116.02555847168, 30.4527778625488 ], [ -115.99494934082, 30.406982421875099 ], [ -115.993377685547003, 30.381111145019499 ], [ -115.978057861327997, 30.3650016784668 ], [ -115.985412597655994, 30.3563232421875 ], [ -116.001663208007997, 30.3597221374512 ], [ -116.015258789062003, 30.426334381103601 ], [ -116.033332824707003, 30.437778472900501 ], [ -116.035552978515994, 30.457221984863299 ], [ -116.049163818359006, 30.472501754760799 ], [ -116.031669616699006, 30.5725002288819 ], [ -116.026611328125, 30.657470703124901 ], [ -116.032501220702997, 30.697633743286101 ], [ -116.047180175780994, 30.717527389526399 ], [ -116.058296203612997, 30.796415328979599 ], [ -116.072998046875, 30.815307617187599 ], [ -116.104164123535, 30.821388244628999 ], [ -116.146095275879006, 30.857244491577202 ], [ -116.175598144530994, 30.861089706421001 ], [ -116.205276489257997, 30.886667251586999 ], [ -116.216125488280994, 30.914184570312599 ], [ -116.234962463379006, 30.9328098297119 ], [ -116.244445800780994, 30.9319458007812 ], [ -116.267448425292997, 30.965192794799901 ], [ -116.285827636719006, 30.968322753906399 ], [ -116.320556640625, 30.955278396606399 ], [ -116.337677001952997, 30.9688739776612 ], [ -116.339447021484006, 30.988054275512599 ], [ -116.3125, 31.096496582031399 ], [ -116.309204101562003, 31.151426315307599 ], [ -116.339416503905994, 31.2066745758057 ], [ -116.351387023925994, 31.2127780914307 ], [ -116.361663818359006, 31.243610382080099 ], [ -116.391632080077997, 31.282455444336101 ], [ -116.416389465332003, 31.2927780151368 ], [ -116.438331604004006, 31.3225002288819 ], [ -116.456115722655994, 31.329711914062599 ], [ -116.456390380859006, 31.347221374511701 ], [ -116.484725952147997, 31.366666793823299 ], [ -116.500831604004006, 31.410278320312599 ], [ -116.511596679687997, 31.413879394531399 ], [ -116.521690368652003, 31.434116363525401 ], [ -116.572776794432997, 31.465000152587901 ], [ -116.602142333984006, 31.462461471557699 ], [ -116.608627319335994, 31.496374130249102 ], [ -116.63444519043, 31.516944885253899 ], [ -116.649169921875, 31.5155563354493 ], [ -116.667526245117003, 31.551124572753899 ], [ -116.691665649414006, 31.5536117553712 ], [ -116.69189453125, 31.5717163085938 ], [ -116.650863647460994, 31.583078384399499 ], [ -116.66805267334, 31.617500305175799 ], [ -116.648887634277003, 31.660833358764801 ], [ -116.677780151367003, 31.6983356475831 ], [ -116.692779541015994, 31.704166412353501 ], [ -116.696105957030994, 31.7158813476562 ], [ -116.715835571289006, 31.7147216796875 ], [ -116.714416503905994, 31.724668502807699 ], [ -116.724998474120994, 31.723056793212901 ], [ -116.72721862793, 31.733888626098601 ], [ -116.745552062987997, 31.743333816528398 ], [ -116.741668701172003, 31.750278472900298 ], [ -116.724708557129006, 31.7483825683594 ], [ -116.661392211914006, 31.718332290649499 ], [ -116.640808105469006, 31.736082077026399 ], [ -116.626220703125, 31.7653198242188 ], [ -116.639724731445, 31.725833892822401 ], [ -116.657196044922003, 31.7191867828369 ], [ -116.629997253417997, 31.6947231292725 ], [ -116.631317138672003, 31.7086296081544 ], [ -116.641387939452997, 31.717220306396499 ], [ -116.611114501952997, 31.771389007568398 ], [ -116.620002746582003, 31.780277252197301 ], [ -116.609169006347997, 31.815555572509801 ], [ -116.616371154785, 31.850320816040199 ], [ -116.628112792969006, 31.8591327667237 ], [ -116.632774353027003, 31.854724884033299 ], [ -116.625648498535, 31.843336105346701 ], [ -116.639724731445, 31.860000610351701 ], [ -116.669952392577997, 31.861143112182599 ], [ -116.698890686035, 31.8941669464112 ], [ -116.746337890625, 31.9017639160157 ], [ -116.756385803222997, 31.912778854370199 ], [ -116.761596679687003, 31.961389541626001 ], [ -116.7783203125, 31.9767169952393 ], [ -116.831077575684006, 31.977413177490298 ], [ -116.855766296387003, 31.990594863891602 ], [ -116.886901855469006, 32.0344848632813 ], [ -116.887588500977003, 32.049190521240199 ], [ -116.877777099609006, 32.054164886474602 ], [ -116.884674072265994, 32.088798522949197 ], [ -116.770690917969006, 32.095703125000099 ], [ -116.696411132812003, 32.134887695312599 ], [ -116.578735351562003, 32.129287719726598 ], [ -116.542739868164006, 32.158866882324297 ], [ -116.522872924805, 32.140510559082102 ], [ -116.472412109375, 32.1237182617188 ], [ -116.433288574219006, 32.1331176757813 ], [ -116.409721374512003, 32.123741149902401 ], [ -116.293281555175994, 32.12553024292 ], [ -116.227416992187003, 32.108886718750099 ], [ -116.200378417969006, 32.126708984375 ], [ -116.184272766112997, 32.117721557617301 ], [ -116.13533782959, 32.126739501953097 ], [ -116.114196777344006, 32.1146850585937 ], [ -116.097412109375, 32.124511718750099 ], [ -116.060516357422003, 32.108940124511797 ], [ -116.030090332030994, 32.1063232421875 ], [ -116.003784179687003, 32.1243286132813 ], [ -115.964599609375, 32.1030883789062 ], [ -115.883605957030994, 32.0776977539062 ], [ -115.897705078125, 32.021484375000099 ], [ -115.8828125, 31.99072265625 ], [ -115.882202148437003, 31.971498489379901 ], [ -115.913848876952997, 31.918470382690501 ], [ -115.877685546875, 31.839111328125 ], [ -115.864242553710994, 31.825160980224702 ], [ -115.846984863280994, 31.8217163085937 ], [ -115.832580566405994, 31.779724121093899 ], [ -115.835876464844006, 31.7647094726562 ], [ -115.810913085937997, 31.727113723755 ], [ -115.770202636719006, 31.701904296875099 ], [ -115.709098815917997, 31.615129470825298 ], [ -115.566528320312003, 31.473081588745199 ], [ -115.556518554687003, 31.452880859375 ], [ -115.55687713623, 31.411840438842798 ], [ -115.587089538574006, 31.301160812377901 ], [ -115.579711914062003, 31.2872924804688 ], [ -115.560607910155994, 31.2902812957763 ], [ -115.552001953125, 31.279907226562599 ], [ -115.55859375, 31.249692916870099 ], [ -115.539001464844006, 31.242919921875099 ], [ -115.54052734375, 31.2152709960938 ], [ -115.51146697998, 31.1668682098388 ], [ -115.490997314452997, 31.108829498291101 ], [ -115.476806640625, 31.093505859375 ], [ -115.471984863280994, 31.0675067901612 ], [ -115.453491210937997, 31.0460815429688 ], [ -115.457275390625, 31.028930664062599 ], [ -115.473876953125, 31.0213012695313 ], [ -115.48681640625, 31.002050399780401 ], [ -115.568717956542997, 30.9476852416993 ], [ -115.467590332030994, 30.943908691406399 ], [ -115.351928710937997, 30.8970947265625 ], [ -115.236877441405994, 30.897705078125099 ], [ -115.218200683594006, 30.908323287963899 ], [ -115.202011108397997, 30.897710800171001 ], [ -115.190490722655994, 30.869873046875099 ], [ -115.171508789062003, 30.856689453125099 ], [ -115.161010742187997, 30.8621215820312 ], [ -115.145202636719006, 30.891479492187599 ], [ -115.12841796875, 30.897705078125099 ], [ -114.946632385254006, 30.888492584228601 ], [ -114.904357910155994, 30.904541015625099 ], [ -114.83341217041, 30.888990402221701 ], [ -114.706398010254006, 30.877510070800799 ], [ -114.709442138672003, 30.842222213745199 ], [ -114.695831298827997, 30.8163871765138 ], [ -114.699996948242003, 30.745555877685501 ], [ -114.69189453125, 30.746704101562599 ], [ -114.705558776855, 30.716110229492202 ], [ -114.693336486815994, 30.676944732666101 ], [ -114.698890686035, 30.633611679077099 ], [ -114.68083190918, 30.590833663940501 ], [ -114.65119934082, 30.555805206298899 ], [ -114.647499084472997, 30.525278091430799 ], [ -114.630004882812003, 30.4888916015625 ], [ -114.638442993164006, 30.4545631408693 ], [ -114.629997253417997, 30.419166564941499 ], [ -114.644165039062003, 30.376386642456101 ], [ -114.6357421875, 30.367139816284201 ], [ -114.635009765625, 30.347471237182599 ], [ -114.640510559082003, 30.347740173339801 ], [ -114.656669616699006, 30.2855548858644 ], [ -114.639282226562003, 30.259275436401399 ], [ -114.667465209960994, 30.191665649414201 ], [ -114.651977539062003, 30.174316406250099 ], [ -114.627571105957003, 30.119981765747202 ], [ -114.603591918945, 30.108261108398501 ], [ -114.585838317870994, 30.0778007507325 ], [ -114.5830078125, 30.051923751831101 ], [ -114.56462097168, 30.011022567748999 ], [ -114.551391601562003, 30.002075195312599 ], [ -114.533493041992003, 29.968109130859499 ], [ -114.484497070312003, 29.9464721679688 ], [ -114.472274780272997, 29.915309906005898 ], [ -114.434204101562003, 29.909912109375099 ], [ -114.413040161132997, 29.8910846710206 ], [ -114.41259765625, 29.848510742187599 ], [ -114.39387512207, 29.8277797698975 ], [ -114.405662536620994, 29.8252353668213 ], [ -114.409240722655994, 29.815292358398501 ], [ -114.398094177245994, 29.8094081878662 ], [ -114.404724121094006, 29.804166793823299 ], [ -114.399169921875, 29.799167633056701 ], [ -114.395202636719006, 29.8076782226563 ], [ -114.395385742187997, 29.7910766601563 ], [ -114.383171081542997, 29.775129318237301 ], [ -114.358688354492003, 29.771707534790199 ], [ -114.341247558594006, 29.7465553283693 ], [ -114.321105957030994, 29.741090774536101 ], [ -114.294708251952997, 29.742237091064499 ], [ -114.281669616699006, 29.759445190429801 ], [ -114.2919921875, 29.757324218750099 ], [ -114.29239654541, 29.7668647766113 ], [ -114.280883789062003, 29.7722778320312 ], [ -114.208015441894005, 29.744672775268601 ], [ -114.198608398437997, 29.725833892822301 ], [ -114.16007232666, 29.6914787292482 ], [ -114.144073486327997, 29.6918334960938 ], [ -114.109634399414006, 29.6526069641113 ], [ -114.062568664550994, 29.628780364990199 ], [ -114.046325683594006, 29.596923828125099 ], [ -113.980827331542997, 29.567577362060501 ], [ -113.896659851074006, 29.485208511352699 ], [ -113.861602783202997, 29.462465286254901 ], [ -113.835823059082003, 29.4563217163087 ], [ -113.824157714844006, 29.4290962219238 ], [ -113.773582458495994, 29.410791397094801 ], [ -113.761108398437997, 29.391479492187599 ], [ -113.725524902344006, 29.366090774536101 ], [ -113.694709777832003, 29.324375152587901 ], [ -113.637512207030994, 29.2836723327638 ], [ -113.625, 29.252685546875099 ], [ -113.65380859375, 29.222715377807599 ], [ -113.656120300292997, 29.209651947021602 ], [ -113.640197753905994, 29.200208663940401 ], [ -113.643043518065994, 29.183265686035298 ], [ -113.635696411132997, 29.174085617065401 ], [ -113.627494812012003, 29.175764083862401 ], [ -113.618881225585994, 29.160209655761701 ], [ -113.609710693359006, 29.164375305175898 ], [ -113.594436645507997, 29.132431030273501 ], [ -113.570495605469006, 29.1163654327394 ], [ -113.562767028809006, 29.086597442626999 ], [ -113.538681030272997, 29.058338165283299 ], [ -113.534469604492003, 29.032512664794901 ], [ -113.548095703125, 29.040527343750099 ], [ -113.562995910645, 29.0081596374512 ], [ -113.547302246094006, 28.9852905273437 ], [ -113.544212341309006, 28.9614772796631 ], [ -113.557350158690994, 28.9473190307618 ], [ -113.525482177734006, 28.8931655883788 ], [ -113.480125427245994, 28.893955230712901 ], [ -113.470909118652003, 28.9139728546144 ], [ -113.487426757812003, 28.927490234375099 ], [ -113.474609375, 28.9437255859375 ], [ -113.480285644530994, 28.9475116729737 ], [ -113.447853088379006, 28.940069198608398 ], [ -113.437217712402003, 28.9596843719482 ], [ -113.423942565917997, 28.948989868164102 ], [ -113.42813873291, 28.935472488403398 ], [ -113.41658782959, 28.924240112304801 ], [ -113.405517578125, 28.9254760742188 ], [ -113.396392822265994, 28.938034057617202 ], [ -113.3828125, 28.935485839843899 ], [ -113.394714355469006, 28.919496536255 ], [ -113.368148803710994, 28.904281616210898 ], [ -113.380783081055, 28.894285202026399 ], [ -113.357559204100994, 28.873855590820401 ], [ -113.370231628417997, 28.860761642456101 ], [ -113.370559692382997, 28.8371906280518 ], [ -113.364013671875, 28.8220825195312 ], [ -113.351898193359006, 28.8168258666993 ], [ -113.354721069335994, 28.802219390869201 ], [ -113.311279296875, 28.803710937499901 ], [ -113.258895874022997, 28.840568542480501 ], [ -113.22110748291, 28.8253173828125 ], [ -113.212341308594006, 28.803136825561499 ], [ -113.196144104004006, 28.792093276977699 ], [ -113.19401550293, 28.7450771331788 ], [ -113.159446716309006, 28.6613883972168 ], [ -113.129135131835994, 28.634454727172901 ], [ -113.129165649414006, 28.594165802002099 ], [ -113.103332519530994, 28.5052795410156 ], [ -113.014167785645, 28.4572238922119 ], [ -112.969444274902003, 28.457010269165 ], [ -112.903076171875, 28.4752807617188 ], [ -112.88444519043, 28.4630546569825 ], [ -112.883056640625, 28.4513874053956 ], [ -112.873886108397997, 28.450275421142599 ], [ -112.882019042969006, 28.437963485717798 ], [ -112.866386413574006, 28.425556182861399 ], [ -112.859802246094006, 28.440307617187599 ], [ -112.845848083495994, 28.440233230590799 ], [ -112.843940734862997, 28.4225063323975 ], [ -112.859367370605, 28.404405593872099 ], [ -112.849182128905994, 28.381103515625 ], [ -112.875312805175994, 28.313346862793001 ], [ -112.867874145507997, 28.3000202178956 ], [ -112.873039245605, 28.283876419067401 ], [ -112.801391601562003, 28.2038879394531 ], [ -112.785934448242003, 28.1964416503906 ], [ -112.810203552245994, 28.1479015350343 ], [ -112.812683105469006, 28.118286132812599 ], [ -112.802497863769005, 28.0841674804688 ], [ -112.78833770752, 28.0674953460693 ], [ -112.801391601562003, 28.049072265625099 ], [ -112.803588867187997, 28.023023605346701 ], [ -112.785552978515994, 28.003889083862401 ], [ -112.766662597655994, 28.0025444030762 ], [ -112.756713867187003, 27.973047256469801 ], [ -112.766944885254006, 27.9394435882568 ], [ -112.760833740234006, 27.896942138671999 ], [ -112.768058776855, 27.879167556762798 ], [ -112.789184570312003, 27.9368896484375 ], [ -112.828308105469006, 27.9492797851562 ], [ -114.094696044922003, 27.952873229980501 ], [ -114.084999084472997, 27.970832824706999 ], [ -114.08617401123, 27.9830818176269 ], [ -114.095832824707003, 27.976942062378001 ], [ -114.09944152832, 27.9891662597657 ], [ -114.090278625487997, 27.993335723877099 ], [ -114.098609924315994, 28.000001907348601 ], [ -114.092224121094006, 28.007505416870199 ], [ -114.101928710937997, 28.004701614379901 ], [ -114.105796813965, 28.0224533081056 ], [ -114.125, 28.016944885253899 ], [ -114.116111755370994, 28.025833129882901 ], [ -114.119720458984006, 28.036945343017599 ], [ -114.093627929687997, 28.033874511718899 ], [ -114.098609924315994, 28.033054351806602 ], [ -114.098892211914006, 28.026666641235501 ], [ -114.103332519530994, 28.0236110687256 ], [ -114.103332519530994, 28.019443511962901 ], [ -114.097778320312003, 28.0255546569825 ], [ -114.084999084472997, 28.018888473510799 ], [ -114.075561523437003, 28.000057220458899 ], [ -114.08194732666, 27.999721527099599 ], [ -114.075836181640994, 27.994167327880898 ], [ -114.083305358887003, 27.990312576293899 ], [ -114.076599121094006, 27.989501953125 ], [ -114.080810546875, 27.9774799346925 ], [ -114.041114807129006, 28.0219459533693 ], [ -114.035003662109006, 28.041395187378001 ], [ -114.048362731934006, 28.039840698242202 ], [ -114.068519592285, 28.054723739624102 ], [ -114.099685668945, 28.057039260864201 ], [ -114.102905273437997, 28.106019973755 ], [ -114.114532470702997, 28.120124816894499 ], [ -114.059875488280994, 28.2005004882813 ], [ -114.062377929687997, 28.167295455932699 ], [ -114.076667785645, 28.1402778625488 ], [ -114.076293945312003, 28.1137084960938 ], [ -114.068885803222997, 28.1033325195312 ], [ -114.063888549805, 28.106388092041101 ], [ -114.067779541015994, 28.100835800170898 ], [ -114.066390991210994, 28.095556259155298 ], [ -114.057502746582003, 28.095092773437599 ], [ -114.066108703612997, 28.0972213745118 ], [ -114.062194824219006, 28.107482910156399 ], [ -114.074447631835994, 28.123611450195298 ], [ -114.061943054199006, 28.109722137451101 ], [ -114.054122924805, 28.106967926025401 ], [ -114.065002441405994, 28.120000839233501 ], [ -114.055786132812003, 28.118896484375099 ], [ -114.06640625, 28.1245136260987 ], [ -114.063331604004006, 28.1600017547607 ], [ -114.054725646972997, 28.160278320312599 ], [ -114.061668395995994, 28.1622219085693 ], [ -114.054168701172003, 28.169721603393601 ], [ -114.056945800780994, 28.1826782226562 ], [ -114.04638671875, 28.191942214965799 ], [ -114.052780151367003, 28.223611831665 ], [ -114.064353942870994, 28.235509872436499 ], [ -114.067779541015994, 28.256944656372099 ], [ -114.074447631835994, 28.247777938842798 ], [ -114.081977844237997, 28.2522506713868 ], [ -114.103576660155994, 28.2380981445313 ], [ -114.125556945800994, 28.256111145019499 ], [ -114.080276489257997, 28.343887329101602 ], [ -114.045555114745994, 28.4464740753175 ], [ -114.04638671875, 28.4680786132812 ], [ -114.069725036620994, 28.4908332824707 ], [ -114.06925201416, 28.514539718627901 ], [ -114.086112976074006, 28.5219440460206 ], [ -114.096923828125, 28.5460815429688 ], [ -114.111946105957003, 28.556110382080099 ], [ -114.1591796875, 28.5661010742188 ], [ -114.156372070312003, 28.6219596862794 ], [ -114.164489746094006, 28.6422729492188 ], [ -114.181396484375, 28.6561279296875 ], [ -114.235832214355, 28.666944503784201 ], [ -114.245529174805, 28.662521362304801 ], [ -114.245834350585994, 28.652780532836999 ], [ -114.258613586425994, 28.661945343017599 ], [ -114.270034790039006, 28.6597633361818 ], [ -114.26887512207, 28.6880378723144 ], [ -114.284645080565994, 28.706142425537202 ], [ -114.301940917969006, 28.705276489257901 ], [ -114.314735412597997, 28.7272243499756 ], [ -114.347503662109006, 28.730558395385899 ], [ -114.341941833495994, 28.750278472900401 ], [ -114.35221862793, 28.764999389648398 ], [ -114.348564147949006, 28.7714138031007 ], [ -114.360832214355, 28.780555725097699 ], [ -114.360298156737997, 28.796140670776399 ], [ -114.373336791992003, 28.811944961548001 ], [ -114.387092590332003, 28.8064708709718 ], [ -114.398620605469006, 28.8175048828125 ], [ -114.404739379882997, 28.861122131347599 ], [ -114.416946411132997, 28.8791694641113 ], [ -114.426391601562003, 28.88330078125 ], [ -114.438552856445, 28.8758258819581 ], [ -114.446617126465, 28.904499053955199 ], [ -114.461112976074006, 28.906665802001999 ], [ -114.489440917969006, 28.9322223663331 ], [ -114.526428222655994, 28.931884765624901 ], [ -114.53141784668, 28.917621612548899 ], [ -114.546104431152003, 28.934503555297901 ], [ -114.547180175780994, 28.953672409057699 ], [ -114.565002441405994, 28.972776412963899 ], [ -114.579528808594006, 28.9744873046875 ], [ -114.586906433105, 28.963962554931701 ], [ -114.598373413085994, 28.974792480468899 ], [ -114.6083984375, 29.058834075927699 ], [ -114.618606567382997, 29.062768936157301 ], [ -114.628913879395, 29.091680526733299 ], [ -114.654418945312003, 29.097379684448399 ], [ -114.676078796387003, 29.1129169464112 ], [ -114.695617675780994, 29.1102905273438 ], [ -114.702438354492003, 29.100622177124102 ], [ -114.709716796875, 29.111083984375099 ], [ -114.7158203125, 29.108886718749901 ] ] ] }, { "type": "Polygon", "coordinates": [ [ [ -116.800788879394005, 31.810483932495199 ], [ -116.801696777344006, 31.805549621581999 ], [ -116.808898925780994, 31.8095092773437 ], [ -116.805274963379006, 31.812778472900401 ], [ -116.800788879394005, 31.810483932495199 ] ] ] }, { "type": "Polygon", "coordinates": [ [ [ -116.79662322998, 31.806158065796001 ], [ -116.786987304687997, 31.803100585937599 ], [ -116.786666870117003, 31.7905578613282 ], [ -116.79305267334, 31.7952785491944 ], [ -116.79662322998, 31.806158065796001 ] ] ] }, { "type": "Polygon", "coordinates": [ [ [ -116.112182617187997, 30.4974975585938 ], [ -116.103881835937997, 30.483276367187599 ], [ -116.098335266112997, 30.4847221374513 ], [ -116.108673095702997, 30.479799270629901 ], [ -116.122085571289006, 30.483375549316399 ], [ -116.123596191405994, 30.492790222168001 ], [ -116.112182617187997, 30.4974975585938 ] ] ] }, { "type": "Polygon", "coordinates": [ [ [ -114.547225952147997, 30.091945648193398 ], [ -114.53971862793, 30.091388702392599 ], [ -114.534736633300994, 30.083936691284201 ], [ -114.553886413574006, 30.089443206787202 ], [ -114.547225952147997, 30.091945648193398 ] ] ] }, { "type": "Polygon", "coordinates": [ [ [ -114.488891601562003, 30.047777175903299 ], [ -114.491111755370994, 30.0491657257081 ], [ -114.489440917969006, 30.0541687011718 ], [ -114.486999511719006, 30.051389694213899 ], [ -114.488891601562003, 30.047777175903299 ] ] ] }, { "type": "Polygon", "coordinates": [ [ [ -114.474998474120994, 30.012775421142599 ], [ -114.480003356934006, 30.020277023315501 ], [ -114.47354888916, 30.022758483886701 ], [ -114.473609924315994, 30.0136108398438 ], [ -114.474998474120994, 30.012775421142599 ] ] ] }, { "type": "Polygon", "coordinates": [ [ [ -114.388610839844006, 29.993055343628001 ], [ -114.386108398437997, 29.991388320922901 ], [ -114.390274047852003, 29.987777709961101 ], [ -114.389175415039006, 29.9950141906738 ], [ -114.388610839844006, 29.993055343628001 ] ] ] }, { "type": "Polygon", "coordinates": [ [ [ -114.417503356934006, 29.9883327484131 ], [ -114.400833129882997, 29.981388092041101 ], [ -114.391296386719006, 29.9611206054688 ], [ -114.411018371582003, 29.953832626342798 ], [ -114.423614501952997, 29.966110229492202 ], [ -114.415832519530994, 29.975000381469801 ], [ -114.417503356934006, 29.9883327484131 ] ] ] }, { "type": "Polygon", "coordinates": [ [ [ -114.381134033202997, 29.820676803588899 ], [ -114.369117736815994, 29.8086242675782 ], [ -114.37060546875, 29.8055515289307 ], [ -114.380126953125, 29.8125 ], [ -114.390113830565994, 29.808235168457099 ], [ -114.39778137207, 29.8180561065675 ], [ -114.381134033202997, 29.820676803588899 ] ] ] }, { "type": "Polygon", "coordinates": [ [ [ -115.791389465332003, 29.7980556488038 ], [ -115.787780761719006, 29.7930908203125 ], [ -115.797225952147997, 29.784164428711001 ], [ -115.79638671875, 29.7927780151368 ], [ -115.791389465332003, 29.7980556488038 ] ] ] }, { "type": "Polygon", "coordinates": [ [ [ -114.303405761719006, 29.7432861328125 ], [ -114.304504394530994, 29.742494583129901 ], [ -114.305961608887003, 29.7444458007812 ], [ -114.303588867187003, 29.745298385620199 ], [ -114.303405761719006, 29.7432861328125 ] ] ] }, { "type": "Polygon", "coordinates": [ [ [ -113.53914642334, 29.566421508789201 ], [ -113.535003662109006, 29.5644435882569 ], [ -113.533874511719006, 29.562498092651399 ], [ -113.545280456542997, 29.565000534057699 ], [ -113.53914642334, 29.566421508789201 ] ] ] }, { "type": "Polygon", "coordinates": [ [ [ -113.565208435059006, 29.563934326171999 ], [ -113.560218811035, 29.5555000305175 ], [ -113.575836181640994, 29.545574188232401 ], [ -113.579742431640994, 29.560777664184702 ], [ -113.565208435059006, 29.563934326171999 ] ] ] }, { "type": "Polygon", "coordinates": [ [ [ -113.320129394530994, 29.156921386718899 ], [ -113.35082244873, 29.168262481689599 ], [ -113.364807128905994, 29.187498092651399 ], [ -113.403877258300994, 29.208818435668999 ], [ -113.430442810059006, 29.242725372314499 ], [ -113.428565979004006, 29.256050109863299 ], [ -113.443656921387003, 29.275959014892599 ], [ -113.497344970702997, 29.2840976715088 ], [ -113.507507324219006, 29.323486328125 ], [ -113.526382446289006, 29.335208892822301 ], [ -113.570533752440994, 29.400772094726602 ], [ -113.590545654297003, 29.411384582519599 ], [ -113.592559814452997, 29.450723648071399 ], [ -113.568908691405994, 29.4890747070312 ], [ -113.56420135498, 29.5058059692382 ], [ -113.571937561035, 29.514930725097798 ], [ -113.572509765625, 29.5377197265625 ], [ -113.558601379395, 29.554653167724702 ], [ -113.557769775390994, 29.534652709960898 ], [ -113.54443359375, 29.533817291259801 ], [ -113.5166015625, 29.551881790161101 ], [ -113.510543823242003, 29.537153244018601 ], [ -113.47582244873, 29.531042098999102 ], [ -113.430297851562003, 29.4907932281494 ], [ -113.415824890137003, 29.465488433837901 ], [ -113.39404296875, 29.460248947143601 ], [ -113.362487792969006, 29.3947143554688 ], [ -113.351806640625, 29.387512207031399 ], [ -113.375823974609006, 29.350208282470799 ], [ -113.365821838379006, 29.3071517944337 ], [ -113.345542907715, 29.295763015747099 ], [ -113.303894042969006, 29.2910766601562 ], [ -113.29443359375, 29.2823581695557 ], [ -113.275604248047003, 29.29052734375 ], [ -113.256553649902003, 29.283060073852699 ], [ -113.182189941405994, 29.289672851562599 ], [ -113.16722869873, 29.278478622436602 ], [ -113.178321838379006, 29.248540878296001 ], [ -113.166877746582003, 29.190797805786101 ], [ -113.174438476562003, 29.126874923706101 ], [ -113.155212402344006, 29.097429275512798 ], [ -113.148803710937997, 29.0664463043213 ], [ -113.120544433594006, 29.0560417175294 ], [ -113.099899291992003, 29.057579040527301 ], [ -113.114868164062003, 29.028526306152401 ], [ -113.115295410155994, 28.9874877929688 ], [ -113.189437866210994, 29.0290966033937 ], [ -113.201110839844006, 29.048095703125 ], [ -113.243675231934006, 29.067022323608501 ], [ -113.266647338867003, 29.107154846191499 ], [ -113.320129394530994, 29.156921386718899 ] ] ] }, { "type": "Polygon", "coordinates": [ [ [ -113.572929382324006, 29.514675140380799 ], [ -113.574012756347997, 29.512731552124102 ], [ -113.575729370117003, 29.513362884521499 ], [ -113.575096130370994, 29.515062332153299 ], [ -113.572929382324006, 29.514675140380799 ] ] ] }, { "type": "Polygon", "coordinates": [ [ [ -118.224166870117003, 28.942777633666999 ], [ -118.22770690918, 28.921941757202099 ], [ -118.248291015625, 28.89111328125 ], [ -118.297225952147997, 28.880556106567401 ], [ -118.282775878905994, 28.893611907959102 ], [ -118.300003051757997, 28.9347229003907 ], [ -118.291664123535, 28.968055725097699 ], [ -118.313888549805, 28.9802780151368 ], [ -118.305557250977003, 29.005556106567301 ], [ -118.321983337402003, 29.045036315918001 ], [ -118.365837097167997, 29.080278396606602 ], [ -118.351928710937003, 29.1152954101563 ], [ -118.36888885498, 29.149166107177798 ], [ -118.333885192870994, 29.1711120605469 ], [ -118.301109313965, 29.169721603393601 ], [ -118.259452819824006, 29.190561294555799 ], [ -118.28581237793, 29.150321960449201 ], [ -118.28694152832, 29.130277633666999 ], [ -118.282218933105, 29.108610153198399 ], [ -118.253883361815994, 29.095006942749102 ], [ -118.227478027344006, 29.0617065429688 ], [ -118.22110748291, 29.013055801391602 ], [ -118.230003356934006, 28.992551803588899 ], [ -118.220901489257997, 28.9637355804443 ], [ -118.224166870117003, 28.942777633666999 ] ] ] }, { "type": "Polygon", "coordinates": [ [ [ -113.606941223144005, 29.166112899780298 ], [ -113.608428955077997, 29.167270660400401 ], [ -113.606666564940994, 29.168972015380898 ], [ -113.606109619140994, 29.168333053588999 ], [ -113.606941223144005, 29.166112899780298 ] ] ] }, { "type": "Polygon", "coordinates": [ [ [ -113.529373168945, 29.096406936645501 ], [ -113.530281066895, 29.098333358764801 ], [ -113.528335571289006, 29.099166870117099 ], [ -113.527496337890994, 29.097778320312599 ], [ -113.529373168945, 29.096406936645501 ] ] ] }, { "type": "Polygon", "coordinates": [ [ [ -113.513206481934006, 29.096735000610298 ], [ -113.502021789550994, 29.090877532958999 ], [ -113.507453918457003, 29.080314636230501 ], [ -113.502197265625, 29.049682617187599 ], [ -113.488891601562003, 29.037475585937599 ], [ -113.505187988280994, 29.0393466949463 ], [ -113.514755249022997, 29.052991867065401 ], [ -113.514312744140994, 29.0761108398438 ], [ -113.522224426269005, 29.078332901001001 ], [ -113.527824401855, 29.094850540161101 ], [ -113.513206481934006, 29.096735000610298 ] ] ] }, { "type": "Polygon", "coordinates": [ [ [ -113.521942138672003, 29.070554733276399 ], [ -113.51611328125, 29.067504882812401 ], [ -113.515487670897997, 29.064990997314499 ], [ -113.518287658690994, 29.0653190612793 ], [ -113.521942138672003, 29.070554733276399 ] ] ] }, { "type": "Polygon", "coordinates": [ [ [ -113.083053588867003, 29.068891525268601 ], [ -113.084815979004006, 29.062778472900501 ], [ -113.098274230957003, 29.060125350952202 ], [ -113.09642791748, 29.067256927490199 ], [ -113.083053588867003, 29.068891525268601 ] ] ] }, { "type": "Polygon", "coordinates": [ [ [ -113.467414855957003, 29.0239143371581 ], [ -113.459716796875, 29.014165878296001 ], [ -113.463333129882997, 29.011388778686499 ], [ -113.468780517577997, 29.0190734863281 ], [ -113.467414855957003, 29.0239143371581 ] ] ] }, { "type": "Polygon", "coordinates": [ [ [ -113.512710571289006, 29.015134811401499 ], [ -113.510787963867003, 29.013469696044901 ], [ -113.51668548584, 29.013761520385799 ], [ -113.514526367187003, 29.016906738281399 ], [ -113.512710571289006, 29.015134811401499 ] ] ] }, { "type": "Polygon", "coordinates": [ [ [ -113.524444580077997, 29.010814666748001 ], [ -113.52555847168, 29.0116672515869 ], [ -113.524719238280994, 29.0138874053956 ], [ -113.523612976074006, 29.012500762939499 ], [ -113.524444580077997, 29.010814666748001 ] ] ] }, { "type": "Polygon", "coordinates": [ [ [ -113.510833740234006, 29.012222290039102 ], [ -113.51106262207, 29.010879516601602 ], [ -113.515998840332003, 29.009941101074201 ], [ -113.515426635742003, 29.011814117431701 ], [ -113.510833740234006, 29.012222290039102 ] ] ] }, { "type": "Polygon", "coordinates": [ [ [ -113.522514343262003, 29.007471084594702 ], [ -113.520713806152003, 29.005674362182599 ], [ -113.5244140625, 29.0025024414062 ], [ -113.523612976074006, 29.0072231292725 ], [ -113.522514343262003, 29.007471084594702 ] ] ] }, { "type": "Polygon", "coordinates": [ [ [ -113.510795593262003, 29.0019226074219 ], [ -113.502075195312003, 28.99391746521 ], [ -113.511688232422003, 28.988756179809702 ], [ -113.516654968262003, 29.0015964508057 ], [ -113.510795593262003, 29.0019226074219 ] ] ] }, { "type": "Polygon", "coordinates": [ [ [ -113.5205078125, 28.999511718750099 ], [ -113.518615722655994, 28.9981079101562 ], [ -113.518333435059006, 28.994722366333001 ], [ -113.521385192870994, 28.9980564117432 ], [ -113.5205078125, 28.999511718750099 ] ] ] }, { "type": "Polygon", "coordinates": [ [ [ -113.484169006347997, 28.9791660308838 ], [ -113.476280212402003, 28.974275588989201 ], [ -113.477569580077997, 28.966257095336999 ], [ -113.481033325195, 28.967126846313501 ], [ -113.484169006347997, 28.9791660308838 ] ] ] }, { "type": "Polygon", "coordinates": [ [ [ -113.474700927734006, 28.957801818847798 ], [ -113.473892211914006, 28.9555568695068 ], [ -113.47777557373, 28.9555568695068 ], [ -113.47721862793, 28.9566669464112 ], [ -113.474700927734006, 28.957801818847798 ] ] ] }, { "type": "Polygon", "coordinates": [ [ [ -113.482482910155994, 28.957275390625 ], [ -113.47998046875, 28.955320358276399 ], [ -113.480590820312003, 28.9547138214112 ], [ -113.483581542969006, 28.956117630005 ], [ -113.482482910155994, 28.957275390625 ] ] ] }, { "type": "Polygon", "coordinates": [ [ [ -113.542060852050994, 28.9547214508057 ], [ -113.543334960937003, 28.955278396606499 ], [ -113.54305267334, 28.957221984863398 ], [ -113.541778564452997, 28.9564533233643 ], [ -113.542060852050994, 28.9547214508057 ] ] ] }, { "type": "Polygon", "coordinates": [ [ [ -113.452667236327997, 28.945096969604499 ], [ -113.452865600585994, 28.948846817016701 ], [ -113.44645690918, 28.950878143310501 ], [ -113.448287963867003, 28.948286056518601 ], [ -113.452667236327997, 28.945096969604499 ] ] ] }, { "type": "Polygon", "coordinates": [ [ [ -113.38330078125, 28.922113418579201 ], [ -113.385833740234006, 28.925277709960898 ], [ -113.38500213623, 28.9266662597657 ], [ -113.383018493652003, 28.924737930297901 ], [ -113.38330078125, 28.922113418579201 ] ] ] }, { "type": "Polygon", "coordinates": [ [ [ -118.288909912109006, 28.904607772827099 ], [ -118.291259765625, 28.906827926635899 ], [ -118.28978729248, 28.908525466918899 ], [ -118.288208007812003, 28.9058532714844 ], [ -118.288909912109006, 28.904607772827099 ] ] ] }, { "type": "Polygon", "coordinates": [ [ [ -113.0380859375, 28.890075683593899 ], [ -113.044380187987997, 28.8832073211669 ], [ -113.048614501952997, 28.894443511962901 ], [ -113.040100097655994, 28.891189575195401 ], [ -113.035583496094006, 28.900512695312599 ], [ -113.0380859375, 28.890075683593899 ] ] ] }, { "type": "Polygon", "coordinates": [ [ [ -113.028282165527003, 28.885072708129901 ], [ -113.030952453612997, 28.886358261108501 ], [ -113.030578613280994, 28.8884887695313 ], [ -113.026611328125, 28.886920928955199 ], [ -113.028282165527003, 28.885072708129901 ] ] ] }, { "type": "Polygon", "coordinates": [ [ [ -118.292694091797003, 28.866979598999102 ], [ -118.295356750487997, 28.873504638671999 ], [ -118.293045043945, 28.8764839172363 ], [ -118.289443969727003, 28.8714504241944 ], [ -118.292694091797003, 28.866979598999102 ] ] ] }, { "type": "Polygon", "coordinates": [ [ [ -118.295890808105, 28.863477706909201 ], [ -118.29670715332, 28.8636074066162 ], [ -118.297660827637003, 28.865301132202099 ], [ -118.294494628905994, 28.864780426025401 ], [ -118.295890808105, 28.863477706909201 ] ] ] }, { "type": "Polygon", "coordinates": [ [ [ -118.2841796875, 28.8524780273438 ], [ -118.279441833495994, 28.852777481078999 ], [ -118.279006958007997, 28.847906112671001 ], [ -118.285003662109006, 28.847778320312401 ], [ -118.2841796875, 28.8524780273438 ] ] ] }, { "type": "Polygon", "coordinates": [ [ [ -112.979675292969006, 28.8267211914063 ], [ -112.976173400879006, 28.8209934234619 ], [ -112.986595153809006, 28.824384689331101 ], [ -112.985412597655994, 28.826696395874102 ], [ -112.979675292969006, 28.8267211914063 ] ] ] }, { "type": "Polygon", "coordinates": [ [ [ -112.95972442627, 28.7339820861818 ], [ -112.950622558594006, 28.727294921875 ], [ -112.946388244629006, 28.7166652679444 ], [ -112.967224121094006, 28.734443664550898 ], [ -112.95972442627, 28.7339820861818 ] ] ] }, { "type": "Polygon", "coordinates": [ [ [ -112.554702758789006, 28.7321891784669 ], [ -112.541381835937003, 28.711732864379901 ], [ -112.552215576172003, 28.673902511596701 ], [ -112.604370117187997, 28.6688842773438 ], [ -112.61279296875, 28.7266845703125 ], [ -112.554702758789006, 28.7321891784669 ] ] ] }, { "type": "Polygon", "coordinates": [ [ [ -112.917785644530994, 28.699525833129901 ], [ -112.897277832030994, 28.697082519531399 ], [ -112.894470214844006, 28.680297851562599 ], [ -112.932983398437003, 28.697429656982401 ], [ -112.933448791504006, 28.709701538085898 ], [ -112.917785644530994, 28.699525833129901 ] ] ] }, { "type": "Polygon", "coordinates": [ [ [ -112.824356079100994, 28.6495265960694 ], [ -112.764129638672003, 28.602817535400401 ], [ -112.755836486815994, 28.587501525878999 ], [ -112.773803710937003, 28.576112747192401 ], [ -112.782676696777003, 28.579856872558601 ], [ -112.798889160155994, 28.610000610351602 ], [ -112.843482971190994, 28.639396667480501 ], [ -112.868110656737997, 28.6440544128419 ], [ -112.866432189940994, 28.6519870758057 ], [ -112.894409179687997, 28.6782836914063 ], [ -112.860015869140994, 28.672966003418001 ], [ -112.824356079100994, 28.6495265960694 ] ] ] }, { "type": "Polygon", "coordinates": [ [ [ -114.276107788085994, 28.668888092041101 ], [ -114.278053283690994, 28.667779922485401 ], [ -114.279998779297003, 28.6697216033937 ], [ -114.276947021484006, 28.671388626098601 ], [ -114.276107788085994, 28.668888092041101 ] ] ] }, { "type": "Polygon", "coordinates": [ [ [ -114.077163696289006, 28.244672775268601 ], [ -114.054443359375, 28.219165802002099 ], [ -114.060180664062003, 28.2113037109375 ], [ -114.065895080565994, 28.214721679687401 ], [ -114.077163696289006, 28.244672775268601 ] ] ] }, { "type": "Polygon", "coordinates": [ [ [ -114.064445495605, 28.148677825927699 ], [ -114.066108703612997, 28.1486110687256 ], [ -114.065139770507997, 28.151485443115298 ], [ -114.064674377440994, 28.151367187500099 ], [ -114.064445495605, 28.148677825927699 ] ] ] }, { "type": "Polygon", "coordinates": [ [ [ -114.071662902832003, 28.147222518920898 ], [ -114.070266723632997, 28.146396636962901 ], [ -114.069999694824006, 28.139724731445401 ], [ -114.07349395752, 28.1427307128907 ], [ -114.071662902832003, 28.147222518920898 ] ] ] }, { "type": "Polygon", "coordinates": [ [ [ -114.149169921875, 27.9527072906494 ], [ -114.165557861327997, 27.9539184570313 ], [ -114.177780151367003, 27.949722290039102 ], [ -114.174308776855, 27.932638168335 ], [ -114.195877075195, 27.930042266845799 ], [ -114.205276489257997, 27.918333053588899 ], [ -114.217224121094006, 27.9238891601562 ], [ -114.234443664550994, 27.9174995422363 ], [ -114.263885498047003, 27.887500762939599 ], [ -114.273612976074006, 27.896942138671999 ], [ -114.267990112305, 27.940902709961001 ], [ -114.200744628905994, 28.003610610961999 ], [ -114.140983581542997, 28.078485488891701 ], [ -114.125274658202997, 28.084722518921001 ], [ -114.116813659667997, 28.046506881713899 ], [ -114.150604248047003, 28.0200099945069 ], [ -114.152778625487997, 28.0100002288819 ], [ -114.128921508789006, 27.971979141235401 ], [ -114.137512207030994, 27.9567260742188 ], [ -114.123054504394005, 27.9525146484375 ], [ -114.149169921875, 27.9527072906494 ] ] ] }, { "type": "Polygon", "coordinates": [ [ [ -114.072196960449006, 28.0464191436768 ], [ -114.068054199219006, 28.043888092041101 ], [ -114.070007324219006, 28.0394897460938 ], [ -114.074165344237997, 28.043331146240298 ], [ -114.072196960449006, 28.0464191436768 ] ] ] }, { "type": "Polygon", "coordinates": [ [ [ -114.087776184082003, 28.0408325195312 ], [ -114.08528137207, 28.038055419921999 ], [ -114.086112976074006, 28.036668777465799 ], [ -114.089996337890994, 28.040555953979499 ], [ -114.087776184082003, 28.0408325195312 ] ] ] }, { "type": "Polygon", "coordinates": [ [ [ -114.069442749022997, 28.036111831665 ], [ -114.071113586425994, 28.033054351806602 ], [ -114.073333740234006, 28.0344467163087 ], [ -114.07194519043, 28.035833358764599 ], [ -114.069442749022997, 28.036111831665 ] ] ] }, { "type": "Polygon", "coordinates": [ [ [ -114.09619140625, 28.026121139526399 ], [ -114.097358703612997, 28.026260375976701 ], [ -114.096992492675994, 28.0293292999269 ], [ -114.095947265625, 28.028291702270501 ], [ -114.09619140625, 28.026121139526399 ] ] ] }, { "type": "Polygon", "coordinates": [ [ [ -114.130836486815994, 28.014444351196399 ], [ -114.118286132812003, 28.003904342651499 ], [ -114.117774963379006, 28.0008335113525 ], [ -114.130279541015994, 28.006111145019499 ], [ -114.134704589844006, 28.0186767578125 ], [ -114.130836486815994, 28.014444351196399 ] ] ] }, { "type": "Polygon", "coordinates": [ [ [ -114.118621826172003, 28.0113220214844 ], [ -114.116928100585994, 28.010850906372202 ], [ -114.116386413574006, 28.0100002288819 ], [ -114.120552062987997, 28.010278701782301 ], [ -114.118621826172003, 28.0113220214844 ] ] ] }, { "type": "Polygon", "coordinates": [ [ [ -114.10277557373, 27.998332977294901 ], [ -114.102821350097997, 27.995590209960898 ], [ -114.109169006347997, 27.994722366333001 ], [ -114.107482910155994, 27.997314453125 ], [ -114.10277557373, 27.998332977294901 ] ] ] }, { "type": "Polygon", "coordinates": [ [ [ -114.16748046875, 27.9295043945313 ], [ -114.159164428710994, 27.927221298217901 ], [ -114.16527557373, 27.9186115264893 ], [ -114.168853759765994, 27.922813415527401 ], [ -114.174163818359006, 27.9238891601562 ], [ -114.169395446777003, 27.926162719726602 ], [ -114.172431945800994, 27.949174880981499 ], [ -114.16471862793, 27.9513893127443 ], [ -114.16748046875, 27.9295043945313 ] ] ] }, { "type": "Polygon", "coordinates": [ [ [ -114.171508789062003, 27.9297065734863 ], [ -114.171432495117003, 27.928575515747099 ], [ -114.174415588379006, 27.9281215667725 ], [ -114.173614501952997, 27.929721832275401 ], [ -114.171508789062003, 27.9297065734863 ] ] ] }, { "type": "Polygon", "coordinates": [ [ [ -114.175476074219006, 27.929321289062599 ], [ -114.18083190918, 27.9266643524169 ], [ -114.183143615722997, 27.929807662963899 ], [ -114.176780700684006, 27.930181503296001 ], [ -114.175476074219006, 27.929321289062599 ] ] ] }, { "type": "Polygon", "coordinates": [ [ [ -114.176010131835994, 27.926753997802798 ], [ -114.175918579102003, 27.924787521362301 ], [ -114.180000305175994, 27.924442291259801 ], [ -114.177780151367003, 27.928106307983501 ], [ -114.176010131835994, 27.926753997802798 ] ] ] }, { "type": "Polygon", "coordinates": [ [ [ -114.17138671875, 27.922302246093899 ], [ -114.169441223145, 27.910833358764599 ], [ -114.186340332030994, 27.918655395507901 ], [ -114.177223205565994, 27.919166564941499 ], [ -114.17138671875, 27.922302246093899 ] ] ] }, { "type": "Polygon", "coordinates": [ [ [ -114.154441833495994, 27.900878906250099 ], [ -114.163612365722997, 27.908056259155298 ], [ -114.152496337890994, 27.9194946289062 ], [ -114.145805358887003, 27.908325195312599 ], [ -114.154441833495994, 27.900878906250099 ] ] ] }, { "type": "Polygon", "coordinates": [ [ [ -114.230003356934006, 27.897499084472798 ], [ -114.229164123535, 27.894166946411101 ], [ -114.234169006347997, 27.894166946411101 ], [ -114.233612060547003, 27.896110534668001 ], [ -114.230003356934006, 27.897499084472798 ] ] ] }, { "type": "Polygon", "coordinates": [ [ [ -114.223320007324006, 27.893268585205099 ], [ -114.225067138672003, 27.889774322509901 ], [ -114.230422973632997, 27.886894226074201 ], [ -114.231109619140994, 27.890832901001001 ], [ -114.223320007324006, 27.893268585205099 ] ] ] }, { "type": "Polygon", "coordinates": [ [ [ -114.236946105957003, 27.891666412353601 ], [ -114.235832214355, 27.8905563354493 ], [ -114.237350463867003, 27.8885307312012 ], [ -114.239608764647997, 27.890213012695401 ], [ -114.236946105957003, 27.891666412353601 ] ] ] }, { "type": "Polygon", "coordinates": [ [ [ -114.231742858887003, 27.885585784912202 ], [ -114.228248596190994, 27.8840656280518 ], [ -114.235687255859006, 27.887090682983501 ], [ -114.234169006347997, 27.888057708740298 ], [ -114.231742858887003, 27.885585784912202 ] ] ] } ] } },
{ "type": "Feature", "properties": { "NAME_1": "Baja California", "NAME_2": "Mexicali" }, "geometry": { "type": "Polygon", "coordinates": [ [ [ -114.879745483397997, 31.2919826507569 ], [ -114.892219543457003, 31.288890838623001 ], [ -114.885559082030994, 31.279167175293001 ], [ -114.896385192870994, 31.254444122314499 ], [ -114.883613586425994, 31.259445190429702 ], [ -114.880279541015994, 31.240556716919102 ], [ -114.890830993652003, 31.164167404174901 ], [ -114.88444519043, 31.118610382080099 ], [ -114.856666564940994, 31.0788879394532 ], [ -114.814239501952997, 31.052026748657301 ], [ -114.811676025390994, 31.044378280639801 ], [ -114.824058532715, 31.039070129394599 ], [ -114.833290100097997, 31.019506454467798 ], [ -114.832496643065994, 30.998611450195401 ], [ -114.82194519043, 30.997499465942401 ], [ -114.828887939452997, 30.9947223663331 ], [ -114.821113586425994, 30.9958305358887 ], [ -114.824447631835994, 30.989444732666001 ], [ -114.80916595459, 30.977222442627099 ], [ -114.719848632812003, 30.936323165893601 ], [ -114.706398010254006, 30.877510070800799 ], [ -114.83341217041, 30.888990402221701 ], [ -114.904357910155994, 30.904541015625099 ], [ -114.946632385254006, 30.888492584228601 ], [ -115.12841796875, 30.897705078125099 ], [ -115.145202636719006, 30.891479492187599 ], [ -115.161010742187997, 30.8621215820312 ], [ -115.171508789062003, 30.856689453125099 ], [ -115.190490722655994, 30.869873046875099 ], [ -115.202011108397997, 30.897710800171001 ], [ -115.218200683594006, 30.908323287963899 ], [ -115.236877441405994, 30.897705078125099 ], [ -115.351928710937997, 30.8970947265625 ], [ -115.467590332030994, 30.943908691406399 ], [ -115.568717956542997, 30.9476852416993 ], [ -115.48681640625, 31.002050399780401 ], [ -115.473876953125, 31.0213012695313 ], [ -115.457275390625, 31.028930664062599 ], [ -115.453491210937997, 31.0460815429688 ], [ -115.471984863280994, 31.0675067901612 ], [ -115.476806640625, 31.093505859375 ], [ -115.490997314452997, 31.108829498291101 ], [ -115.51146697998, 31.1668682098388 ], [ -115.54052734375, 31.2152709960938 ], [ -115.539001464844006, 31.242919921875099 ], [ -115.55859375, 31.249692916870099 ], [ -115.552001953125, 31.279907226562599 ], [ -115.560607910155994, 31.2902812957763 ], [ -115.579711914062003, 31.2872924804688 ], [ -115.587089538574006, 31.301160812377901 ], [ -115.55687713623, 31.411840438842798 ], [ -115.55859375, 31.4594745635987 ], [ -115.709098815917997, 31.615129470825298 ], [ -115.770202636719006, 31.701904296875099 ], [ -115.813621520995994, 31.7305583953857 ], [ -115.835876464844006, 31.7647094726562 ], [ -115.832580566405994, 31.779724121093899 ], [ -115.846984863280994, 31.8217163085937 ], [ -115.8759765625, 31.836303710937599 ], [ -115.913848876952997, 31.918470382690501 ], [ -115.882202148437003, 31.971498489379901 ], [ -115.8828125, 31.99072265625 ], [ -115.896766662597997, 32.011890411377003 ], [ -115.895812988280994, 32.037719726562599 ], [ -115.825675964355, 32.362319946289098 ], [ -115.807739257812003, 32.527839660644503 ], [ -115.765663146972997, 32.642860412597699 ], [ -114.719200134277003, 32.718040466308601 ], [ -114.756286621094006, 32.651489257812599 ], [ -114.782516479492003, 32.62260055542 ], [ -114.808990478515994, 32.616481781005902 ], [ -114.800506591797003, 32.592090606689503 ], [ -114.812973022460994, 32.5594291687012 ], [ -114.794647216797003, 32.564891815185703 ], [ -114.789436340332003, 32.555900573730497 ], [ -114.80330657959, 32.547809600830099 ], [ -114.81273651123, 32.522510528564602 ], [ -114.802467346190994, 32.508640289306598 ], [ -114.815406799315994, 32.505580902099702 ], [ -114.8154296875, 32.490158081054702 ], [ -114.84228515625, 32.4774780273438 ], [ -114.870178222655994, 32.492492675781399 ], [ -114.920593261719006, 32.4912719726563 ], [ -114.926727294922003, 32.464019775390703 ], [ -114.945671081542997, 32.438629150390703 ], [ -114.94458770752, 32.421749114990298 ], [ -114.963500976562003, 32.404907226562599 ], [ -114.96556854248, 32.3595199584962 ], [ -114.981506347655994, 32.335876464843899 ], [ -115.039428710937003, 32.284912109375099 ], [ -115.0283203125, 32.2612915039063 ], [ -114.992370605469006, 32.233093261718899 ], [ -114.981994628905994, 32.2092895507812 ], [ -115.006713867187003, 32.147277832031399 ], [ -114.994873046875, 32.108520507812599 ], [ -114.996704101562003, 32.0667114257813 ], [ -115.012023925780994, 32.0175170898438 ], [ -115.002075195312003, 31.984312057495199 ], [ -115.030212402344006, 31.957275390625099 ], [ -114.98828125, 31.9188842773438 ], [ -114.977783203125, 31.924316406250099 ], [ -114.949829101562003, 31.9138793945312 ], [ -114.932678222655994, 31.8970947265625 ], [ -114.897216796875, 31.8856811523438 ], [ -114.798736572265994, 31.820299148559599 ], [ -114.808334350585994, 31.815555572509801 ], [ -114.817665100097997, 31.747146606445298 ], [ -114.813331604004006, 31.724445343017599 ], [ -114.788612365722997, 31.6822223663331 ], [ -114.778610229492003, 31.632499694824201 ], [ -114.825836181640994, 31.574167251586999 ], [ -114.846664428710994, 31.524999618530298 ], [ -114.856941223145, 31.4900016784669 ], [ -114.849723815917997, 31.4366664886475 ], [ -114.862777709960994, 31.419998168945401 ], [ -114.855003356934006, 31.408609390258899 ], [ -114.862777709960994, 31.3994445800781 ], [ -114.85221862793, 31.386945724487401 ], [ -114.871917724609006, 31.340236663818398 ], [ -114.879745483397997, 31.2919826507569 ] ] ] } },
{ "type": "Feature", "properties": { "NAME_1": "Baja California", "NAME_2": "Mulegé" }, "geometry": { "type": "GeometryCollection", "geometries": [ { "type": "Polygon", "coordinates": [ [ [ -115.345558166504006, 28.120000839233501 ], [ -115.30638885498, 28.146110534668001 ], [ -115.238609313965, 28.229444503784201 ], [ -115.248336791992003, 28.2508335113525 ], [ -115.247497558594006, 28.243333816528398 ], [ -115.25333404541, 28.247499465942401 ], [ -115.254722595215, 28.286111831665 ], [ -115.266670227050994, 28.296943664550799 ], [ -115.249168395995994, 28.3163871765137 ], [ -115.254997253417997, 28.340000152587901 ], [ -115.241668701172003, 28.343610763549702 ], [ -115.243057250977003, 28.350276947021499 ], [ -115.250274658202997, 28.348611831665199 ], [ -115.247779846190994, 28.3580551147462 ], [ -115.230834960937003, 28.363889694213899 ], [ -115.23055267334, 28.375555038452202 ], [ -115.207496643065994, 28.373611450195298 ], [ -115.19361114502, 28.361389160156399 ], [ -115.190551757812003, 28.3216667175293 ], [ -115.174163818359006, 28.306390762329102 ], [ -115.163612365722997, 28.260833740234499 ], [ -115.172775268555, 28.2111110687256 ], [ -115.156669616699006, 28.1802768707275 ], [ -115.15860748291, 28.138610839843899 ], [ -115.186111450195, 28.1049995422363 ], [ -115.184722900390994, 28.032224655151399 ], [ -115.208885192870994, 28.039443969726499 ], [ -115.230834960937003, 28.027778625488398 ], [ -115.255279541015994, 28.0372219085694 ], [ -115.263336181640994, 28.068611145019599 ], [ -115.292503356934006, 28.093889236450199 ], [ -115.354721069335994, 28.0761108398438 ], [ -115.355834960937997, 28.118055343628001 ], [ -115.345558166504006, 28.120000839233501 ] ] ] }, { "type": "Polygon", "coordinates": [ [ [ -115.591667175292997, 28.317222595214901 ], [ -115.584442138672003, 28.307500839233501 ], [ -115.57194519043, 28.3161106109619 ], [ -115.559997558594006, 28.307777404785298 ], [ -115.574165344237997, 28.311111450195298 ], [ -115.580833435059006, 28.295833587646602 ], [ -115.606109619140994, 28.299444198608501 ], [ -115.601387023925994, 28.3163871765137 ], [ -115.591667175292997, 28.317222595214901 ] ] ] }, { "type": "Polygon", "coordinates": [ [ [ -115.544723510742003, 28.312221527099702 ], [ -115.536109924315994, 28.304721832275401 ], [ -115.544723510742003, 28.290275573730501 ], [ -115.551666259765994, 28.304721832275401 ], [ -115.544723510742003, 28.312221527099702 ] ] ] }, { "type": "Polygon", "coordinates": [ [ [ -115.258056640625, 28.306943893432699 ], [ -115.26000213623, 28.308332443237202 ], [ -115.258613586425994, 28.3116664886475 ], [ -115.25666809082, 28.310277938842798 ], [ -115.258056640625, 28.306943893432699 ] ] ] }, { "type": "Polygon", "coordinates": [ [ [ -115.364166259765994, 28.13138961792 ], [ -115.361946105957003, 28.129722595214801 ], [ -115.362503051757997, 28.128335952758899 ], [ -115.364723205565994, 28.1286106109619 ], [ -115.364166259765994, 28.13138961792 ] ] ] } ] } },
{ "type": "Feature", "properties": { "NAME_1": "Baja California", "NAME_2": "Tecate" }, "geometry": { "type": "Polygon", "coordinates": [ [ [ -115.885475158690994, 32.078662872314503 ], [ -115.964599609375, 32.1030883789062 ], [ -116.003784179687003, 32.1243286132813 ], [ -116.030090332030994, 32.1063232421875 ], [ -116.060516357422003, 32.108940124511797 ], [ -116.097412109375, 32.124511718750099 ], [ -116.114196777344006, 32.1146850585937 ], [ -116.13533782959, 32.126739501953097 ], [ -116.184272766112997, 32.117721557617301 ], [ -116.200378417969006, 32.126708984375 ], [ -116.227416992187003, 32.108886718750099 ], [ -116.293281555175994, 32.12553024292 ], [ -116.409721374512003, 32.123741149902401 ], [ -116.433288574219006, 32.1331176757813 ], [ -116.472412109375, 32.1237182617188 ], [ -116.522872924805, 32.140510559082102 ], [ -116.61279296875, 32.219909667968899 ], [ -116.636779785155994, 32.2568969726563 ], [ -116.62629699707, 32.2984809875488 ], [ -116.588989257812003, 32.3291015625 ], [ -116.565612792969006, 32.372200012207003 ], [ -116.568603515625, 32.3831176757813 ], [ -116.636222839355, 32.359352111816499 ], [ -116.698165893555, 32.318408966064503 ], [ -116.729179382324006, 32.340351104736399 ], [ -116.698883056640994, 32.379631042480497 ], [ -116.669906616210994, 32.3924789428712 ], [ -116.687553405762003, 32.403549194336001 ], [ -116.671569824219006, 32.420589447021499 ], [ -116.673400878905994, 32.437709808349602 ], [ -116.710662841797003, 32.485141754150497 ], [ -116.701690673827997, 32.540889739990199 ], [ -116.683792114257997, 32.557113647461001 ], [ -116.682922363280994, 32.5688247680663 ], [ -115.765663146972997, 32.642860412597699 ], [ -115.807739257812003, 32.527839660644503 ], [ -115.825675964355, 32.362319946289098 ], [ -115.885475158690994, 32.078662872314503 ] ] ] } },
{ "type": "Feature", "properties": { "NAME_1": "Baja California", "NAME_2": "Tijuana" }, "geometry": { "type": "GeometryCollection", "geometries": [ { "type": "Polygon", "coordinates": [ [ [ -117.040153503417997, 32.285861968994098 ], [ -117.102188110352003, 32.438907623291101 ], [ -117.12166595459, 32.468612670898501 ], [ -117.123901367187003, 32.5308837890625 ], [ -116.682922363280994, 32.5689086914063 ], [ -116.683792114257997, 32.557113647461001 ], [ -116.703750610352003, 32.53524017334 ], [ -116.710983276367003, 32.488449096679702 ], [ -116.671836853027003, 32.4341011047363 ], [ -116.672859191895, 32.417560577392599 ], [ -116.687553405762003, 32.403549194336001 ], [ -116.669906616210994, 32.3924789428712 ], [ -116.698883056640994, 32.379631042480497 ], [ -116.729179382324006, 32.340351104736399 ], [ -116.698165893555, 32.318408966064503 ], [ -116.636222839355, 32.359352111816499 ], [ -116.568603515625, 32.3831176757813 ], [ -116.565612792969006, 32.372200012207003 ], [ -116.588989257812003, 32.3291015625 ], [ -116.62629699707, 32.2984809875488 ], [ -116.636779785155994, 32.2568969726563 ], [ -116.61279296875, 32.219909667968899 ], [ -116.542739868164006, 32.158866882324297 ], [ -116.578735351562003, 32.129287719726598 ], [ -116.696411132812003, 32.134887695312599 ], [ -116.770690917969006, 32.095703125000099 ], [ -116.877197265625, 32.0870971679688 ], [ -116.925155639647997, 32.230243682861399 ], [ -116.956748962402003, 32.251457214355497 ], [ -117.021484375, 32.2669067382812 ], [ -117.040153503417997, 32.285861968994098 ] ] ] }, { "type": "Polygon", "coordinates": [ [ [ -117.298583984375, 32.4461059570313 ], [ -117.294982910155994, 32.439994812011797 ], [ -117.294052124022997, 32.433704376220703 ], [ -117.300277709960994, 32.439723968505902 ], [ -117.298583984375, 32.4461059570313 ] ] ] }, { "type": "Polygon", "coordinates": [ [ [ -117.249443054199006, 32.419998168945398 ], [ -117.2421875, 32.4116821289062 ], [ -117.239974975585994, 32.390373229980497 ], [ -117.245834350585994, 32.395278930664098 ], [ -117.249443054199006, 32.419998168945398 ] ] ] }, { "type": "Polygon", "coordinates": [ [ [ -117.258888244629006, 32.419723510742202 ], [ -117.257202148437003, 32.418273925781399 ], [ -117.259719848632997, 32.4141654968262 ], [ -117.261474609375, 32.4168701171875 ], [ -117.258888244629006, 32.419723510742202 ] ] ] } ] } }
]
}
