{
"type": "FeatureCollection",
"name": "campeche",
"crs": { "type": "name", "properties": { "name": "urn:ogc:def:crs:OGC:1.3:CRS84" } },
"features": [
{ "type": "Feature", "properties": { "NAME_1": "Campeche", "NAME_2": "Calkiní" }, "geometry": { "type": "Polygon", "coordinates": [ [ [ -89.951568603515597, 20.335939407348601 ], [ -89.940032958984403, 20.305231094360401 ], [ -89.947097778320298, 20.279720306396499 ], [ -89.967308044433594, 20.269750595092901 ], [ -89.972312927245994, 20.213760375976701 ], [ -89.986640930175795, 20.193180084228601 ], [ -90.016136169433594, 20.2446594238282 ], [ -90.024589538574205, 20.240789413452301 ], [ -90.024726867675795, 20.218580245971701 ], [ -90.035598754882798, 20.213750839233398 ], [ -90.057449340820298, 20.2373485565187 ], [ -90.078048706054602, 20.221612930298001 ], [ -90.089790344238196, 20.2222003936769 ], [ -90.111877441406193, 20.256879806518601 ], [ -90.131942749023395, 20.249322891235401 ], [ -90.147819519042997, 20.208909988403299 ], [ -90.221252441406193, 20.208179473876999 ], [ -90.239967346191406, 20.182069778442401 ], [ -90.271575927734304, 20.1898593902588 ], [ -90.371711730957003, 20.190008163452202 ], [ -90.386856079101506, 20.152250289916999 ], [ -90.419128417968807, 20.160499572753999 ], [ -90.457977294921903, 20.156530380248999 ], [ -90.486320495605398, 20.144269943237401 ], [ -90.492919921874901, 20.165136337280298 ], [ -90.480415344238196, 20.173194885253899 ], [ -90.477638244628807, 20.185138702392599 ], [ -90.488746643066406, 20.215694427490298 ], [ -90.490135192870994, 20.3309726715088 ], [ -90.499031066894503, 20.344028472900401 ], [ -90.489303588867102, 20.3465270996093 ], [ -90.484024047851605, 20.376806259155199 ], [ -90.490692138671903, 20.404861450195401 ], [ -90.480972290039105, 20.407640457153299 ], [ -90.479583740234304, 20.412916183471701 ], [ -90.492637634277301, 20.406248092651399 ], [ -90.497085571289105, 20.434030532836999 ], [ -90.488471984863295, 20.451250076294102 ], [ -90.494308471679702, 20.4479160308838 ], [ -90.502639770507798, 20.465694427490199 ], [ -90.484580993652301, 20.4634723663331 ], [ -90.478195190429702, 20.467361450195401 ], [ -90.476249694824205, 20.470972061157202 ], [ -90.481529235839801, 20.4679164886475 ], [ -90.491249084472699, 20.478473663330099 ], [ -90.502639770507798, 20.472084045410199 ], [ -90.502639770507798, 20.4979152679444 ], [ -90.448471069335895, 20.633472442627099 ], [ -90.443473815917997, 20.717359542846701 ], [ -90.451805114745994, 20.685972213745199 ], [ -90.454307556152202, 20.702917098999102 ], [ -90.448471069335895, 20.7170810699463 ], [ -90.434303283691406, 20.7270832061769 ], [ -90.431251525878906, 20.746528625488299 ], [ -90.411804199218807, 20.758470535278398 ], [ -90.389305114746094, 20.811134338378999 ], [ -90.383796691894503, 20.8009357452393 ], [ -90.390357971191406, 20.526460647583001 ], [ -90.374130249023395, 20.518590927123999 ], [ -90.237197875976605, 20.512290954589801 ], [ -90.218940734863196, 20.500810623168999 ], [ -90.180618286132798, 20.4256706237794 ], [ -90.135162353515597, 20.440980911255 ], [ -90.078292846679702, 20.3974914550781 ], [ -90.067680358886705, 20.403650283813501 ], [ -90.037872314453097, 20.4605598449707 ], [ -90.010307312011705, 20.467420578002901 ], [ -89.994659423828097, 20.426591873168999 ], [ -89.966598510742102, 20.403480529785199 ], [ -89.966590881347599, 20.358238220214901 ], [ -89.954536437988295, 20.3507595062256 ], [ -89.951568603515597, 20.335939407348601 ] ] ] } },
{ "type": "Feature", "properties": { "NAME_1": "Campeche", "NAME_2": "Campeche" }, "geometry": { "type": "GeometryCollection", "geometries": [ { "type": "Polygon", "coordinates": [ [ [ -90.999862670898395, 19.999860763549901 ], [ -91.000137329101605, 19.999860763549901 ], [ -91.000137329101605, 20.000139236450298 ], [ -90.999862670898395, 20.000139236450298 ], [ -90.999862670898395, 19.999860763549901 ] ] ] }, { "type": "Polygon", "coordinates": [ [ [ -90.667358398437401, 19.7254161834718 ], [ -90.661804199218693, 19.758192062378001 ], [ -90.624862670898395, 19.792640686035099 ], [ -90.508750915527301, 19.866249084472798 ], [ -90.460136413574205, 19.938472747802699 ], [ -90.447250366210795, 19.933088302612401 ], [ -90.433761596679702, 19.943990707397599 ], [ -90.406341552734304, 19.900051116943398 ], [ -90.372810363769503, 19.938859939575298 ], [ -90.348587036132798, 19.9522094726563 ], [ -90.299606323242102, 19.889919281005898 ], [ -90.272743225097699, 19.883729934692401 ], [ -90.283767700195298, 19.8588600158693 ], [ -90.276138305664006, 19.845890045166101 ], [ -90.236557006835895, 19.8443508148194 ], [ -90.208946228027301, 19.817941665649499 ], [ -90.181686401367202, 19.809740066528398 ], [ -90.157279968261705, 19.786380767822401 ], [ -90.059768676757798, 19.801000595092798 ], [ -90.033798217773395, 19.757850646972699 ], [ -90.047561645507798, 19.7149181365968 ], [ -90.041076660156193, 19.702140808105501 ], [ -90.011337280273395, 19.688640594482401 ], [ -89.982276916503906, 19.6926784515381 ], [ -89.939117431640597, 19.6387329101562 ], [ -89.928993225097599, 19.6002197265625 ], [ -89.912483215332003, 19.583602905273398 ], [ -89.886917114257798, 19.581569671631001 ], [ -89.859069824218807, 19.596269607543899 ], [ -89.835533142089801, 19.567081451416101 ], [ -89.881271362304702, 19.514102935791001 ], [ -89.932266235351406, 19.51176071167 ], [ -89.963111877441406, 19.4957504272462 ], [ -89.975341796874901, 19.478250503540099 ], [ -89.982147216796804, 19.440191268921001 ], [ -90.002906799316307, 19.427009582519499 ], [ -90.018501281738295, 19.403701782226701 ], [ -90.024398803710895, 19.401170730590799 ], [ -90.035232543945298, 19.420328140258899 ], [ -90.065872192382798, 19.438539505004901 ], [ -90.086746215820298, 19.4639797210693 ], [ -90.097930908203097, 19.465812683105501 ], [ -90.104682922363196, 19.457731246948299 ], [ -90.097496032714801, 19.413000106811602 ], [ -90.108306884765597, 19.397750854492202 ], [ -90.109146118164006, 19.379299163818398 ], [ -90.148216247558594, 19.365850448608501 ], [ -90.190460205078097, 19.3736801147462 ], [ -90.216796875, 19.391731262206999 ], [ -90.233062744140597, 19.3772697448732 ], [ -90.256637573242202, 19.382480621337901 ], [ -90.287101745605398, 19.410669326782202 ], [ -90.290596008300795, 19.4248275756837 ], [ -90.280548095702997, 19.4635906219482 ], [ -90.313133239745994, 19.476419448852699 ], [ -90.341690063476605, 19.500160217285199 ], [ -90.363197326660099, 19.4922904968263 ], [ -90.363388061523395, 19.550809860229499 ], [ -90.375381469726605, 19.572341918945298 ], [ -90.387252807617102, 19.575708389282301 ], [ -90.410713195800696, 19.556299209594801 ], [ -90.4268798828125, 19.554500579833899 ], [ -90.439811706542898, 19.575790405273398 ], [ -90.476341247558494, 19.587631225585898 ], [ -90.498527526855398, 19.607660293579201 ], [ -90.506790161132798, 19.5906982421875 ], [ -90.529716491699205, 19.599199295043999 ], [ -90.542060852050795, 19.632881164550799 ], [ -90.573768615722599, 19.656509399414102 ], [ -90.587112426757798, 19.680419921875099 ], [ -90.598587036132798, 19.680461883545 ], [ -90.613296508789105, 19.7151908874512 ], [ -90.6304931640625, 19.7076110839844 ], [ -90.640838623046804, 19.714960098266701 ], [ -90.669273376464801, 19.714349746704102 ], [ -90.667358398437401, 19.7254161834718 ] ] ] } ] } },
{ "type": "Feature", "properties": { "NAME_1": "Campeche", "NAME_2": "Carmen" }, "geometry": { "type": "GeometryCollection", "geometries": [ { "type": "Polygon", "coordinates": [ [ [ -92.305137634277301, 20.962638854980501 ], [ -92.304862976074205, 20.960138320923001 ], [ -92.308197021484403, 20.958194732666101 ], [ -92.3084716796875, 20.959028244018601 ], [ -92.305137634277301, 20.962638854980501 ] ] ] }, { "type": "Polygon", "coordinates": [ [ [ -92.212081909179702, 20.9137496948243 ], [ -92.212913513183594, 20.910417556762699 ], [ -92.216247558593807, 20.9090270996094 ], [ -92.2156982421875, 20.911249160766701 ], [ -92.212081909179702, 20.9137496948243 ] ] ] }, { "type": "Polygon", "coordinates": [ [ [ -91.961524963378906, 20.208194732666001 ], [ -91.960136413574205, 20.202638626098601 ], [ -91.963470458984304, 20.201250076293899 ], [ -91.964027404785199, 20.2034721374512 ], [ -91.961524963378906, 20.208194732666001 ] ] ] }, { "type": "Polygon", "coordinates": [ [ [ -91.955970764160199, 20.197362899780298 ], [ -91.955696105957003, 20.195417404174702 ], [ -91.959304809570199, 20.195693969726602 ], [ -91.959030151367202, 20.1970825195313 ], [ -91.955970764160199, 20.197362899780298 ] ] ] }, { "type": "Polygon", "coordinates": [ [ [ -91.961807250976605, 20.1662483215332 ], [ -91.961524963378906, 20.164026260376101 ], [ -91.964027404785199, 20.164026260376101 ], [ -91.963195800781193, 20.165695190429801 ], [ -91.961807250976605, 20.1662483215332 ] ] ] }, { "type": "Polygon", "coordinates": [ [ [ -91.246246337890597, 18.692083358764599 ], [ -91.239860534667997, 18.741806030273501 ], [ -91.222358703613295, 18.751806259155298 ], [ -91.243194580078097, 18.7495841979982 ], [ -91.270141601562401, 18.783195495605501 ], [ -91.290412902832003, 18.795974731445401 ], [ -91.306251525878906, 18.790695190429801 ], [ -91.327362060546804, 18.766527175903299 ], [ -91.331253051757798, 18.778749465942301 ], [ -91.345413208007798, 18.774583816528299 ], [ -91.363197326660199, 18.781528472900401 ], [ -91.373474121093807, 18.7923603057862 ], [ -91.374862670898395, 18.810695648193398 ], [ -91.392082214355497, 18.804582595825298 ], [ -91.384307861328097, 18.829027175903398 ], [ -91.360420227050795, 18.846805572509801 ], [ -91.365417480468693, 18.864305496215898 ], [ -91.358192443847599, 18.867639541626001 ], [ -91.355140686035099, 18.8634738922119 ], [ -91.345970153808494, 18.859859466552699 ], [ -91.341804504394503, 18.860694885253999 ], [ -91.363197326660199, 18.876527786254901 ], [ -91.346252441406193, 18.890417098998999 ], [ -91.212364196777301, 18.954860687255898 ], [ -91.151802062988196, 18.989860534668001 ], [ -91.129859924316307, 19.008752822876101 ], [ -91.114860534667997, 19.0106925964357 ], [ -91.110137939453097, 19.020139694213899 ], [ -91.101806640625, 19.019027709960898 ], [ -91.099861145019503, 19.031528472900401 ], [ -91.139579772949205, 19.010414123535298 ], [ -91.139862060546903, 19.001249313354499 ], [ -91.154586791992102, 18.992082595825298 ], [ -91.163192749023395, 18.998472213745199 ], [ -91.178749084472699, 18.995416641235298 ], [ -91.222915649414105, 18.953752517700298 ], [ -91.244308471679602, 18.950138092041101 ], [ -91.259582519531193, 18.937915802001999 ], [ -91.263191223144503, 18.939859390258899 ], [ -91.277641296386705, 18.935972213745199 ], [ -91.280418395996094, 18.939859390258899 ], [ -91.284584045410199, 18.933750152587901 ], [ -91.286529541015597, 18.9370841979982 ], [ -91.290138244628906, 18.9251384735107 ], [ -91.318473815917997, 18.909860610961999 ], [ -91.340141296386705, 18.916528701782301 ], [ -91.342918395995994, 18.909305572509801 ], [ -91.356803894042997, 18.908472061157202 ], [ -91.371246337890597, 18.8945827484132 ], [ -91.368751525878807, 18.877916336059499 ], [ -91.380973815917898, 18.873193740844702 ], [ -91.391807556152301, 18.883472442627099 ], [ -91.394584655761705, 18.874305725097699 ], [ -91.382637023925795, 18.871528625488398 ], [ -91.395690917968807, 18.871248245239201 ], [ -91.406524658203097, 18.864305496215898 ], [ -91.3790283203125, 18.870138168335 ], [ -91.383468627929602, 18.8581943511963 ], [ -91.410972595214801, 18.844028472900298 ], [ -91.402915954589801, 18.8448600769044 ], [ -91.410697937011705, 18.8329162597656 ], [ -91.419586181640597, 18.8265285491943 ], [ -91.433197021484403, 18.829860687256001 ], [ -91.414581298828097, 18.8529167175294 ], [ -91.409027099609304, 18.869026184082099 ], [ -91.434585571289006, 18.832641601562599 ], [ -91.443191528320298, 18.831527709960898 ], [ -91.442085266113295, 18.819026947021399 ], [ -91.450691223144503, 18.822639465332099 ], [ -91.467361450195298, 18.803747177124102 ], [ -91.463752746582003, 18.791313171386701 ], [ -91.472358703613196, 18.782363891601602 ], [ -91.497360229492202, 18.781528472900401 ], [ -91.497917175292898, 18.789861679077301 ], [ -91.380416870117102, 18.900693893432699 ], [ -91.130691528320298, 19.0240268707275 ], [ -91.081253051757699, 19.0676383972169 ], [ -90.929306030273395, 19.16215133667 ], [ -90.977783203124901, 19.1250610351562 ], [ -90.968620300292898, 19.1049308776857 ], [ -90.937088012695298, 19.078100204467699 ], [ -90.904327392578097, 19.076179504394599 ], [ -90.859077453613295, 19.0471515655518 ], [ -90.822982788085895, 19.050960540771399 ], [ -90.796577453613196, 19.032100677490199 ], [ -90.758918762207003, 19.0237007141113 ], [ -90.747879028320298, 18.950151443481602 ], [ -90.789337158202997, 18.8491611480713 ], [ -90.775405883789006, 18.7612495422363 ], [ -90.754486083984403, 18.719160079956101 ], [ -90.697532653808594, 18.771539688110401 ], [ -90.678276062011705, 18.828809738159102 ], [ -90.659568786621094, 18.85671043396 ], [ -90.681762695312401, 18.879020690917901 ], [ -90.675720214843693, 18.9281902313232 ], [ -90.633987426757798, 18.9307594299318 ], [ -90.599426269531193, 18.95041847229 ], [ -90.584976196289105, 18.973680496215799 ], [ -90.594093322753807, 19.022649765014599 ], [ -90.546806335449205, 19.0825805664062 ], [ -90.538047790527301, 19.108671188354499 ], [ -90.526283264160099, 19.0971908569337 ], [ -90.509719848632699, 19.103370666503899 ], [ -90.501121520995994, 19.090930938720799 ], [ -90.478385925292997, 19.097009658813501 ], [ -90.480339050292898, 19.060470581054702 ], [ -90.503837585449205, 19.0566101074219 ], [ -90.528831481933594, 19.007970809936499 ], [ -90.524108886718693, 18.946180343628001 ], [ -90.540122985839801, 18.926059722900401 ], [ -90.586250305175795, 18.9175109863282 ], [ -90.567832946777301, 18.879430770874102 ], [ -90.581832885742202, 18.858100891113299 ], [ -90.601486206054702, 18.849870681762798 ], [ -90.588226318359403, 18.83669090271 ], [ -90.592239379882798, 18.816921234131001 ], [ -90.628143310546804, 18.7842407226562 ], [ -90.602127075195199, 18.768728256225501 ], [ -90.607017517089801, 18.7399806976318 ], [ -90.560218811035199, 18.7457809448243 ], [ -90.556617736816307, 18.7108898162843 ], [ -90.541915893554602, 18.686742782592798 ], [ -90.461868286132798, 18.6898899078369 ], [ -90.451858520507798, 18.630151748657202 ], [ -90.456092834472599, 18.5913600921631 ], [ -90.445747375488295, 18.582250595092798 ], [ -90.457717895507798, 18.524288177490298 ], [ -90.469596862792997, 18.513330459594801 ], [ -90.498146057128807, 18.513891220092901 ], [ -90.501716613769503, 18.501220703125 ], [ -90.445686340332003, 18.462762832641602 ], [ -90.433959960937401, 18.393619537353601 ], [ -90.391464233398295, 18.3537902832031 ], [ -90.441726684570298, 18.2149982452393 ], [ -90.432083129882798, 18.181898117065401 ], [ -90.442337036132798, 18.113050460815401 ], [ -90.476058959960895, 18.0612697601319 ], [ -90.473976135253906, 18.036409378051701 ], [ -90.412612915039006, 17.966569900512798 ], [ -90.386596679687401, 17.9084911346437 ], [ -90.415481567382798, 17.853950500488299 ], [ -90.419898986816406, 17.818714141845799 ], [ -90.982032775878906, 17.815111160278398 ], [ -90.981002807617102, 17.8774509429932 ], [ -91.101692199707003, 17.916351318359499 ], [ -91.140098571777202, 17.937990188598601 ], [ -91.161231994628807, 17.9239406585694 ], [ -91.175941467285099, 17.925319671630898 ], [ -91.198181152343807, 17.956550598144599 ], [ -91.254219055175696, 17.974880218505898 ], [ -91.326011657714801, 18.0410594940187 ], [ -91.359069824218807, 18.040670394897599 ], [ -91.483901977539105, 18.072828292846701 ], [ -91.521476745605497, 18.067449569702099 ], [ -91.559288024902301, 18.073270797729599 ], [ -91.583366394042898, 18.066352844238299 ], [ -91.597221374511705, 18.024040222168001 ], [ -91.582511901855497, 17.9665927886962 ], [ -91.583137512207003, 17.935920715332099 ], [ -91.594261169433594, 17.919612884521499 ], [ -91.661460876464801, 17.915260314941399 ], [ -91.712799072265597, 17.890830993652301 ], [ -91.746276855468807, 17.9162712097169 ], [ -91.728378295898395, 17.9249191284181 ], [ -91.716636657714801, 17.949420928955199 ], [ -91.738632202148395, 17.978919982910298 ], [ -91.743591308593807, 18.005832672119201 ], [ -91.718238830566406, 18.007900238037099 ], [ -91.712387084960895, 18.018150329589901 ], [ -91.725402832031193, 18.037500381469801 ], [ -91.740303039550696, 18.110361099243299 ], [ -91.765701293945298, 18.109350204467699 ], [ -91.774940490722599, 18.138332366943398 ], [ -91.812156677246094, 18.1898593902588 ], [ -91.815017700195298, 18.2468490600587 ], [ -91.806327819824205, 18.246650695800799 ], [ -91.795150756835895, 18.232059478759801 ], [ -91.783882141113295, 18.2342319488525 ], [ -91.798019409179602, 18.290098190307699 ], [ -91.839668273925795, 18.302169799804702 ], [ -91.853630065917898, 18.333440780639801 ], [ -91.847549438476605, 18.353040695190501 ], [ -91.833526611328097, 18.361101150512699 ], [ -91.836128234863295, 18.37965965271 ], [ -91.865440368652301, 18.3230304718019 ], [ -91.869941711425696, 18.325841903686499 ], [ -91.857437133789006, 18.362960815429702 ], [ -91.862388610839801, 18.384901046753001 ], [ -91.829643249511705, 18.421440124511701 ], [ -91.818283081054702, 18.423908233642599 ], [ -91.820976257324205, 18.433521270752099 ], [ -91.797363281249901, 18.4681911468506 ], [ -91.810516357421804, 18.477329254150401 ], [ -91.819206237792898, 18.4728908538818 ], [ -91.865020751953097, 18.4812507629394 ], [ -91.870697021484304, 18.4917297363282 ], [ -91.865303039550795, 18.4974098205568 ], [ -91.848426818847699, 18.487989425659201 ], [ -91.852958679199205, 18.503229141235401 ], [ -91.891098022460895, 18.5199298858643 ], [ -91.889770507812401, 18.539319992065401 ], [ -91.918960571288906, 18.533180236816499 ], [ -91.923080444335895, 18.546289443969702 ], [ -91.936790466308494, 18.5471897125244 ], [ -91.948890686035099, 18.561960220336999 ], [ -91.956489562988295, 18.5606212615968 ], [ -91.956527709960895, 18.548471450805799 ], [ -91.965415954589801, 18.579862594604599 ], [ -91.956253051757699, 18.578752517700298 ], [ -91.949302673339801, 18.565416336059599 ], [ -91.932640075683594, 18.567083358764801 ], [ -91.924026489257798, 18.560138702392599 ], [ -91.9334716796875, 18.555139541626001 ], [ -91.923469543457003, 18.548471450805799 ], [ -91.907081604003906, 18.549304962158299 ], [ -91.897636413574205, 18.563194274902301 ], [ -91.897918701171903, 18.544584274292099 ], [ -91.857360839843807, 18.5268058776857 ], [ -91.847915649413906, 18.504028320312401 ], [ -91.807640075683494, 18.500972747802798 ], [ -91.708747863769503, 18.463750839233299 ], [ -91.587081909179602, 18.4418048858643 ], [ -91.545135498046903, 18.442361831665099 ], [ -91.518196105957003, 18.446805953979499 ], [ -91.515975952148395, 18.472917556762798 ], [ -91.487083435058594, 18.499584197998001 ], [ -91.375419616699205, 18.541805267333999 ], [ -91.309303283691406, 18.557638168335 ], [ -91.294586181640597, 18.6209735870362 ], [ -91.281524658202997, 18.630416870117202 ], [ -91.276802062988295, 18.667638778686499 ], [ -91.250968933105497, 18.680973052978501 ], [ -91.246246337890597, 18.692083358764599 ] ] ] }, { "type": "Polygon", "coordinates": [ [ [ -91.2620849609375, 18.938194274902301 ], [ -91.262916564941307, 18.9362506866456 ], [ -91.264862060546903, 18.9362506866456 ], [ -91.263748168945298, 18.938194274902301 ], [ -91.2620849609375, 18.938194274902301 ] ] ] }, { "type": "Polygon", "coordinates": [ [ [ -91.324028015136705, 18.9090270996094 ], [ -91.325141906738295, 18.905696868896499 ], [ -91.347358703613295, 18.894027709961001 ], [ -91.333190917968693, 18.906528472900501 ], [ -91.324028015136705, 18.9090270996094 ] ] ] }, { "type": "Polygon", "coordinates": [ [ [ -91.371528625488196, 18.871248245239201 ], [ -91.374031066894403, 18.865972518921001 ], [ -91.3790283203125, 18.862363815307699 ], [ -91.380142211914105, 18.866249084472599 ], [ -91.371528625488196, 18.871248245239201 ] ] ] }, { "type": "Polygon", "coordinates": [ [ [ -91.374580383300696, 18.861803054809599 ], [ -91.375694274902301, 18.862916946411101 ], [ -91.374031066894403, 18.864305496215898 ], [ -91.374031066894403, 18.8631916046144 ], [ -91.374580383300696, 18.861803054809599 ] ] ] }, { "type": "Polygon", "coordinates": [ [ [ -91.436531066894503, 18.810138702392599 ], [ -91.440696716308494, 18.8056945800782 ], [ -91.457641601562401, 18.806249618530401 ], [ -91.449859619140597, 18.809303283691499 ], [ -91.436531066894503, 18.810138702392599 ] ] ] }, { "type": "Polygon", "coordinates": [ [ [ -91.690971374511705, 18.690139770507901 ], [ -91.702362060546804, 18.6862525939943 ], [ -91.692085266113196, 18.684305191040199 ], [ -91.701248168945298, 18.666528701782301 ], [ -91.707916259765497, 18.6706943511963 ], [ -91.732086181640597, 18.6618061065675 ], [ -91.776252746582003, 18.634862899780298 ], [ -91.797363281249901, 18.6409721374512 ], [ -91.810142517089801, 18.6309719085694 ], [ -91.829582214355398, 18.629861831665099 ], [ -91.850975036621094, 18.649305343628001 ], [ -91.839859008789105, 18.663749694824201 ], [ -91.789024353027301, 18.667360305786101 ], [ -91.71875, 18.688194274902401 ], [ -91.697364807128906, 18.706527709961001 ], [ -91.531806945800795, 18.780694961547901 ], [ -91.510696411132699, 18.7523593902588 ], [ -91.538192749023395, 18.7259712219238 ], [ -91.554031372070298, 18.7179164886475 ], [ -91.564025878906193, 18.725694656372202 ], [ -91.539024353027301, 18.728473663330099 ], [ -91.527359008789006, 18.738193511962901 ], [ -91.536529541015597, 18.756250381469702 ], [ -91.539581298828097, 18.743749618530199 ], [ -91.555969238281193, 18.737361907959102 ], [ -91.565971374511705, 18.737361907959102 ], [ -91.561248779296903, 18.750694274902301 ], [ -91.567642211914105, 18.751527786254901 ], [ -91.580139160156193, 18.7279167175293 ], [ -91.578193664550696, 18.741806030273501 ], [ -91.625137329101406, 18.730972290039201 ], [ -91.612083435058594, 18.7226371765137 ], [ -91.614585876464801, 18.712917327880898 ], [ -91.635414123535099, 18.705694198608501 ], [ -91.616806030273395, 18.7054157257081 ], [ -91.608749389648395, 18.7206935882568 ], [ -91.594581604003807, 18.7168064117432 ], [ -91.662086486816406, 18.6634731292725 ], [ -91.676803588867102, 18.6679172515869 ], [ -91.692085266113196, 18.697641372680799 ], [ -91.690971374511705, 18.690139770507901 ] ] ] }, { "type": "Polygon", "coordinates": [ [ [ -91.538192749023395, 18.7423610687257 ], [ -91.537361145019503, 18.740692138671999 ], [ -91.542083740234403, 18.739862442016602 ], [ -91.542083740234403, 18.740692138671999 ], [ -91.538192749023395, 18.7423610687257 ] ] ] }, { "type": "Polygon", "coordinates": [ [ [ -92.432731628417997, 18.5370998382569 ], [ -92.469909667968807, 18.647510528564599 ], [ -92.397087097167997, 18.665138244628999 ], [ -91.971252441406193, 18.699581146240298 ], [ -91.949302673339801, 18.693195343017599 ], [ -91.909027099609304, 18.6354160308838 ], [ -91.855415344238196, 18.6109714508057 ], [ -91.882637023925795, 18.562360763549702 ], [ -91.887916564941406, 18.570695877075199 ], [ -91.879859924316307, 18.5801391601562 ], [ -91.885971069335895, 18.5856952667237 ], [ -91.903198242187401, 18.5668048858644 ], [ -91.931526184082003, 18.5723609924318 ], [ -91.922920227050795, 18.602361679077301 ], [ -91.933746337890497, 18.615694046020501 ], [ -91.945693969726605, 18.612638473510799 ], [ -91.955970764160199, 18.596527099609499 ], [ -91.964027404785199, 18.6029167175294 ], [ -91.960693359375, 18.5893058776856 ], [ -91.971252441406193, 18.5829162597657 ], [ -92.000968933105398, 18.599027633666999 ], [ -92.008468627929702, 18.587917327880898 ], [ -92.003471374511705, 18.5776386260987 ], [ -91.9912490844725, 18.576248168945401 ], [ -91.983192443847699, 18.584306716918999 ], [ -91.973472595214801, 18.579862594604599 ], [ -91.983474731445298, 18.568750381469702 ], [ -91.999862670898395, 18.56569480896 ], [ -91.992080688476506, 18.536806106567401 ], [ -92.002639770507798, 18.5476379394532 ], [ -92.000137329101605, 18.565141677856399 ], [ -92.005973815917997, 18.557695388793899 ], [ -92.016082763671903, 18.5719108581543 ], [ -92.049339294433594, 18.575059890747099 ], [ -92.027656555175696, 18.594120025634901 ], [ -92.043876647949205, 18.5897712707519 ], [ -92.059700012207003, 18.6084594726563 ], [ -92.106498718261705, 18.595109939575199 ], [ -92.120857238769403, 18.575569152831999 ], [ -92.139762878417997, 18.5931797027588 ], [ -92.197799682617102, 18.587080001831101 ], [ -92.217498779296903, 18.532920837402401 ], [ -92.239250183105497, 18.530939102173001 ], [ -92.275405883789105, 18.511100769042901 ], [ -92.376960754394503, 18.5164794921875 ], [ -92.432731628417997, 18.5370998382569 ] ] ] }, { "type": "Polygon", "coordinates": [ [ [ -91.688751220703097, 18.688194274902401 ], [ -91.687637329101605, 18.687362670898398 ], [ -91.687080383300795, 18.684030532836999 ], [ -91.690139770507798, 18.684305191040199 ], [ -91.688751220703097, 18.688194274902401 ] ] ] }, { "type": "Polygon", "coordinates": [ [ [ -91.686805725097599, 18.682916641235401 ], [ -91.685974121093693, 18.680139541625898 ], [ -91.688751220703097, 18.679582595825199 ], [ -91.688468933105497, 18.682083129882901 ], [ -91.686805725097599, 18.682916641235401 ] ] ] }, { "type": "Polygon", "coordinates": [ [ [ -91.686248779296804, 18.679027557373001 ], [ -91.685142517089801, 18.676527023315501 ], [ -91.686805725097599, 18.6759738922119 ], [ -91.687919616699205, 18.677639007568398 ], [ -91.686248779296804, 18.679027557373001 ] ] ] }, { "type": "Polygon", "coordinates": [ [ [ -91.690414428710895, 18.677085876464801 ], [ -91.685974121093693, 18.6654167175294 ], [ -91.693748474121094, 18.6598625183106 ], [ -91.698196411132798, 18.6681938171387 ], [ -91.690414428710895, 18.677085876464801 ] ] ] }, { "type": "Polygon", "coordinates": [ [ [ -91.659584045410199, 18.6618061065675 ], [ -91.660140991210895, 18.651527404785199 ], [ -91.679580688476506, 18.638196945190501 ], [ -91.6915283203125, 18.6354160308838 ], [ -91.669860839843594, 18.650138854980401 ], [ -91.674583435058594, 18.6590270996094 ], [ -91.659584045410199, 18.6618061065675 ] ] ] }, { "type": "Polygon", "coordinates": [ [ [ -91.695968627929602, 18.6365280151368 ], [ -91.692642211914006, 18.635694503784201 ], [ -91.692359924316307, 18.634862899780298 ], [ -91.696807861328097, 18.635139465331999 ], [ -91.695968627929602, 18.6365280151368 ] ] ] }, { "type": "Polygon", "coordinates": [ [ [ -91.958190917968807, 18.595417022705099 ], [ -91.954025268554602, 18.594863891601602 ], [ -91.953750610351506, 18.592359542846701 ], [ -91.959030151367202, 18.592638015747099 ], [ -91.958190917968807, 18.595417022705099 ] ] ] }, { "type": "Polygon", "coordinates": [ [ [ -91.955413818359403, 18.589582443237401 ], [ -91.953750610351506, 18.5865268707275 ], [ -91.958473205566406, 18.586805343627901 ], [ -91.956527709960895, 18.589582443237401 ], [ -91.955413818359403, 18.589582443237401 ] ] ] }, { "type": "Polygon", "coordinates": [ [ [ -91.957359313964801, 18.5856952667237 ], [ -91.958190917968807, 18.5829162597657 ], [ -91.959861755370994, 18.582639694213899 ], [ -91.960418701171804, 18.585138320922798 ], [ -91.957359313964801, 18.5856952667237 ] ] ] }, { "type": "Polygon", "coordinates": [ [ [ -91.980415344238295, 18.566528320312599 ], [ -91.980415344238295, 18.564582824707099 ], [ -91.983192443847699, 18.5648593902588 ], [ -91.982360839843693, 18.566251754760799 ], [ -91.980415344238295, 18.566528320312599 ] ] ] }, { "type": "Polygon", "coordinates": [ [ [ -91.797080993652202, 18.5176391601562 ], [ -91.796806335449205, 18.5168056488037 ], [ -91.799026489257798, 18.515138626098601 ], [ -91.799026489257798, 18.5168056488037 ], [ -91.797080993652202, 18.5176391601562 ] ] ] } ] } },
{ "type": "Feature", "properties": { "NAME_1": "Campeche", "NAME_2": "Champotón" }, "geometry": { "type": "Polygon", "coordinates": [ [ [ -89.15625, 18.036319732666001 ], [ -89.145393371581903, 17.942550659179702 ], [ -89.146888732910099, 17.8145866394044 ], [ -90.419967651367102, 17.818000793456999 ], [ -90.415481567382798, 17.853950500488299 ], [ -90.386596679687401, 17.9084911346437 ], [ -90.412612915039006, 17.966569900512798 ], [ -90.473976135253906, 18.036409378051701 ], [ -90.476058959960895, 18.0612697601319 ], [ -90.442337036132798, 18.113050460815401 ], [ -90.432083129882798, 18.181898117065401 ], [ -90.441726684570298, 18.2149982452393 ], [ -90.391464233398295, 18.3537902832031 ], [ -90.433959960937401, 18.393619537353601 ], [ -90.445686340332003, 18.462762832641602 ], [ -90.501716613769503, 18.501220703125 ], [ -90.498146057128807, 18.513891220092901 ], [ -90.469596862792997, 18.513330459594801 ], [ -90.457717895507798, 18.524288177490298 ], [ -90.445747375488295, 18.582250595092798 ], [ -90.456092834472599, 18.5913600921631 ], [ -90.451858520507798, 18.630151748657202 ], [ -90.461868286132798, 18.6898899078369 ], [ -90.541915893554602, 18.686742782592798 ], [ -90.556617736816307, 18.7108898162843 ], [ -90.560218811035199, 18.7457809448243 ], [ -90.607017517089801, 18.7399806976318 ], [ -90.602127075195199, 18.768728256225501 ], [ -90.628143310546804, 18.7842407226562 ], [ -90.592239379882798, 18.816921234131001 ], [ -90.588226318359403, 18.83669090271 ], [ -90.601486206054702, 18.849870681762798 ], [ -90.581832885742202, 18.858100891113299 ], [ -90.567832946777301, 18.879430770874102 ], [ -90.586250305175795, 18.9175109863282 ], [ -90.540122985839801, 18.926059722900401 ], [ -90.524108886718693, 18.946180343628001 ], [ -90.528831481933594, 19.007970809936499 ], [ -90.503837585449205, 19.0566101074219 ], [ -90.480339050292898, 19.060470581054702 ], [ -90.478385925292997, 19.097009658813501 ], [ -90.501121520995994, 19.090930938720799 ], [ -90.509719848632699, 19.103370666503899 ], [ -90.526283264160099, 19.0971908569337 ], [ -90.538047790527301, 19.108671188354499 ], [ -90.546806335449205, 19.0825805664062 ], [ -90.594093322753807, 19.022649765014599 ], [ -90.584976196289105, 18.973680496215799 ], [ -90.599426269531193, 18.95041847229 ], [ -90.633987426757798, 18.9307594299318 ], [ -90.675720214843693, 18.9281902313232 ], [ -90.681762695312401, 18.879020690917901 ], [ -90.659568786621094, 18.85671043396 ], [ -90.678276062011705, 18.828809738159102 ], [ -90.697532653808594, 18.771539688110401 ], [ -90.754486083984403, 18.719160079956101 ], [ -90.775405883789006, 18.7612495422363 ], [ -90.789337158202997, 18.8491611480713 ], [ -90.747879028320298, 18.950151443481602 ], [ -90.758918762207003, 19.0237007141113 ], [ -90.796577453613196, 19.032100677490199 ], [ -90.822982788085895, 19.050960540771399 ], [ -90.859077453613295, 19.0471515655518 ], [ -90.904327392578097, 19.076179504394599 ], [ -90.931198120117202, 19.074621200561602 ], [ -90.968620300292898, 19.1049308776857 ], [ -90.977783203124901, 19.1250610351562 ], [ -90.783752441406193, 19.281528472900501 ], [ -90.714859008789105, 19.363471984863398 ], [ -90.722640991210895, 19.358749389648398 ], [ -90.725692749023395, 19.391527175903398 ], [ -90.702919006347599, 19.485416412353601 ], [ -90.711250305175795, 19.527360916137798 ], [ -90.704025268554702, 19.553749084472699 ], [ -90.712081909179602, 19.562639236450298 ], [ -90.685417175292997, 19.6281967163087 ], [ -90.690971374511705, 19.642360687255898 ], [ -90.705696105956903, 19.651527404785199 ], [ -90.707084655761705, 19.675693511962901 ], [ -90.667640686035099, 19.7254161834718 ], [ -90.669273376464801, 19.714349746704102 ], [ -90.640838623046804, 19.714960098266701 ], [ -90.6304931640625, 19.7076110839844 ], [ -90.613296508789105, 19.7151908874512 ], [ -90.598587036132798, 19.680461883545 ], [ -90.587112426757798, 19.680419921875099 ], [ -90.573768615722599, 19.656509399414102 ], [ -90.542060852050795, 19.632881164550799 ], [ -90.529716491699205, 19.599199295043999 ], [ -90.506790161132798, 19.5906982421875 ], [ -90.498527526855398, 19.607660293579201 ], [ -90.476341247558494, 19.587631225585898 ], [ -90.439811706542898, 19.575790405273398 ], [ -90.4268798828125, 19.554500579833899 ], [ -90.410713195800696, 19.556299209594801 ], [ -90.387252807617102, 19.575708389282301 ], [ -90.375381469726605, 19.572341918945298 ], [ -90.363388061523395, 19.550809860229499 ], [ -90.363197326660099, 19.4922904968263 ], [ -90.341690063476605, 19.500160217285199 ], [ -90.313133239745994, 19.476419448852699 ], [ -90.280548095702997, 19.4635906219482 ], [ -90.290596008300795, 19.4248275756837 ], [ -90.287101745605398, 19.410669326782202 ], [ -90.256637573242202, 19.382480621337901 ], [ -90.233062744140597, 19.3772697448732 ], [ -90.217201232910099, 19.3637294769288 ], [ -90.200958251953097, 19.320392608642599 ], [ -90.195449829101506, 19.2706012725831 ], [ -90.136566162109403, 19.2253303527832 ], [ -90.087600708007798, 19.217809677124102 ], [ -90.065971374511605, 19.226600646972699 ], [ -90.043533325195298, 19.2204608917237 ], [ -89.884361267089801, 19.226520538330099 ], [ -89.888580322265597, 19.2146396636963 ], [ -89.874397277832003, 19.189640045166001 ], [ -89.919532775878906, 19.1756095886231 ], [ -89.886978149414105, 19.1492729187012 ], [ -89.740325927734403, 19.125169754028299 ], [ -89.597312927245994, 19.042739868164102 ], [ -89.498397827148395, 19.026830673217798 ], [ -89.400299072265597, 18.913959503173899 ], [ -89.373786926269503, 18.898769378662099 ], [ -89.353721618652301, 18.865430831909102 ], [ -89.352989196777301, 18.8448905944825 ], [ -89.330078125, 18.837070465087901 ], [ -89.328956604003807, 18.801111221313501 ], [ -89.335090637207003, 18.7779216766357 ], [ -89.362380981445298, 18.7366828918457 ], [ -89.349372863769503, 18.683610916137699 ], [ -89.362892150878807, 18.621871948242301 ], [ -89.346893310546804, 18.582050323486399 ], [ -89.355377197265597, 18.567020416259901 ], [ -89.399848937988295, 18.540870666503899 ], [ -89.387222290039006, 18.4479694366456 ], [ -89.397087097167997, 18.260940551757901 ], [ -89.342529296875, 18.234909057617099 ], [ -89.344245910644503, 18.126529693603501 ], [ -89.322387695312401, 18.098840713501001 ], [ -89.282058715820298, 18.0636711120607 ], [ -89.239791870117102, 18.050989151001001 ], [ -89.210189819335895, 18.073699951171999 ], [ -89.190040588378906, 18.040981292724702 ], [ -89.15625, 18.036319732666001 ] ] ] } },
{ "type": "Feature", "properties": { "NAME_1": "Campeche", "NAME_2": "Hecelchakán" }, "geometry": { "type": "Polygon", "coordinates": [ [ [ -89.952873229980497, 20.018571853637699 ], [ -89.975456237792898, 20.0454502105713 ], [ -89.979026794433594, 20.067859649658299 ], [ -89.996086120605497, 20.0818386077881 ], [ -90.029182434082003, 20.044139862060501 ], [ -90.061813354492202, 20.044490814209102 ], [ -90.094528198242202, 20.068201065063501 ], [ -90.144958496093807, 20.086790084838899 ], [ -90.177062988281193, 20.088529586791999 ], [ -90.251953125, 20.089790344238398 ], [ -90.267539978027301, 20.075351715088001 ], [ -90.342346191406094, 20.078710556030298 ], [ -90.359123229980398, 20.074560165405298 ], [ -90.360809326171903, 20.060461044311602 ], [ -90.388557434082003, 20.056779861450298 ], [ -90.396423339843594, 20.059970855712901 ], [ -90.384086608886705, 20.106218338012798 ], [ -90.399406433105497, 20.1043395996094 ], [ -90.408332824707003, 20.113090515136701 ], [ -90.428855895996094, 20.102609634399499 ], [ -90.480140686035099, 20.101697921753001 ], [ -90.495414733886605, 20.162082672119201 ], [ -90.486320495605398, 20.144269943237401 ], [ -90.457977294921903, 20.156530380248999 ], [ -90.419128417968807, 20.160499572753999 ], [ -90.391708374023395, 20.151250839233501 ], [ -90.371711730957003, 20.190008163452202 ], [ -90.271575927734304, 20.1898593902588 ], [ -90.239967346191406, 20.182069778442401 ], [ -90.221252441406193, 20.208179473876999 ], [ -90.147819519042997, 20.208909988403299 ], [ -90.131942749023395, 20.249322891235401 ], [ -90.111877441406193, 20.256879806518601 ], [ -90.089790344238196, 20.2222003936769 ], [ -90.078048706054602, 20.221612930298001 ], [ -90.057449340820298, 20.2373485565187 ], [ -90.035598754882798, 20.213750839233398 ], [ -90.024726867675795, 20.218580245971701 ], [ -90.024589538574205, 20.240789413452301 ], [ -90.016136169433594, 20.2446594238282 ], [ -89.986640930175795, 20.193180084228601 ], [ -89.972312927245994, 20.213760375976701 ], [ -89.967308044433594, 20.269750595092901 ], [ -89.947097778320298, 20.279720306396499 ], [ -89.938377380371094, 20.314920425415 ], [ -89.871116638183494, 20.275159835815401 ], [ -89.844520568847599, 20.234750747680799 ], [ -89.866836547851506, 20.2004299163818 ], [ -89.849899291992202, 20.158960342407202 ], [ -89.872322082519503, 20.1403617858887 ], [ -89.884185791015597, 20.1037998199463 ], [ -89.876548767089801, 20.0857124328613 ], [ -89.918388366699205, 20.014930725097699 ], [ -89.930526733398395, 20.010351181030401 ], [ -89.952873229980497, 20.018571853637699 ] ] ] } },
{ "type": "Feature", "properties": { "NAME_1": "Campeche", "NAME_2": "Hopelchén" }, "geometry": { "type": "Polygon", "coordinates": [ [ [ -89.415336608886705, 19.6510906219482 ], [ -89.361862182617102, 19.582599639892599 ], [ -89.304237365722599, 19.5348510742188 ], [ -89.218795776367102, 19.483190536499102 ], [ -89.123741149902202, 19.3943691253662 ], [ -89.029617309570199, 19.2770805358887 ], [ -89.012145996093693, 19.231901168823299 ], [ -89.021972656249901, 19.1478805541993 ], [ -89.021102905273395, 19.022331237793001 ], [ -89.032035827636705, 19.0094318389893 ], [ -89.068252563476605, 18.9971008300781 ], [ -89.084342956542898, 18.9715690612794 ], [ -89.078857421875, 18.839820861816499 ], [ -89.107879638671804, 18.696041107177699 ], [ -89.101081848144503, 18.6320610046388 ], [ -89.067947387695298, 18.5967807769775 ], [ -89.057136535644503, 18.5666618347169 ], [ -89.059226989746094, 18.537229537963899 ], [ -89.078025817870994, 18.5093307495118 ], [ -89.049285888671903, 18.4982395172119 ], [ -89.042991638183594, 18.488449096679702 ], [ -89.065666198730398, 18.424491882324201 ], [ -89.048446655273395, 18.384901046753001 ], [ -89.032577514648395, 18.21222114563 ], [ -89.058372497558594, 18.144350051879801 ], [ -89.15625, 18.036319732666001 ], [ -89.190040588378906, 18.040981292724702 ], [ -89.210189819335895, 18.073699951171999 ], [ -89.239791870117102, 18.050989151001001 ], [ -89.282058715820298, 18.0636711120607 ], [ -89.322387695312401, 18.098840713501001 ], [ -89.344245910644503, 18.126529693603501 ], [ -89.342529296875, 18.234909057617099 ], [ -89.397087097167997, 18.260940551757901 ], [ -89.387222290039006, 18.4479694366456 ], [ -89.399848937988295, 18.540870666503899 ], [ -89.355377197265597, 18.567020416259901 ], [ -89.346893310546804, 18.582050323486399 ], [ -89.362892150878807, 18.621871948242301 ], [ -89.349372863769503, 18.683610916137699 ], [ -89.362380981445298, 18.7366828918457 ], [ -89.335090637207003, 18.7779216766357 ], [ -89.328956604003807, 18.801111221313501 ], [ -89.330078125, 18.837070465087901 ], [ -89.352989196777301, 18.8448905944825 ], [ -89.353721618652301, 18.865430831909102 ], [ -89.373786926269503, 18.898769378662099 ], [ -89.400299072265597, 18.913959503173899 ], [ -89.498397827148395, 19.026830673217798 ], [ -89.597312927245994, 19.042739868164102 ], [ -89.740325927734403, 19.125169754028299 ], [ -89.886978149414105, 19.1492729187012 ], [ -89.919532775878906, 19.1756095886231 ], [ -89.874397277832003, 19.189640045166001 ], [ -89.888580322265597, 19.2146396636963 ], [ -89.884361267089801, 19.226520538330099 ], [ -90.043533325195298, 19.2204608917237 ], [ -90.065971374511605, 19.226600646972699 ], [ -90.087600708007798, 19.217809677124102 ], [ -90.136566162109403, 19.2253303527832 ], [ -90.195449829101506, 19.2706012725831 ], [ -90.208427429199205, 19.346519470214801 ], [ -90.233062744140597, 19.3772697448732 ], [ -90.216796875, 19.391731262206999 ], [ -90.190460205078097, 19.3736801147462 ], [ -90.148216247558594, 19.365850448608501 ], [ -90.109146118164006, 19.379299163818398 ], [ -90.108306884765597, 19.397750854492202 ], [ -90.097496032714801, 19.413000106811602 ], [ -90.104682922363196, 19.457731246948299 ], [ -90.097930908203097, 19.465812683105501 ], [ -90.086746215820298, 19.4639797210693 ], [ -90.065872192382798, 19.438539505004901 ], [ -90.035232543945298, 19.420328140258899 ], [ -90.024398803710895, 19.401170730590799 ], [ -90.018501281738295, 19.403701782226701 ], [ -90.002906799316307, 19.427009582519499 ], [ -89.982147216796804, 19.440191268921001 ], [ -89.975341796874901, 19.478250503540099 ], [ -89.963111877441406, 19.4957504272462 ], [ -89.932266235351406, 19.51176071167 ], [ -89.881271362304702, 19.514102935791001 ], [ -89.835533142089801, 19.567081451416101 ], [ -89.859069824218807, 19.596269607543899 ], [ -89.886917114257798, 19.581569671631001 ], [ -89.912483215332003, 19.583602905273398 ], [ -89.928993225097599, 19.6002197265625 ], [ -89.939117431640597, 19.6387329101562 ], [ -89.982276916503906, 19.6926784515381 ], [ -90.011337280273395, 19.688640594482401 ], [ -90.041076660156193, 19.702140808105501 ], [ -90.047561645507798, 19.7149181365968 ], [ -90.033798217773395, 19.757850646972699 ], [ -90.060356140136705, 19.8047695159913 ], [ -90.044357299804702, 19.835809707641602 ], [ -90.049766540527301, 19.865360260009901 ], [ -90.020866394042898, 19.9003200531007 ], [ -90.002853393554702, 19.898679733276399 ], [ -89.998352050781193, 19.9151000976562 ], [ -89.990287780761705, 19.917060852050799 ], [ -89.972587585449205, 19.890380859375099 ], [ -89.951812744140597, 19.887460708618299 ], [ -89.952079772949205, 19.924390792846602 ], [ -89.961212158203097, 19.951971054077202 ], [ -89.938667297363295, 19.964149475097699 ], [ -89.952873229980497, 20.018571853637699 ], [ -89.930526733398395, 20.010351181030401 ], [ -89.918388366699205, 20.014930725097699 ], [ -89.876548767089801, 20.0857124328613 ], [ -89.884185791015597, 20.1037998199463 ], [ -89.872322082519503, 20.1403617858887 ], [ -89.849899291992202, 20.158960342407202 ], [ -89.866836547851506, 20.2004299163818 ], [ -89.844520568847599, 20.234750747680799 ], [ -89.812736511230398, 20.137510299682699 ], [ -89.791801452636705, 20.107328414916999 ], [ -89.779098510742102, 20.096492767333999 ], [ -89.694206237792898, 20.065891265869102 ], [ -89.637496948242202, 20.027910232543899 ], [ -89.613296508789105, 19.994920730590799 ], [ -89.580078124999901, 19.918159484863299 ], [ -89.464118957519503, 19.7984104156494 ], [ -89.445549011230497, 19.750429153442401 ], [ -89.432907104492102, 19.668361663818501 ], [ -89.415336608886705, 19.6510906219482 ] ] ] } },
{ "type": "Feature", "properties": { "NAME_1": "Campeche", "NAME_2": "Palizada" }, "geometry": { "type": "GeometryCollection", "geometries": [ { "type": "Polygon", "coordinates": [ [ [ -91.789352416992102, 17.925979614257798 ], [ -91.801399230957003, 17.933521270751999 ], [ -91.851753234863295, 17.925451278686602 ], [ -91.885719299316406, 17.949420928955199 ], [ -91.906326293945298, 17.945390701294102 ], [ -91.934852600097599, 17.9781799316406 ], [ -91.948097229003906, 18.007738113403398 ], [ -92.003166198730398, 18.0377807617188 ], [ -92.036537170410099, 18.0707397460938 ], [ -92.086692810058494, 18.096319198608501 ], [ -92.101676940917898, 18.1283683776857 ], [ -92.134033203125, 18.161598205566499 ], [ -92.145072937011705, 18.193719863891701 ], [ -92.167800903320298, 18.218521118164102 ], [ -92.176490783691406, 18.262002944946399 ], [ -92.196601867675795, 18.277830123901399 ], [ -92.200798034667997, 18.2942810058594 ], [ -92.187049865722699, 18.343349456787099 ], [ -92.196990966796903, 18.364578247070401 ], [ -92.238586425781193, 18.412742614746101 ], [ -92.251838684082003, 18.407091140747099 ], [ -92.251296997070298, 18.3909511566162 ], [ -92.266761779785099, 18.3891696929932 ], [ -92.308113098144503, 18.439149856567401 ], [ -92.329055786132798, 18.4311408996582 ], [ -92.340026855468807, 18.435319900512798 ], [ -92.397521972656193, 18.4732894897462 ], [ -92.422477722167898, 18.508079528808601 ], [ -92.432731628417997, 18.5370998382569 ], [ -92.376960754394503, 18.5164794921875 ], [ -92.275405883789105, 18.511100769042901 ], [ -92.239250183105497, 18.530939102173001 ], [ -92.217498779296903, 18.532920837402401 ], [ -92.197799682617102, 18.587080001831101 ], [ -92.139762878417997, 18.5931797027588 ], [ -92.120857238769403, 18.575569152831999 ], [ -92.106498718261705, 18.595109939575199 ], [ -92.059700012207003, 18.6084594726563 ], [ -92.043876647949205, 18.5897712707519 ], [ -92.027656555175696, 18.594120025634901 ], [ -92.049339294433594, 18.575059890747099 ], [ -92.016082763671903, 18.5719108581543 ], [ -92.005973815917997, 18.557695388793899 ], [ -92.015693664550795, 18.543195724487401 ], [ -92.026527404785099, 18.548471450805799 ], [ -92.0281982421875, 18.528749465942401 ], [ -92.035140991210895, 18.5306930541993 ], [ -92.040412902832003, 18.523471832275401 ], [ -92.044303894042997, 18.524305343628001 ], [ -92.045135498046804, 18.522638320922901 ], [ -92.039024353027301, 18.521804809570298 ], [ -92.026252746581903, 18.526527404785298 ], [ -92.023193359374901, 18.535972595214901 ], [ -92.014305114745994, 18.5284748077394 ], [ -92.012916564941406, 18.537641525268601 ], [ -92.009025573730497, 18.523195266723601 ], [ -91.994308471679702, 18.515417098999102 ], [ -91.962364196777301, 18.5140285491944 ], [ -91.947364807128807, 18.528194427490199 ], [ -91.957946777343693, 18.556810379028398 ], [ -91.948890686035099, 18.561960220336999 ], [ -91.936790466308494, 18.5471897125244 ], [ -91.923080444335895, 18.546289443969702 ], [ -91.918960571288906, 18.533180236816499 ], [ -91.889770507812401, 18.539319992065401 ], [ -91.891098022460895, 18.5199298858643 ], [ -91.855712890624901, 18.50518989563 ], [ -91.848251342773395, 18.4933395385743 ], [ -91.850326538085895, 18.487361907958999 ], [ -91.868721008300795, 18.495080947876101 ], [ -91.86328125, 18.480171203613398 ], [ -91.7989501953125, 18.470680236816399 ], [ -91.820976257324205, 18.433521270752099 ], [ -91.818283081054702, 18.423908233642599 ], [ -91.829643249511705, 18.421440124511701 ], [ -91.862388610839801, 18.384901046753001 ], [ -91.857437133789006, 18.362960815429702 ], [ -91.869941711425696, 18.325841903686499 ], [ -91.865440368652301, 18.3230304718019 ], [ -91.836128234863295, 18.37965965271 ], [ -91.833526611328097, 18.361101150512699 ], [ -91.847549438476605, 18.353040695190501 ], [ -91.853630065917898, 18.333440780639801 ], [ -91.839668273925795, 18.302169799804702 ], [ -91.798019409179602, 18.290098190307699 ], [ -91.783882141113295, 18.2342319488525 ], [ -91.795150756835895, 18.232059478759801 ], [ -91.806327819824205, 18.246650695800799 ], [ -91.815017700195298, 18.2468490600587 ], [ -91.812156677246094, 18.1898593902588 ], [ -91.774940490722599, 18.138332366943398 ], [ -91.765701293945298, 18.109350204467699 ], [ -91.740303039550696, 18.110361099243299 ], [ -91.725402832031193, 18.037500381469801 ], [ -91.711692810058494, 18.0141105651857 ], [ -91.743591308593807, 18.005832672119201 ], [ -91.738632202148395, 17.978919982910298 ], [ -91.716636657714801, 17.949420928955199 ], [ -91.728378295898395, 17.9249191284181 ], [ -91.746276855468807, 17.9162712097169 ], [ -91.789352416992102, 17.925979614257798 ] ] ] }, { "type": "Polygon", "coordinates": [ [ [ -92.007080078124901, 18.5548610687257 ], [ -92.007080078124901, 18.551805496215799 ], [ -92.008193969726506, 18.551248550415 ], [ -92.008193969726506, 18.554306030273501 ], [ -92.007080078124901, 18.5548610687257 ] ] ] }, { "type": "Polygon", "coordinates": [ [ [ -91.982360839843693, 18.5340270996094 ], [ -91.976249694824205, 18.5306930541993 ], [ -91.959861755370994, 18.5268058776857 ], [ -91.973762512207003, 18.524299621581999 ], [ -91.982360839843693, 18.5340270996094 ] ] ] } ] } },
{ "type": "Feature", "properties": { "NAME_1": "Campeche", "NAME_2": "Tenabo" }, "geometry": { "type": "Polygon", "coordinates": [ [ [ -90.059768676757798, 19.801000595092798 ], [ -90.157279968261705, 19.786380767822401 ], [ -90.181686401367202, 19.809740066528398 ], [ -90.208946228027301, 19.817941665649499 ], [ -90.236557006835895, 19.8443508148194 ], [ -90.276138305664006, 19.845890045166101 ], [ -90.283767700195298, 19.8588600158693 ], [ -90.272743225097699, 19.883729934692401 ], [ -90.299606323242102, 19.889919281005898 ], [ -90.348587036132798, 19.9522094726563 ], [ -90.372810363769503, 19.938859939575298 ], [ -90.406341552734304, 19.900051116943398 ], [ -90.433761596679702, 19.943990707397599 ], [ -90.447250366210795, 19.933088302612401 ], [ -90.460136413574205, 19.938472747802699 ], [ -90.45263671875, 19.973194122314499 ], [ -90.461524963378807, 19.972917556762798 ], [ -90.470970153808494, 19.985416412353501 ], [ -90.463470458984403, 20.0131931304932 ], [ -90.491531372070298, 20.060693740844702 ], [ -90.480415344238196, 20.101528167724599 ], [ -90.428855895996094, 20.102609634399499 ], [ -90.408332824707003, 20.113090515136701 ], [ -90.399406433105497, 20.1043395996094 ], [ -90.388031005859304, 20.108819961547901 ], [ -90.3853759765625, 20.083179473877099 ], [ -90.396423339843594, 20.059970855712901 ], [ -90.379028320312401, 20.055860519409201 ], [ -90.360809326171903, 20.060461044311602 ], [ -90.361984252929602, 20.0713806152344 ], [ -90.352577209472699, 20.0771503448487 ], [ -90.267539978027301, 20.075351715088001 ], [ -90.251953125, 20.089790344238398 ], [ -90.177062988281193, 20.088529586791999 ], [ -90.144958496093807, 20.086790084838899 ], [ -90.094528198242202, 20.068201065063501 ], [ -90.061813354492202, 20.044490814209102 ], [ -90.029182434082003, 20.044139862060501 ], [ -89.996086120605497, 20.0818386077881 ], [ -89.979026794433594, 20.067859649658299 ], [ -89.975456237792898, 20.0454502105713 ], [ -89.955108642578097, 20.028409957885799 ], [ -89.951553344726605, 19.9941501617432 ], [ -89.939811706542997, 19.969730377197202 ], [ -89.939338684082003, 19.9616603851319 ], [ -89.961212158203097, 19.951971054077202 ], [ -89.949272155761705, 19.893550872802798 ], [ -89.956886291503906, 19.883771896362301 ], [ -89.968307495117102, 19.887109756469702 ], [ -89.993492126464702, 19.9174404144288 ], [ -90.002853393554702, 19.898679733276399 ], [ -90.020866394042898, 19.9003200531007 ], [ -90.051399230957003, 19.8613090515137 ], [ -90.044357299804702, 19.835809707641602 ], [ -90.059768676757798, 19.801000595092798 ] ] ] } }
]
}
