{
"type": "FeatureCollection",
"name": "colima",
"crs": { "type": "name", "properties": { "name": "urn:ogc:def:crs:OGC:1.3:CRS84" } },
"features": [
{ "type": "Feature", "properties": { "NAME_1": "Colima", "NAME_2": "Armería" }, "geometry": { "type": "Polygon", "coordinates": [ [ [ -103.901298522949006, 19.1008110046387 ], [ -103.898849487305, 19.038009643554702 ], [ -103.915733337402003, 18.967899322509801 ], [ -103.936637878417997, 18.922311782836999 ], [ -103.956886291504006, 18.9132404327393 ], [ -103.970405578612997, 18.865968704223601 ], [ -104.183372497559006, 18.971250534057699 ], [ -104.178329467772997, 18.9882011413575 ], [ -104.167839050292997, 18.990110397338999 ], [ -104.13143157959, 18.974479675293001 ], [ -104.14803314209, 19.010971069336101 ], [ -104.167343139647997, 19.008869171142599 ], [ -104.134330749512003, 19.017549514770501 ], [ -104.076179504394005, 19.0578804016113 ], [ -104.096946716309006, 19.071559906005799 ], [ -104.112373352050994, 19.151300430297901 ], [ -104.054862976074006, 19.1366996765137 ], [ -104.031791687012003, 19.141239166259801 ], [ -104.005088806152003, 19.125860214233501 ], [ -103.901298522949006, 19.1008110046387 ] ] ] } },
{ "type": "Feature", "properties": { "NAME_1": "Colima", "NAME_2": "Colima" }, "geometry": { "type": "Polygon", "coordinates": [ [ [ -103.499526977539006, 19.167760848998999 ], [ -103.527366638182997, 19.0916423797607 ], [ -103.493637084960994, 19.031089782714801 ], [ -103.492767333984006, 18.958639144897599 ], [ -103.543037414550994, 18.907859802246101 ], [ -103.576683044434006, 18.8896808624268 ], [ -103.588279724120994, 18.990390777587901 ], [ -103.611526489257997, 19.0253410339356 ], [ -103.669151306152003, 19.065820693969702 ], [ -103.699722290039006, 19.042119979858501 ], [ -103.71898651123, 19.054317474365298 ], [ -103.73087310791, 19.082380294799901 ], [ -103.732063293457003, 19.1567783355712 ], [ -103.758666992187997, 19.195619583129901 ], [ -103.756530761719006, 19.246700286865199 ], [ -103.733390808105, 19.262590408325298 ], [ -103.735336303710994, 19.282341003418001 ], [ -103.72477722168, 19.299200057983398 ], [ -103.674812316895, 19.326892852783299 ], [ -103.684989929199006, 19.2518997192382 ], [ -103.678810119629006, 19.242532730102599 ], [ -103.653053283690994, 19.2352581024169 ], [ -103.633827209472997, 19.208299636840799 ], [ -103.577972412109006, 19.2145004272462 ], [ -103.558662414550994, 19.2240009307862 ], [ -103.539001464844006, 19.2506504058838 ], [ -103.507041931152003, 19.2520027160644 ], [ -103.499526977539006, 19.167760848998999 ] ] ] } },
{ "type": "Feature", "properties": { "NAME_1": "Colima", "NAME_2": "Comala" }, "geometry": { "type": "Polygon", "coordinates": [ [ [ -103.917381286620994, 19.3167495727538 ], [ -103.925743103027003, 19.337980270385799 ], [ -103.913276672362997, 19.400308609008899 ], [ -103.843826293945, 19.4055995941162 ], [ -103.737442016602003, 19.454940795898501 ], [ -103.701301574707003, 19.480609893798899 ], [ -103.687828063965, 19.470661163330099 ], [ -103.687141418457003, 19.4355392456056 ], [ -103.749046325684006, 19.306432723998999 ], [ -103.880722045897997, 19.283460617065501 ], [ -103.885513305664006, 19.2894802093506 ], [ -103.877243041992003, 19.316200256347699 ], [ -103.917381286620994, 19.3167495727538 ] ] ] } },
{ "type": "Feature", "properties": { "NAME_1": "Colima", "NAME_2": "Coquimatlán" }, "geometry": { "type": "Polygon", "coordinates": [ [ [ -104.112373352050994, 19.151300430297901 ], [ -104.108917236327997, 19.176420211791999 ], [ -104.032485961914006, 19.250280380249102 ], [ -103.921775817870994, 19.2222595214844 ], [ -103.87442779541, 19.230039596557699 ], [ -103.754600524902003, 19.21736907959 ], [ -103.758666992187997, 19.195619583129901 ], [ -103.732063293457003, 19.1567783355712 ], [ -103.73087310791, 19.082380294799901 ], [ -103.71898651123, 19.054317474365298 ], [ -103.756416320800994, 19.058811187744102 ], [ -103.778762817382997, 19.069780349731602 ], [ -103.807929992675994, 19.103029251098601 ], [ -103.831146240234006, 19.110321044921999 ], [ -103.888366699219006, 19.1185817718506 ], [ -103.901298522949006, 19.1008110046387 ], [ -104.005088806152003, 19.125860214233501 ], [ -104.031791687012003, 19.141239166259801 ], [ -104.054862976074006, 19.1366996765137 ], [ -104.112373352050994, 19.151300430297901 ] ] ] } },
{ "type": "Feature", "properties": { "NAME_1": "Colima", "NAME_2": "Cuauhtémoc" }, "geometry": { "type": "Polygon", "coordinates": [ [ [ -103.674812316895, 19.326892852783299 ], [ -103.683067321777003, 19.369712829589901 ], [ -103.668128967285, 19.388280868530298 ], [ -103.658348083495994, 19.420919418335 ], [ -103.641319274902003, 19.4138698577881 ], [ -103.637031555175994, 19.421710968017699 ], [ -103.642166137695, 19.4386596679688 ], [ -103.667587280272997, 19.457189559936602 ], [ -103.678398132324006, 19.438430786132901 ], [ -103.686019897460994, 19.439760208129901 ], [ -103.685676574707003, 19.467332839965799 ], [ -103.701301574707003, 19.480609893798899 ], [ -103.614692687987997, 19.5607509613038 ], [ -103.598541259765994, 19.562402725219801 ], [ -103.586456298827997, 19.543899536132901 ], [ -103.571388244629006, 19.446491241455199 ], [ -103.574668884277003, 19.398559570312599 ], [ -103.539260864257997, 19.376171112060501 ], [ -103.526527404785, 19.342691421508899 ], [ -103.487907409667997, 19.328550338745099 ], [ -103.501808166504006, 19.300140380859499 ], [ -103.507041931152003, 19.2520027160644 ], [ -103.539001464844006, 19.2506504058838 ], [ -103.558662414550994, 19.2240009307862 ], [ -103.577972412109006, 19.2145004272462 ], [ -103.633827209472997, 19.208299636840799 ], [ -103.650520324707003, 19.233272552490298 ], [ -103.678810119629006, 19.242532730102599 ], [ -103.684989929199006, 19.2518997192382 ], [ -103.674812316895, 19.326892852783299 ] ] ] } },
{ "type": "Feature", "properties": { "NAME_1": "Colima", "NAME_2": "Ixtlahuacán" }, "geometry": { "type": "Polygon", "coordinates": [ [ [ -103.596977233887003, 18.871971130371001 ], [ -103.637001037597997, 18.885421752929702 ], [ -103.646049499512003, 18.879411697387798 ], [ -103.644737243652003, 18.865392684936602 ], [ -103.689521789550994, 18.866889953613299 ], [ -103.704002380370994, 18.906030654907202 ], [ -103.698593139647997, 18.922969818115298 ], [ -103.727088928222997, 18.942449569702301 ], [ -103.766319274902003, 18.987409591674901 ], [ -103.762702941894005, 19.003839492797901 ], [ -103.739227294922003, 19.017410278320401 ], [ -103.715957641602003, 19.049169540405298 ], [ -103.696357727050994, 19.0430583953857 ], [ -103.669151306152003, 19.065820693969702 ], [ -103.611526489257997, 19.0253410339356 ], [ -103.588935852050994, 18.9928703308106 ], [ -103.576683044434006, 18.8896808624268 ], [ -103.596977233887003, 18.871971130371001 ] ] ] } },
{ "type": "Feature", "properties": { "NAME_1": "Colima", "NAME_2": "Manzanillo" }, "geometry": { "type": "GeometryCollection", "geometries": [ { "type": "Polygon", "coordinates": [ [ [ -104.437080383300994, 19.0829162597656 ], [ -104.45263671875, 19.098749160766701 ], [ -104.450691223144005, 19.1081943511963 ], [ -104.467361450195, 19.109861373901399 ], [ -104.485694885254006, 19.124027252197301 ], [ -104.58708190918, 19.148471832275401 ], [ -104.586524963379006, 19.1554164886475 ], [ -104.596801757812003, 19.149860382080099 ], [ -104.680694580077997, 19.176805496215799 ], [ -104.693748474120994, 19.172916412353601 ], [ -104.701530456542997, 19.182081222534201 ], [ -104.688468933105, 19.198749542236399 ], [ -104.67569732666, 19.185972213745199 ], [ -104.657913208007997, 19.182916641235401 ], [ -104.656524658202997, 19.193195343017699 ], [ -104.67847442627, 19.197914123535298 ], [ -104.674285888672003, 19.206649780273601 ], [ -104.639656066895, 19.1949901580812 ], [ -104.596870422362997, 19.2014904022218 ], [ -104.549667358397997, 19.267150878906399 ], [ -104.517677307129006, 19.265079498291101 ], [ -104.487640380859006, 19.247512817382798 ], [ -104.476089477539006, 19.253442764282301 ], [ -104.4638671875, 19.279220581054702 ], [ -104.422286987305, 19.307191848754901 ], [ -104.400390625, 19.292249679565501 ], [ -104.358352661132997, 19.306819915771499 ], [ -104.316467285155994, 19.30131149292 ], [ -104.249588012695, 19.3255310058593 ], [ -104.179328918457003, 19.3047199249268 ], [ -104.155830383300994, 19.274208068847798 ], [ -104.13793182373, 19.272140502929702 ], [ -104.084365844727003, 19.239669799804801 ], [ -104.055267333984006, 19.234582901001101 ], [ -104.056022644042997, 19.2226791381837 ], [ -104.11360168457, 19.166461944580099 ], [ -104.106147766112997, 19.097391128540099 ], [ -104.095199584960994, 19.068830490112401 ], [ -104.076179504394005, 19.0578804016113 ], [ -104.134330749512003, 19.017549514770501 ], [ -104.167343139647997, 19.008869171142599 ], [ -104.14803314209, 19.010971069336101 ], [ -104.13143157959, 18.974479675293001 ], [ -104.167839050292997, 18.990110397338999 ], [ -104.178329467772997, 18.9882011413575 ], [ -104.184028625487997, 18.971250534057699 ], [ -104.293746948242003, 19.0129165649413 ], [ -104.331802368164006, 19.017084121704201 ], [ -104.336807250977003, 19.029027938842901 ], [ -104.329864501952997, 19.0515251159669 ], [ -104.315696716309006, 19.060693740844702 ], [ -104.312080383300994, 19.053749084472699 ], [ -104.293746948242003, 19.059028625488398 ], [ -104.290412902832003, 19.075693130493299 ], [ -104.301528930664006, 19.078750610351602 ], [ -104.29402923584, 19.065416336059499 ], [ -104.30347442627, 19.061805725097699 ], [ -104.311248779297003, 19.086805343628001 ], [ -104.338470458984006, 19.1037502288819 ], [ -104.354026794434006, 19.089305877685501 ], [ -104.350975036620994, 19.110416412353601 ], [ -104.35986328125, 19.117639541626101 ], [ -104.395690917969006, 19.113193511962901 ], [ -104.398475646972997, 19.105138778686602 ], [ -104.389579772949006, 19.096805572509801 ], [ -104.395141601562003, 19.084861755371101 ], [ -104.412361145019005, 19.105695724487401 ], [ -104.427635192870994, 19.091527938842798 ], [ -104.438468933105, 19.097917556762798 ], [ -104.437080383300994, 19.0829162597656 ] ] ] }, { "type": "Polygon", "coordinates": [ [ [ -104.485420227050994, 19.1048603057862 ], [ -104.484024047852003, 19.103193283081101 ], [ -104.487083435059006, 19.100416183471602 ], [ -104.487640380859006, 19.104028701782301 ], [ -104.485420227050994, 19.1048603057862 ] ] ] } ] } },
{ "type": "Feature", "properties": { "NAME_1": "Colima", "NAME_2": "Minatitlán" }, "geometry": { "type": "Polygon", "coordinates": [ [ [ -103.917381286620994, 19.3167495727538 ], [ -103.954330444335994, 19.285600662231499 ], [ -103.996566772460994, 19.291032791137798 ], [ -104.019958496094006, 19.260400772094702 ], [ -104.055267333984006, 19.234582901001101 ], [ -104.084365844727003, 19.239669799804801 ], [ -104.13793182373, 19.272140502929702 ], [ -104.155830383300994, 19.274208068847798 ], [ -104.175399780272997, 19.302219390869102 ], [ -104.196716308594006, 19.312400817871101 ], [ -104.153396606445, 19.322080612182599 ], [ -104.123931884765994, 19.352109909057699 ], [ -104.09098815918, 19.354171752929702 ], [ -104.060043334960994, 19.394041061401399 ], [ -104.007186889647997, 19.414110183715799 ], [ -103.913276672362997, 19.400308609008899 ], [ -103.925743103027003, 19.337980270385799 ], [ -103.917381286620994, 19.3167495727538 ] ] ] } },
{ "type": "Feature", "properties": { "NAME_1": "Colima", "NAME_2": "Tecomán" }, "geometry": { "type": "Polygon", "coordinates": [ [ [ -103.81014251709, 18.754028320312599 ], [ -103.954864501952997, 18.847639083862401 ], [ -103.968475341797003, 18.864027023315501 ], [ -103.959861755370994, 18.867082595825199 ], [ -103.958473205565994, 18.871248245239201 ], [ -103.970252990722997, 18.866249084472599 ], [ -103.956886291504006, 18.9132404327393 ], [ -103.936637878417997, 18.922311782836999 ], [ -103.915733337402003, 18.967899322509801 ], [ -103.898849487305, 19.038009643554702 ], [ -103.901298522949006, 19.1008110046387 ], [ -103.888366699219006, 19.1185817718506 ], [ -103.812232971190994, 19.1054382324219 ], [ -103.778762817382997, 19.069780349731602 ], [ -103.756416320800994, 19.058811187744102 ], [ -103.71898651123, 19.054317474365298 ], [ -103.716949462890994, 19.0471305847169 ], [ -103.736770629882997, 19.019939422607401 ], [ -103.762702941894005, 19.003839492797901 ], [ -103.765579223632997, 18.982421875 ], [ -103.698593139647997, 18.922969818115298 ], [ -103.704002380370994, 18.906030654907202 ], [ -103.686332702637003, 18.863531112670799 ], [ -103.663627624512003, 18.868759155273398 ], [ -103.643096923827997, 18.859880447387798 ], [ -103.641639709472997, 18.830961227416999 ], [ -103.651786804199006, 18.795230865478501 ], [ -103.720352172852003, 18.761510848998999 ], [ -103.747344970702997, 18.6970729827881 ], [ -103.81014251709, 18.754028320312599 ] ] ] } },
{ "type": "Feature", "properties": { "NAME_1": "Colima", "NAME_2": "Villa de Alvarez" }, "geometry": { "type": "Polygon", "coordinates": [ [ [ -103.754600524902003, 19.21736907959 ], [ -103.87442779541, 19.230039596557699 ], [ -103.921775817870994, 19.2222595214844 ], [ -104.032485961914006, 19.250280380249102 ], [ -103.992721557617003, 19.293279647827099 ], [ -103.954330444335994, 19.285600662231499 ], [ -103.917381286620994, 19.3167495727538 ], [ -103.877243041992003, 19.316200256347699 ], [ -103.885513305664006, 19.2894802093506 ], [ -103.880722045897997, 19.283460617065501 ], [ -103.749046325684006, 19.306432723998999 ], [ -103.686019897460994, 19.439760208129901 ], [ -103.678398132324006, 19.438430786132901 ], [ -103.667587280272997, 19.457189559936602 ], [ -103.639602661132997, 19.435552597045898 ], [ -103.637161254882997, 19.418359756469801 ], [ -103.660057067870994, 19.418912887573399 ], [ -103.668128967285, 19.388280868530298 ], [ -103.683937072754006, 19.365278244018601 ], [ -103.674812316895, 19.326892852783299 ], [ -103.728202819824006, 19.295061111450099 ], [ -103.735336303710994, 19.282341003418001 ], [ -103.733390808105, 19.262590408325298 ], [ -103.756530761719006, 19.246700286865199 ], [ -103.754600524902003, 19.21736907959 ] ] ] } }
]
}
