{
"type": "FeatureCollection",
"name": "distrito-federal",
"crs": { "type": "name", "properties": { "name": "urn:ogc:def:crs:OGC:1.3:CRS84" } },
"features": [
{ "type": "Feature", "properties": { "NAME_1": "Distrito Federal", "NAME_2": "Alvaro Obregón" }, "geometry": { "type": "Polygon", "coordinates": [ [ [ -99.155067443847699, 19.231920242309499 ], [ -99.186286926269503, 19.220251083373999 ], [ -99.186996459960895, 19.235250473022599 ], [ -99.168411254882699, 19.264669418335 ], [ -99.175956726074205, 19.269279479980501 ], [ -99.230186462402301, 19.248590469360401 ], [ -99.224533081054702, 19.230161666870099 ], [ -99.243103027343807, 19.2197780609132 ], [ -99.244102478027301, 19.198459625244102 ], [ -99.264442443847599, 19.195989608764599 ], [ -99.278633117675696, 19.2192306518556 ], [ -99.263137817382798, 19.223869323730401 ], [ -99.265640258789105, 19.2471523284912 ], [ -99.230972290038906, 19.2829895019531 ], [ -99.225929260253906, 19.3023796081543 ], [ -99.238876342773395, 19.310148239135799 ], [ -99.207489013671804, 19.324518203735401 ], [ -99.156486511230398, 19.373600006103601 ], [ -99.154411315917997, 19.313440322876001 ], [ -99.131011962890597, 19.311941146850501 ], [ -99.136901855468807, 19.28302192688 ], [ -99.149276733398395, 19.272331237793001 ], [ -99.155067443847699, 19.231920242309499 ] ] ] } },
{ "type": "Feature", "properties": { "NAME_1": "Distrito Federal", "NAME_2": "Azcapotzalco" }, "geometry": { "type": "Polygon", "coordinates": [ [ [ -99.119766235351506, 19.4322204589844 ], [ -99.141166687011705, 19.409120559692301 ], [ -99.184486389160199, 19.4187107086182 ], [ -99.173057556152301, 19.453750610351602 ], [ -99.140609741210895, 19.485031127929702 ], [ -99.119766235351506, 19.4322204589844 ] ] ] } },
{ "type": "Feature", "properties": { "NAME_1": "Distrito Federal", "NAME_2": "Benito Juárez" }, "geometry": { "type": "Polygon", "coordinates": [ [ [ -99.087097167968807, 19.3378105163575 ], [ -99.108970642089801, 19.311500549316499 ], [ -99.132957458496094, 19.304651260376001 ], [ -99.133338928222699, 19.313920974731602 ], [ -99.154411315917997, 19.313440322876001 ], [ -99.159469604492202, 19.335710525512699 ], [ -99.152603149414105, 19.363479614257798 ], [ -99.104362487792997, 19.3727207183838 ], [ -99.087097167968807, 19.3378105163575 ] ] ] } },
{ "type": "Feature", "properties": { "NAME_1": "Distrito Federal", "NAME_2": "Coyoacán" }, "geometry": { "type": "Polygon", "coordinates": [ [ [ -99.132957458496094, 19.304651260376001 ], [ -99.084716796875, 19.319910049438501 ], [ -99.056121826171903, 19.283210754394499 ], [ -99.079116821289006, 19.250339508056602 ], [ -99.123306274414105, 19.2499599456787 ], [ -99.145462036132798, 19.230909347534201 ], [ -99.155067443847699, 19.231920242309499 ], [ -99.149276733398395, 19.272331237793001 ], [ -99.138137817382798, 19.280490875244201 ], [ -99.132957458496094, 19.304651260376001 ] ] ] } },
{ "type": "Feature", "properties": { "NAME_1": "Distrito Federal", "NAME_2": "Cuajimalpa de Morelos" }, "geometry": { "type": "Polygon", "coordinates": [ [ [ -99.261566162109304, 19.1944599151612 ], [ -99.291938781738295, 19.180580139160199 ], [ -99.321617126464801, 19.229829788208001 ], [ -99.325347900390597, 19.2670993804932 ], [ -99.303672790527301, 19.2947101593018 ], [ -99.254936218261705, 19.329851150512798 ], [ -99.212997436523395, 19.353269577026499 ], [ -99.198516845703097, 19.350389480590799 ], [ -99.192337036132798, 19.343429565429801 ], [ -99.207489013671804, 19.324518203735401 ], [ -99.238876342773395, 19.310148239135799 ], [ -99.225929260253906, 19.3023796081543 ], [ -99.230972290038906, 19.2829895019531 ], [ -99.265640258789105, 19.2471523284912 ], [ -99.263137817382798, 19.223869323730401 ], [ -99.277366638183594, 19.2224311828613 ], [ -99.261566162109304, 19.1944599151612 ] ] ] } },
{ "type": "Feature", "properties": { "NAME_1": "Distrito Federal", "NAME_2": "Cuauhtémoc" }, "geometry": { "type": "Polygon", "coordinates": [ [ [ -99.078468322753807, 19.3778591156006 ], [ -99.137786865234304, 19.366060256958001 ], [ -99.132423400878807, 19.3831596374512 ], [ -99.144966125488295, 19.408380508422901 ], [ -99.119766235351506, 19.4322204589844 ], [ -99.076347351074205, 19.421970367431602 ], [ -99.078468322753807, 19.3778591156006 ] ] ] } },
{ "type": "Feature", "properties": { "NAME_1": "Distrito Federal", "NAME_2": "Gustavo A. Madero" }, "geometry": { "type": "Polygon", "coordinates": [ [ [ -99.140609741210895, 19.485031127929702 ], [ -99.104446411132798, 19.5295505523682 ], [ -99.08740234375, 19.539659500122099 ], [ -99.074386596679702, 19.526081085205 ], [ -99.074058532714801, 19.480789184570298 ], [ -99.032386779785099, 19.443790435791101 ], [ -99.067237854003906, 19.422189712524499 ], [ -99.112426757812401, 19.4291496276857 ], [ -99.119766235351506, 19.4322204589844 ], [ -99.140609741210895, 19.485031127929702 ] ] ] } },
{ "type": "Feature", "properties": { "NAME_1": "Distrito Federal", "NAME_2": "Iztacalco" }, "geometry": { "type": "Polygon", "coordinates": [ [ [ -99.000839233398395, 19.3749809265138 ], [ -99.026435852050795, 19.358249664306602 ], [ -99.056236267089801, 19.36203956604 ], [ -99.087097167968807, 19.3378105163575 ], [ -99.098960876464801, 19.372398376465 ], [ -99.006126403808594, 19.393062591552798 ], [ -99.000839233398395, 19.3749809265138 ] ] ] } },
{ "type": "Feature", "properties": { "NAME_1": "Distrito Federal", "NAME_2": "Iztapalapa" }, "geometry": { "type": "Polygon", "coordinates": [ [ [ -99.106491088867102, 19.316312789917099 ], [ -99.060546874999901, 19.3601398468018 ], [ -99.026435852050795, 19.358249664306602 ], [ -99.000839233398395, 19.3749809265138 ], [ -98.981712341308594, 19.3366107940675 ], [ -98.943901062011705, 19.3125095367432 ], [ -98.980026245117102, 19.285139083862401 ], [ -99.004577636718807, 19.281709671020501 ], [ -99.023727416992102, 19.2510509490968 ], [ -99.084716796875, 19.319910049438501 ], [ -99.106491088867102, 19.316312789917099 ] ] ] } },
{ "type": "Feature", "properties": { "NAME_1": "Distrito Federal", "NAME_2": "Magdalena Contreras" }, "geometry": { "type": "Polygon", "coordinates": [ [ [ -99.186286926269503, 19.220251083373999 ], [ -99.203750610351605, 19.207651138305799 ], [ -99.227958679199205, 19.144741058349702 ], [ -99.261680603027202, 19.1255702972413 ], [ -99.291938781738295, 19.180580139160199 ], [ -99.240325927734403, 19.202171325683601 ], [ -99.243103027343807, 19.2197780609132 ], [ -99.224533081054702, 19.230161666870099 ], [ -99.230186462402301, 19.248590469360401 ], [ -99.172630310058594, 19.2688903808594 ], [ -99.168411254882699, 19.264669418335 ], [ -99.186996459960895, 19.235250473022599 ], [ -99.186286926269503, 19.220251083373999 ] ] ] } },
{ "type": "Feature", "properties": { "NAME_1": "Distrito Federal", "NAME_2": "Miguel Hidalgo" }, "geometry": { "type": "Polygon", "coordinates": [ [ [ -99.212997436523395, 19.353269577026499 ], [ -99.199058532714801, 19.3715229034425 ], [ -99.184486389160199, 19.4187107086182 ], [ -99.144966125488295, 19.408380508422901 ], [ -99.132423400878807, 19.3831596374512 ], [ -99.137786865234304, 19.366060256958001 ], [ -99.152603149414105, 19.363479614257798 ], [ -99.156486511230398, 19.373600006103601 ], [ -99.192337036132798, 19.343429565429801 ], [ -99.212997436523395, 19.353269577026499 ] ] ] } },
{ "type": "Feature", "properties": { "NAME_1": "Distrito Federal", "NAME_2": "Milpa Alta" }, "geometry": { "type": "Polygon", "coordinates": [ [ [ -98.865379333496094, 19.071191787719702 ], [ -98.919151306152301, 19.0688991546632 ], [ -98.990303039550795, 19.043268203735501 ], [ -99.045639038085895, 19.0759811401368 ], [ -99.110755920410199, 19.0282306671143 ], [ -99.132102966308594, 19.043519973754901 ], [ -99.092247009277301, 19.1131706237793 ], [ -99.056671142578097, 19.096170425415 ], [ -99.024841308593807, 19.1484184265138 ], [ -98.908912658691307, 19.211870193481602 ], [ -98.888175964355497, 19.1856212615968 ], [ -98.859222412109304, 19.187971115112301 ], [ -98.855262756347699, 19.130529403686602 ], [ -98.873092651367202, 19.1026706695557 ], [ -98.865379333496094, 19.071191787719702 ] ] ] } },
{ "type": "Feature", "properties": { "NAME_1": "Distrito Federal", "NAME_2": "Tláhuac" }, "geometry": { "type": "Polygon", "coordinates": [ [ [ -98.877197265625, 19.244789123535298 ], [ -98.872245788574205, 19.245912551879901 ], [ -98.859222412109304, 19.187971115112301 ], [ -98.888175964355497, 19.1856212615968 ], [ -98.892761230468807, 19.1992206573487 ], [ -98.911430358886705, 19.211509704589801 ], [ -98.973297119140597, 19.171440124511701 ], [ -98.956298828124901, 19.224790573120099 ], [ -98.983116149902301, 19.237422943115298 ], [ -99.010643005370994, 19.235910415649499 ], [ -99.023727416992102, 19.2510509490968 ], [ -99.004577636718807, 19.281709671020501 ], [ -98.980026245117102, 19.285139083862401 ], [ -98.943901062011705, 19.3125095367432 ], [ -98.908622741699205, 19.286590576171999 ], [ -98.900398254394503, 19.2311611175538 ], [ -98.877197265625, 19.244789123535298 ] ] ] } },
{ "type": "Feature", "properties": { "NAME_1": "Distrito Federal", "NAME_2": "Tlalpan" }, "geometry": { "type": "Polygon", "coordinates": [ [ [ -99.217002868652301, 19.063440322876001 ], [ -99.261680603027202, 19.1255702972413 ], [ -99.227958679199205, 19.144741058349702 ], [ -99.201782226562401, 19.210420608520501 ], [ -99.145462036132798, 19.230909347534201 ], [ -99.123306274414105, 19.2499599456787 ], [ -99.079116821289006, 19.250339508056602 ], [ -99.078216552734403, 19.237180709838899 ], [ -99.117286682128807, 19.172981262206999 ], [ -99.084518432617202, 19.138219833373999 ], [ -99.080528259277301, 19.107690811157301 ], [ -99.092247009277301, 19.1131706237793 ], [ -99.132102966308594, 19.043519973754901 ], [ -99.155738830566406, 19.0713005065919 ], [ -99.217002868652301, 19.063440322876001 ] ] ] } },
{ "type": "Feature", "properties": { "NAME_1": "Distrito Federal", "NAME_2": "Venustiano Carranza" }, "geometry": { "type": "Polygon", "coordinates": [ [ [ -99.078468322753807, 19.3778591156006 ], [ -99.076347351074205, 19.421970367431602 ], [ -99.032386779785099, 19.443790435791101 ], [ -99.006126403808594, 19.393062591552798 ], [ -99.078468322753807, 19.3778591156006 ] ] ] } },
{ "type": "Feature", "properties": { "NAME_1": "Distrito Federal", "NAME_2": "Xochimilco" }, "geometry": { "type": "Polygon", "coordinates": [ [ [ -99.079116821289006, 19.250339508056602 ], [ -99.056121826171903, 19.283210754394499 ], [ -99.010643005370994, 19.235910415649499 ], [ -98.983116149902301, 19.237422943115298 ], [ -98.955245971679602, 19.222879409790099 ], [ -98.965705871582003, 19.208402633666999 ], [ -98.973297119140597, 19.171440124511701 ], [ -99.031806945800795, 19.1426811218263 ], [ -99.056671142578097, 19.096170425415 ], [ -99.080528259277301, 19.107690811157301 ], [ -99.084518432617202, 19.138219833373999 ], [ -99.117286682128807, 19.172981262206999 ], [ -99.078216552734403, 19.237180709838899 ], [ -99.079116821289006, 19.250339508056602 ] ] ] } }
]
}
