{
"type": "FeatureCollection",
"name": "guanajuato",
"crs": { "type": "name", "properties": { "name": "urn:ogc:def:crs:OGC:1.3:CRS84" } },
"features": [
{ "type": "Feature", "properties": { "NAME_1": "Guanajuato", "NAME_2": "Abasolo" }, "geometry": { "type": "Polygon", "coordinates": [ [ [ -101.411712646484006, 20.439079284668001 ], [ -101.444366455077997, 20.437152862548899 ], [ -101.48030090332, 20.410079956054702 ], [ -101.534683227539006, 20.402387619018601 ], [ -101.571830749512003, 20.376478195190401 ], [ -101.604019165039006, 20.3750400543213 ], [ -101.611457824707003, 20.336389541626001 ], [ -101.590759277344006, 20.3300304412843 ], [ -101.580978393555, 20.316980361938601 ], [ -101.644462585449006, 20.292860031128001 ], [ -101.653732299805, 20.303159713745199 ], [ -101.646362304687997, 20.3226127624512 ], [ -101.662933349609006, 20.326700210571399 ], [ -101.667037963867003, 20.336521148681602 ], [ -101.641761779785, 20.388900756835898 ], [ -101.64037322998, 20.4398708343506 ], [ -101.62580871582, 20.486059188842901 ], [ -101.629898071289006, 20.501359939575298 ], [ -101.609359741210994, 20.511449813842901 ], [ -101.589736938477003, 20.5352516174318 ], [ -101.576843261719006, 20.580280303955 ], [ -101.548103332519005, 20.5700702667237 ], [ -101.535865783690994, 20.576271057128999 ], [ -101.523452758789006, 20.619010925293001 ], [ -101.52498626709, 20.6509819030763 ], [ -101.536376953125, 20.667850494384801 ], [ -101.607299804687997, 20.6939601898194 ], [ -101.621360778809006, 20.712661743164102 ], [ -101.62190246582, 20.749200820923001 ], [ -101.609138488769005, 20.760402679443398 ], [ -101.593559265137003, 20.797880172729499 ], [ -101.542427062987997, 20.765800476074201 ], [ -101.508895874022997, 20.7782096862794 ], [ -101.473617553710994, 20.7577590942382 ], [ -101.480377197265994, 20.730339050293001 ], [ -101.47412109375, 20.711870193481399 ], [ -101.450492858887003, 20.6639804840088 ], [ -101.425148010254006, 20.659490585327099 ], [ -101.446502685547003, 20.593421936035199 ], [ -101.431427001952997, 20.583410263061499 ], [ -101.424461364745994, 20.566080093383899 ], [ -101.446746826172003, 20.545679092407301 ], [ -101.451217651367003, 20.529899597168001 ], [ -101.442337036132997, 20.503419876098601 ], [ -101.429458618164006, 20.494779586791999 ], [ -101.428092956542997, 20.524261474609499 ], [ -101.415626525879006, 20.5306892395019 ], [ -101.396331787109006, 20.494430541992202 ], [ -101.398361206055, 20.4775104522706 ], [ -101.42546081543, 20.464401245117099 ], [ -101.411712646484006, 20.439079284668001 ] ] ] } },
{ "type": "Feature", "properties": { "NAME_1": "Guanajuato", "NAME_2": "Acámbaro" }, "geometry": { "type": "Polygon", "coordinates": [ [ [ -100.603782653809006, 20.0531406402588 ], [ -100.59098815918, 20.008201599121101 ], [ -100.615966796875, 19.998928070068398 ], [ -100.634117126465, 19.976570129394499 ], [ -100.634437561035, 19.959842681884801 ], [ -100.680976867675994, 19.922010421753001 ], [ -100.817169189452997, 19.926290512084901 ], [ -100.863426208495994, 19.9400310516357 ], [ -100.880416870117003, 19.9547328948975 ], [ -100.915252685547003, 19.9610900878906 ], [ -100.981842041015994, 19.9674510955812 ], [ -100.989669799805, 19.956069946289201 ], [ -101.016265869140994, 19.957860946655298 ], [ -101.008346557617003, 19.9751701354981 ], [ -100.948928833007997, 20.016660690307699 ], [ -100.885688781737997, 20.0372009277344 ], [ -100.870719909667997, 20.078210830688398 ], [ -100.860069274902003, 20.087680816650401 ], [ -100.853385925292997, 20.144001007080099 ], [ -100.807716369629006, 20.137569427490298 ], [ -100.771797180175994, 20.156192779541101 ], [ -100.756523132324006, 20.147640228271602 ], [ -100.731246948242003, 20.157470703125099 ], [ -100.621887207030994, 20.165042877197202 ], [ -100.628677368164006, 20.145990371704102 ], [ -100.615173339844006, 20.127780914306701 ], [ -100.61971282959, 20.1085205078125 ], [ -100.63533782959, 20.101070404052798 ], [ -100.62963104248, 20.091020584106399 ], [ -100.635322570800994, 20.073829650878899 ], [ -100.620368957519005, 20.053438186645501 ], [ -100.603782653809006, 20.0531406402588 ] ] ] } },
{ "type": "Feature", "properties": { "NAME_1": "Guanajuato", "NAME_2": "Allende" }, "geometry": { "type": "Polygon", "coordinates": [ [ [ -100.62483215332, 20.7005119323731 ], [ -100.648452758789006, 20.720350265502901 ], [ -100.66446685791, 20.789319992065501 ], [ -100.67455291748, 20.799249649047901 ], [ -100.704887390137003, 20.786840438842901 ], [ -100.726371765137003, 20.795270919799901 ], [ -100.770767211914006, 20.788400650024499 ], [ -100.791915893555, 20.774480819702301 ], [ -100.821823120117003, 20.781681060791101 ], [ -100.82984161377, 20.800752639770501 ], [ -100.838966369629006, 20.804519653320298 ], [ -100.845436096190994, 20.7989807128906 ], [ -100.829437255859006, 20.7576503753663 ], [ -100.835441589355, 20.749599456787202 ], [ -100.91674041748, 20.7983913421631 ], [ -100.93480682373, 20.7971382141113 ], [ -100.958259582519005, 20.771579742431602 ], [ -100.981590270995994, 20.759950637817401 ], [ -101.041526794434006, 20.770441055297901 ], [ -101.057098388672003, 20.799970626831101 ], [ -101.044647216797003, 20.875080108642599 ], [ -100.997261047362997, 20.942871093750099 ], [ -100.957572937012003, 20.954679489135899 ], [ -100.956886291504006, 20.979310989379901 ], [ -100.947387695312003, 20.990751266479599 ], [ -100.953910827637003, 21.010839462280298 ], [ -100.942596435547003, 21.030759811401399 ], [ -100.846870422362997, 21.075660705566499 ], [ -100.751098632812003, 21.088151931762599 ], [ -100.69953918457, 21.086460113525501 ], [ -100.661308288574006, 21.064100265503001 ], [ -100.615615844727003, 21.070539474487301 ], [ -100.563842773437997, 21.0638408660888 ], [ -100.550315856934006, 21.023609161376999 ], [ -100.554962158202997, 21.005090713501001 ], [ -100.543266296387003, 20.9810504913331 ], [ -100.568519592285, 20.933122634887699 ], [ -100.539840698242003, 20.9227104187012 ], [ -100.52033996582, 20.9044494628906 ], [ -100.543251037597997, 20.881629943847699 ], [ -100.572273254395, 20.801959991455099 ], [ -100.58373260498, 20.697330474853601 ], [ -100.62483215332, 20.7005119323731 ] ] ] } },
{ "type": "Feature", "properties": { "NAME_1": "Guanajuato", "NAME_2": "Apaseo el Alto" }, "geometry": { "type": "Polygon", "coordinates": [ [ [ -100.593856811522997, 20.3396110534668 ], [ -100.622016906737997, 20.348510742187599 ], [ -100.632713317870994, 20.3790397644044 ], [ -100.624969482422003, 20.388942718506001 ], [ -100.650932312012003, 20.394872665405401 ], [ -100.662376403809006, 20.421049118042099 ], [ -100.68522644043, 20.4457397460938 ], [ -100.686126708984006, 20.458520889282301 ], [ -100.64200592041, 20.466722488403398 ], [ -100.639129638672003, 20.488220214843899 ], [ -100.621376037597997, 20.4769706726075 ], [ -100.613876342772997, 20.485950469970799 ], [ -100.581237792969006, 20.4798603057862 ], [ -100.560691833495994, 20.5099906921387 ], [ -100.519500732422003, 20.514970779419102 ], [ -100.514236450195, 20.4824028015138 ], [ -100.465316772460994, 20.408370971679702 ], [ -100.48966217041, 20.399509429931602 ], [ -100.487937927245994, 20.36429977417 ], [ -100.51407623291, 20.3448600769044 ], [ -100.524696350097997, 20.313430786132901 ], [ -100.539566040039006, 20.311710357666101 ], [ -100.549049377440994, 20.299728393554702 ], [ -100.559921264647997, 20.3030700683594 ], [ -100.569892883300994, 20.332958221435501 ], [ -100.593856811522997, 20.3396110534668 ] ] ] } },
{ "type": "Feature", "properties": { "NAME_1": "Guanajuato", "NAME_2": "Apaseo el Grande" }, "geometry": { "type": "Polygon", "coordinates": [ [ [ -100.513969421387003, 20.565670013427798 ], [ -100.519500732422003, 20.514970779419102 ], [ -100.560691833495994, 20.5099906921387 ], [ -100.581237792969006, 20.4798603057862 ], [ -100.613876342772997, 20.485950469970799 ], [ -100.621376037597997, 20.4769706726075 ], [ -100.639129638672003, 20.488220214843899 ], [ -100.64200592041, 20.466722488403398 ], [ -100.686126708984006, 20.458520889282301 ], [ -100.702919006347997, 20.464300155639801 ], [ -100.720123291015994, 20.484230041503999 ], [ -100.750633239745994, 20.4715900421143 ], [ -100.782287597655994, 20.475151062011701 ], [ -100.78865814209, 20.483079910278398 ], [ -100.787780761719006, 20.503179550171001 ], [ -100.764907836914006, 20.552740097046001 ], [ -100.732360839844006, 20.570198059082099 ], [ -100.71752166748, 20.599800109863398 ], [ -100.670997619629006, 20.628589630126999 ], [ -100.694839477539006, 20.651859283447301 ], [ -100.699661254882997, 20.668239593505898 ], [ -100.688735961914006, 20.6726894378662 ], [ -100.64769744873, 20.6614704132081 ], [ -100.62483215332, 20.7005119323731 ], [ -100.58373260498, 20.697330474853601 ], [ -100.578407287597997, 20.6768112182618 ], [ -100.539962768555, 20.650079727172901 ], [ -100.515602111815994, 20.591129302978601 ], [ -100.513969421387003, 20.565670013427798 ] ] ] } },
{ "type": "Feature", "properties": { "NAME_1": "Guanajuato", "NAME_2": "Atarjea" }, "geometry": { "type": "Polygon", "coordinates": [ [ [ -99.938667297363196, 21.222810745239201 ], [ -99.914649963378807, 21.238510131836001 ], [ -99.903007507324205, 21.259609222412202 ], [ -99.901199340820298, 21.2899894714357 ], [ -99.918167114257798, 21.328197479248001 ], [ -99.912528991699205, 21.346269607543899 ], [ -99.871726989745994, 21.352069854736399 ], [ -99.842437744140597, 21.375350952148398 ], [ -99.805358886718693, 21.3745307922363 ], [ -99.813346862792898, 21.3532009124756 ], [ -99.805168151855398, 21.341220855712901 ], [ -99.746803283691307, 21.337272644043001 ], [ -99.713050842285099, 21.325189590454201 ], [ -99.714607238769503, 21.281101226806602 ], [ -99.730567932128807, 21.2406902313232 ], [ -99.757171630859403, 21.2188606262206 ], [ -99.807876586914105, 21.19734954834 ], [ -99.828536987304602, 21.1609611511231 ], [ -99.876731872558594, 21.160699844360401 ], [ -99.938667297363196, 21.222810745239201 ] ] ] } },
{ "type": "Feature", "properties": { "NAME_1": "Guanajuato", "NAME_2": "Celaya" }, "geometry": { "type": "Polygon", "coordinates": [ [ [ -100.68522644043, 20.4457397460938 ], [ -100.712882995605, 20.420789718628001 ], [ -100.727951049805, 20.387050628662202 ], [ -100.748870849609006, 20.365140914917099 ], [ -100.824279785155994, 20.408941268921001 ], [ -100.825172424315994, 20.4240112304688 ], [ -100.842102050780994, 20.442790985107401 ], [ -100.865463256835994, 20.423599243164102 ], [ -100.873252868652003, 20.4446506500244 ], [ -100.951858520507997, 20.519161224365298 ], [ -100.94750213623, 20.543729782104499 ], [ -100.910499572754006, 20.533060073852699 ], [ -100.899101257324006, 20.5364208221437 ], [ -100.910316467285, 20.5584011077881 ], [ -100.937599182129006, 20.581701278686499 ], [ -100.933227539062003, 20.607629776001001 ], [ -100.924758911132997, 20.617261886596701 ], [ -100.838417053222997, 20.617010116577099 ], [ -100.828170776367003, 20.599550247192401 ], [ -100.813606262207003, 20.593090057373001 ], [ -100.793449401855, 20.609970092773398 ], [ -100.763061523437997, 20.666660308838001 ], [ -100.735397338867003, 20.659420013427798 ], [ -100.718719482422003, 20.6703205108643 ], [ -100.699661254882997, 20.668239593505898 ], [ -100.694839477539006, 20.651859283447301 ], [ -100.670997619629006, 20.628589630126999 ], [ -100.71752166748, 20.599800109863398 ], [ -100.732360839844006, 20.570198059082099 ], [ -100.764907836914006, 20.552740097046001 ], [ -100.789848327637003, 20.490829467773501 ], [ -100.775611877440994, 20.473621368408299 ], [ -100.750633239745994, 20.4715900421143 ], [ -100.716407775879006, 20.482671737670799 ], [ -100.702919006347997, 20.464300155639801 ], [ -100.68342590332, 20.456039428710898 ], [ -100.68522644043, 20.4457397460938 ] ] ] } },
{ "type": "Feature", "properties": { "NAME_1": "Guanajuato", "NAME_2": "Comonfort" }, "geometry": { "type": "Polygon", "coordinates": [ [ [ -100.924758911132997, 20.617261886596701 ], [ -100.932792663574006, 20.635030746460099 ], [ -100.954193115234006, 20.650560379028398 ], [ -100.960258483887003, 20.7010307312012 ], [ -100.985748291015994, 20.697998046875099 ], [ -100.990852355957003, 20.710859298706101 ], [ -100.977096557617003, 20.732240676879801 ], [ -100.981590270995994, 20.759950637817401 ], [ -100.958259582519005, 20.771579742431602 ], [ -100.93480682373, 20.7971382141113 ], [ -100.897239685059006, 20.792182922363299 ], [ -100.835441589355, 20.749599456787202 ], [ -100.829437255859006, 20.7576503753663 ], [ -100.845436096190994, 20.7989807128906 ], [ -100.838966369629006, 20.804519653320298 ], [ -100.82984161377, 20.800752639770501 ], [ -100.821823120117003, 20.781681060791101 ], [ -100.791915893555, 20.774480819702301 ], [ -100.770767211914006, 20.788400650024499 ], [ -100.726371765137003, 20.795270919799901 ], [ -100.704887390137003, 20.786840438842901 ], [ -100.67455291748, 20.799249649047901 ], [ -100.66446685791, 20.789319992065501 ], [ -100.65064239502, 20.7251205444337 ], [ -100.62483215332, 20.7005119323731 ], [ -100.64769744873, 20.6614704132081 ], [ -100.688735961914006, 20.6726894378662 ], [ -100.718719482422003, 20.6703205108643 ], [ -100.735397338867003, 20.659420013427798 ], [ -100.763061523437997, 20.666660308838001 ], [ -100.793449401855, 20.609970092773398 ], [ -100.813606262207003, 20.593090057373001 ], [ -100.828170776367003, 20.599550247192401 ], [ -100.838417053222997, 20.617010116577099 ], [ -100.924758911132997, 20.617261886596701 ] ] ] } },
{ "type": "Feature", "properties": { "NAME_1": "Guanajuato", "NAME_2": "Coroneo" }, "geometry": { "type": "Polygon", "coordinates": [ [ [ -100.372329711914006, 20.101871490478601 ], [ -100.395172119140994, 20.104160308838001 ], [ -100.418128967285, 20.118000030517599 ], [ -100.453506469727003, 20.171371459961001 ], [ -100.464042663574006, 20.2312908172607 ], [ -100.448905944824006, 20.275360107421999 ], [ -100.431289672852003, 20.278690338134901 ], [ -100.403091430664006, 20.3077507019043 ], [ -100.400108337402003, 20.344619750976499 ], [ -100.390312194824006, 20.359289169311499 ], [ -100.361236572265994, 20.2966499328613 ], [ -100.377281188965, 20.263231277465799 ], [ -100.376228332519005, 20.237842559814499 ], [ -100.3515625, 20.199050903320401 ], [ -100.351432800292997, 20.154169082641602 ], [ -100.372329711914006, 20.101871490478601 ] ] ] } },
{ "type": "Feature", "properties": { "NAME_1": "Guanajuato", "NAME_2": "Cortazar" }, "geometry": { "type": "Polygon", "coordinates": [ [ [ -100.962753295897997, 20.349809646606602 ], [ -100.968772888184006, 20.3786315917969 ], [ -100.995872497559006, 20.391748428344801 ], [ -100.990547180175994, 20.415210723876999 ], [ -101.047805786132997, 20.452020645141701 ], [ -101.05687713623, 20.4497394561769 ], [ -101.051246643065994, 20.482770919799901 ], [ -101.022476196289006, 20.485111236572301 ], [ -100.99764251709, 20.508651733398398 ], [ -100.951858520507997, 20.519161224365298 ], [ -100.873252868652003, 20.4446506500244 ], [ -100.865463256835994, 20.423599243164102 ], [ -100.842102050780994, 20.442790985107401 ], [ -100.825172424315994, 20.4240112304688 ], [ -100.824279785155994, 20.408941268921001 ], [ -100.747650146484006, 20.362190246581999 ], [ -100.774040222167997, 20.333820343017699 ], [ -100.805236816405994, 20.325519561767599 ], [ -100.812019348145, 20.308988571166999 ], [ -100.87126159668, 20.277549743652301 ], [ -100.878852844237997, 20.289382934570401 ], [ -100.867095947265994, 20.3141593933107 ], [ -100.871490478515994, 20.324598312377901 ], [ -100.931228637695, 20.334608078003001 ], [ -100.951606750487997, 20.354732513427798 ], [ -100.962753295897997, 20.349809646606602 ] ] ] } },
{ "type": "Feature", "properties": { "NAME_1": "Guanajuato", "NAME_2": "Cuerámaro" }, "geometry": { "type": "Polygon", "coordinates": [ [ [ -101.630882263184006, 20.497238159179702 ], [ -101.639457702637003, 20.488090515136701 ], [ -101.645706176757997, 20.510700225830099 ], [ -101.654479980469006, 20.514570236206101 ], [ -101.706008911132997, 20.507190704345799 ], [ -101.711082458495994, 20.5234107971193 ], [ -101.702438354492003, 20.5503826141357 ], [ -101.705551147460994, 20.565679550170898 ], [ -101.733047485352003, 20.5896511077882 ], [ -101.766456604004006, 20.601520538330099 ], [ -101.750053405762003, 20.672559738159201 ], [ -101.739990234375, 20.684221267700199 ], [ -101.706787109375, 20.6762409210206 ], [ -101.694671630859006, 20.655239105224599 ], [ -101.682952880859006, 20.654560089111399 ], [ -101.671356201172003, 20.679700851440401 ], [ -101.646011352539006, 20.667631149292099 ], [ -101.63362121582, 20.7035102844238 ], [ -101.621360778809006, 20.712661743164102 ], [ -101.607299804687997, 20.6939601898194 ], [ -101.576553344727003, 20.687400817871101 ], [ -101.529823303222997, 20.6601028442382 ], [ -101.522666931152003, 20.626102447509801 ], [ -101.532913208007997, 20.579931259155401 ], [ -101.548103332519005, 20.5700702667237 ], [ -101.576843261719006, 20.580280303955 ], [ -101.589736938477003, 20.5352516174318 ], [ -101.630882263184006, 20.497238159179702 ] ] ] } },
{ "type": "Feature", "properties": { "NAME_1": "Guanajuato", "NAME_2": "Doctor Mora" }, "geometry": { "type": "Polygon", "coordinates": [ [ [ -100.534156799315994, 21.081541061401499 ], [ -100.542129516602003, 21.103349685668999 ], [ -100.560638427734006, 21.114080429077202 ], [ -100.554481506347997, 21.1356105804443 ], [ -100.580963134765994, 21.142360687256001 ], [ -100.587738037109006, 21.161899566650401 ], [ -100.56241607666, 21.162660598754901 ], [ -100.5068359375, 21.1863708496094 ], [ -100.472045898437997, 21.1655597686769 ], [ -100.451393127440994, 21.196830749511701 ], [ -100.401832580565994, 21.214292526245199 ], [ -100.358726501465, 21.204740524292099 ], [ -100.334182739257997, 21.175350189209102 ], [ -100.308868408202997, 21.174488067626999 ], [ -100.297073364257997, 21.1632003784181 ], [ -100.302932739257997, 21.147850036621101 ], [ -100.290740966797003, 21.125610351562599 ], [ -100.286552429199006, 21.0962009429932 ], [ -100.292343139647997, 21.089290618896602 ], [ -100.312141418457003, 21.095239639282202 ], [ -100.32787322998, 21.085710525512699 ], [ -100.344886779785, 21.097169876098601 ], [ -100.363426208495994, 21.078250885009901 ], [ -100.397346496582003, 21.0879211425781 ], [ -100.534156799315994, 21.081541061401499 ] ] ] } },
{ "type": "Feature", "properties": { "NAME_1": "Guanajuato", "NAME_2": "Dolores Hidalgo" }, "geometry": { "type": "Polygon", "coordinates": [ [ [ -101.099586486815994, 20.893028259277301 ], [ -101.125968933105, 20.917610168456999 ], [ -101.149047851562003, 20.925411224365298 ], [ -101.123428344727003, 20.949590682983299 ], [ -101.124038696289006, 20.968282699584901 ], [ -101.099922180175994, 21.014139175415199 ], [ -101.123008728027003, 21.0353603363038 ], [ -101.146072387695, 21.014421463012798 ], [ -101.165748596190994, 21.056520462036101 ], [ -101.130096435547003, 21.0726203918457 ], [ -101.122680664062003, 21.106960296630898 ], [ -101.127136230469006, 21.123529434204201 ], [ -101.148872375487997, 21.138879776001101 ], [ -101.15202331543, 21.1584396362306 ], [ -101.165702819824006, 21.1564025878906 ], [ -101.173843383789006, 21.210758209228601 ], [ -101.146842956542997, 21.23397064209 ], [ -101.15315246582, 21.267152786254901 ], [ -101.144172668457003, 21.2800617218018 ], [ -101.104278564452997, 21.269130706787202 ], [ -101.075996398925994, 21.279251098632798 ], [ -101.061965942382997, 21.297300338745099 ], [ -101.050537109375, 21.342220306396602 ], [ -101.028587341309006, 21.340419769287099 ], [ -101.024757385254006, 21.3101806640625 ], [ -101.006141662597997, 21.315191268921001 ], [ -100.969520568847997, 21.309730529785298 ], [ -100.963912963867003, 21.329250335693501 ], [ -100.945541381835994, 21.3336200714112 ], [ -100.912300109862997, 21.306970596313501 ], [ -100.861183166504006, 21.343561172485401 ], [ -100.827239990234006, 21.311470031738299 ], [ -100.793327331542997, 21.303461074829201 ], [ -100.781181335449006, 21.274431228637798 ], [ -100.767852783202997, 21.268899917602599 ], [ -100.765281677245994, 21.2499980926513 ], [ -100.721176147460994, 21.216579437255898 ], [ -100.70987701416, 21.177730560302798 ], [ -100.680068969727003, 21.182428359985401 ], [ -100.663597106934006, 21.165750503540199 ], [ -100.665435791015994, 21.155921936035199 ], [ -100.705062866210994, 21.1351509094238 ], [ -100.688667297362997, 21.1095905303956 ], [ -100.695098876952997, 21.0849094390869 ], [ -100.751098632812003, 21.088151931762599 ], [ -100.846870422362997, 21.075660705566499 ], [ -100.86979675293, 21.059389114379901 ], [ -100.928146362305, 21.0412006378175 ], [ -100.953910827637003, 21.010839462280298 ], [ -100.947387695312003, 20.990751266479599 ], [ -100.956886291504006, 20.979310989379901 ], [ -100.957572937012003, 20.954679489135899 ], [ -100.997261047362997, 20.942871093750099 ], [ -101.044647216797003, 20.875080108642599 ], [ -101.061866760254006, 20.8863201141357 ], [ -101.099586486815994, 20.893028259277301 ] ] ] } },
{ "type": "Feature", "properties": { "NAME_1": "Guanajuato", "NAME_2": "Guanajuato" }, "geometry": { "type": "Polygon", "coordinates": [ [ [ -101.099586486815994, 20.893028259277301 ], [ -101.104797363280994, 20.8815212249756 ], [ -101.192588806152003, 20.848051071166999 ], [ -101.237602233887003, 20.851810455322301 ], [ -101.252197265625, 20.828599929809599 ], [ -101.278297424315994, 20.812160491943501 ], [ -101.289039611815994, 20.824409484863299 ], [ -101.305770874022997, 20.819980621338001 ], [ -101.353256225585994, 20.836000442504801 ], [ -101.366760253905994, 20.861749649047798 ], [ -101.351303100585994, 20.872301101684599 ], [ -101.347106933594006, 20.911800384521499 ], [ -101.360206604004006, 20.990930557251001 ], [ -101.40258026123, 21.078388214111399 ], [ -101.418823242187997, 21.063289642333999 ], [ -101.441017150879006, 21.070510864257901 ], [ -101.434257507324006, 21.0926609039307 ], [ -101.367256164550994, 21.128700256347798 ], [ -101.352188110352003, 21.148820877075199 ], [ -101.324516296387003, 21.156000137329201 ], [ -101.290519714355, 21.178050994873001 ], [ -101.278656005859006, 21.181779861450298 ], [ -101.246551513672003, 21.171340942382901 ], [ -101.2451171875, 21.194379806518601 ], [ -101.237106323242003, 21.200849533081101 ], [ -101.242378234862997, 21.2274703979493 ], [ -101.202766418457003, 21.211729049682699 ], [ -101.173843383789006, 21.210758209228601 ], [ -101.165702819824006, 21.1564025878906 ], [ -101.15202331543, 21.1584396362306 ], [ -101.148872375487997, 21.138879776001101 ], [ -101.127136230469006, 21.123529434204201 ], [ -101.122680664062003, 21.106960296630898 ], [ -101.130096435547003, 21.0726203918457 ], [ -101.165748596190994, 21.056520462036101 ], [ -101.146072387695, 21.014421463012798 ], [ -101.123008728027003, 21.0353603363038 ], [ -101.099922180175994, 21.014139175415199 ], [ -101.124038696289006, 20.968282699584901 ], [ -101.123428344727003, 20.949590682983299 ], [ -101.149047851562003, 20.925411224365298 ], [ -101.125968933105, 20.917610168456999 ], [ -101.099586486815994, 20.893028259277301 ] ] ] } },
{ "type": "Feature", "properties": { "NAME_1": "Guanajuato", "NAME_2": "Huanímaro" }, "geometry": { "type": "Polygon", "coordinates": [ [ [ -101.478973388672003, 20.3170604705812 ], [ -101.501838684082003, 20.319580078125099 ], [ -101.531021118164006, 20.308988571166999 ], [ -101.555961608887003, 20.323350906372099 ], [ -101.580978393555, 20.316980361938601 ], [ -101.590759277344006, 20.3300304412843 ], [ -101.611457824707003, 20.336389541626001 ], [ -101.606468200684006, 20.372289657592798 ], [ -101.571830749512003, 20.376478195190401 ], [ -101.517601013184006, 20.408380508422798 ], [ -101.48030090332, 20.410079956054702 ], [ -101.444366455077997, 20.437152862548899 ], [ -101.411712646484006, 20.439079284668001 ], [ -101.406730651855, 20.409389495849599 ], [ -101.425765991210994, 20.3997306823731 ], [ -101.438812255859006, 20.371578216552798 ], [ -101.452445983887003, 20.370622634887699 ], [ -101.466270446777003, 20.3273811340332 ], [ -101.478973388672003, 20.3170604705812 ] ] ] } },
{ "type": "Feature", "properties": { "NAME_1": "Guanajuato", "NAME_2": "Irapuato" }, "geometry": { "type": "Polygon", "coordinates": [ [ [ -101.203659057617003, 20.8449211120606 ], [ -101.199195861815994, 20.8390502929688 ], [ -101.208419799805, 20.8128986358644 ], [ -101.246612548827997, 20.7419109344482 ], [ -101.26505279541, 20.728479385376001 ], [ -101.303962707519005, 20.653070449829201 ], [ -101.304832458495994, 20.6338806152344 ], [ -101.271865844727003, 20.6343307495118 ], [ -101.26326751709, 20.625959396362301 ], [ -101.276069641112997, 20.593410491943501 ], [ -101.323486328125, 20.5789680480957 ], [ -101.358543395995994, 20.5843410491943 ], [ -101.380271911620994, 20.576730728149499 ], [ -101.39559173584, 20.539670944213999 ], [ -101.426612854004006, 20.527000427246101 ], [ -101.426521301269005, 20.496852874755898 ], [ -101.43871307373, 20.498411178588899 ], [ -101.450439453125, 20.538810729980501 ], [ -101.424461364745994, 20.566080093383899 ], [ -101.44645690918, 20.600959777832099 ], [ -101.425148010254006, 20.659490585327099 ], [ -101.450492858887003, 20.6639804840088 ], [ -101.478942871094006, 20.7228107452393 ], [ -101.473617553710994, 20.7577590942382 ], [ -101.500610351562003, 20.7752704620362 ], [ -101.49178314209, 20.822320938110401 ], [ -101.462142944335994, 20.797290802002099 ], [ -101.44799041748, 20.7952785491943 ], [ -101.426910400390994, 20.809730529785199 ], [ -101.434257507324006, 20.843490600586001 ], [ -101.377021789550994, 20.821540832519599 ], [ -101.36604309082, 20.8220329284669 ], [ -101.353256225585994, 20.836000442504801 ], [ -101.305770874022997, 20.819980621338001 ], [ -101.289039611815994, 20.824409484863299 ], [ -101.28199005127, 20.811449050903299 ], [ -101.252197265625, 20.828599929809599 ], [ -101.237602233887003, 20.851810455322301 ], [ -101.203659057617003, 20.8449211120606 ] ] ] } },
{ "type": "Feature", "properties": { "NAME_1": "Guanajuato", "NAME_2": "Jaral del Progreso" }, "geometry": { "type": "Polygon", "coordinates": [ [ [ -101.101287841797003, 20.2605590820312 ], [ -101.115325927734006, 20.284072875976602 ], [ -101.146408081055, 20.2855129241943 ], [ -101.147369384765994, 20.2953205108643 ], [ -101.130462646484006, 20.319650650024499 ], [ -101.126472473144005, 20.3508205413819 ], [ -101.109031677245994, 20.364440917968899 ], [ -101.113250732422003, 20.388130187988299 ], [ -101.095191955565994, 20.412290573120099 ], [ -101.097396850585994, 20.429599761962798 ], [ -101.078025817870994, 20.446491241455099 ], [ -101.047805786132997, 20.452020645141701 ], [ -100.990547180175994, 20.415210723876999 ], [ -100.995872497559006, 20.391748428344801 ], [ -100.968772888184006, 20.3786315917969 ], [ -100.963592529297003, 20.332870483398501 ], [ -100.987663269042997, 20.311109542846701 ], [ -100.988166809082003, 20.257829666137798 ], [ -101.00821685791, 20.245121002197401 ], [ -101.101287841797003, 20.2605590820312 ] ] ] } },
{ "type": "Feature", "properties": { "NAME_1": "Guanajuato", "NAME_2": "Jerécuaro" }, "geometry": { "type": "Polygon", "coordinates": [ [ [ -100.372329711914006, 20.101871490478601 ], [ -100.365097045897997, 20.091430664062599 ], [ -100.339797973632997, 20.089260101318398 ], [ -100.339981079102003, 20.069780349731602 ], [ -100.36856842041, 20.0306606292725 ], [ -100.40193939209, 20.010961532592901 ], [ -100.468231201172003, 20.0053615570069 ], [ -100.503540039062003, 20.02645111084 ], [ -100.512870788574006, 20.041049957275501 ], [ -100.515716552734006, 20.069900512695401 ], [ -100.547882080077997, 20.0806999206544 ], [ -100.574951171875, 20.075750350952202 ], [ -100.568916320800994, 20.066339492798001 ], [ -100.58634185791, 20.060670852661101 ], [ -100.567626953125, 20.0553398132325 ], [ -100.577156066894005, 20.047349929809599 ], [ -100.58625793457, 20.051050186157301 ], [ -100.591133117675994, 20.0416698455812 ], [ -100.598327636719006, 20.054519653320298 ], [ -100.620368957519005, 20.053438186645501 ], [ -100.635322570800994, 20.073829650878899 ], [ -100.62963104248, 20.091020584106399 ], [ -100.63533782959, 20.101070404052798 ], [ -100.61971282959, 20.1085205078125 ], [ -100.615173339844006, 20.127780914306701 ], [ -100.628677368164006, 20.145990371704102 ], [ -100.621170043945, 20.160699844360401 ], [ -100.633338928222997, 20.198129653930799 ], [ -100.629341125487997, 20.204799652099702 ], [ -100.612342834472997, 20.1928100585938 ], [ -100.604888916015994, 20.196529388427699 ], [ -100.60897064209, 20.218240737915 ], [ -100.601860046387003, 20.2491893768312 ], [ -100.604942321777003, 20.271118164062599 ], [ -100.625633239745994, 20.289241790771499 ], [ -100.622001647949006, 20.3137512207031 ], [ -100.587432861327997, 20.3401203155518 ], [ -100.569892883300994, 20.332958221435501 ], [ -100.552772521972997, 20.298559188842901 ], [ -100.539566040039006, 20.311710357666101 ], [ -100.524696350097997, 20.313430786132901 ], [ -100.51407623291, 20.3448600769044 ], [ -100.487937927245994, 20.36429977417 ], [ -100.48966217041, 20.399509429931602 ], [ -100.474006652832003, 20.4074096679688 ], [ -100.465316772460994, 20.408370971679702 ], [ -100.390312194824006, 20.359289169311499 ], [ -100.400108337402003, 20.344619750976499 ], [ -100.403091430664006, 20.3077507019043 ], [ -100.431289672852003, 20.278690338134901 ], [ -100.448905944824006, 20.275360107421999 ], [ -100.464042663574006, 20.2312908172607 ], [ -100.453506469727003, 20.171371459961001 ], [ -100.418128967285, 20.118000030517599 ], [ -100.395172119140994, 20.104160308838001 ], [ -100.372329711914006, 20.101871490478601 ] ] ] } },
{ "type": "Feature", "properties": { "NAME_1": "Guanajuato", "NAME_2": "León" }, "geometry": { "type": "Polygon", "coordinates": [ [ [ -101.441017150879006, 21.070510864257901 ], [ -101.482376098632997, 21.065830230713001 ], [ -101.481796264647997, 21.0423297882081 ], [ -101.542297363280994, 21.027811050415099 ], [ -101.560256958007997, 21.0104293823243 ], [ -101.591491699219006, 21.022920608520501 ], [ -101.62671661377, 21.023551940918001 ], [ -101.636512756347997, 20.9831428527832 ], [ -101.601860046387003, 20.966770172119102 ], [ -101.598075866699006, 20.945779800415099 ], [ -101.616256713867003, 20.932050704956101 ], [ -101.667068481445, 20.941352844238299 ], [ -101.692588806152003, 20.882892608642599 ], [ -101.721298217772997, 20.864389419555799 ], [ -101.74870300293, 20.956609725952301 ], [ -101.743026733397997, 20.963228225708001 ], [ -101.705856323242003, 20.961179733276499 ], [ -101.705986022949006, 20.981941223144599 ], [ -101.732063293457003, 21.002710342407202 ], [ -101.760757446289006, 20.991050720214801 ], [ -101.753692626952997, 21.030759811401399 ], [ -101.806907653809006, 21.0130004882812 ], [ -101.822067260742003, 21.0151901245118 ], [ -101.8125, 21.069520950317401 ], [ -101.820938110352003, 21.094760894775401 ], [ -101.842567443847997, 21.1214809417725 ], [ -101.791976928710994, 21.1632804870606 ], [ -101.785469055175994, 21.193220138549801 ], [ -101.752113342285, 21.257938385009901 ], [ -101.751251220702997, 21.295150756836001 ], [ -101.728507995605, 21.3143310546875 ], [ -101.700561523437997, 21.318910598755 ], [ -101.677001953125, 21.313369750976499 ], [ -101.667976379394005, 21.286090850830099 ], [ -101.658462524414006, 21.279239654541101 ], [ -101.646125793457003, 21.2929496765137 ], [ -101.63005065918, 21.278570175171001 ], [ -101.615020751952997, 21.2906799316406 ], [ -101.618125915527003, 21.263980865478601 ], [ -101.609260559082003, 21.234798431396499 ], [ -101.624572753905994, 21.2151699066163 ], [ -101.611236572265994, 21.191690444946399 ], [ -101.582458496094006, 21.175090789795 ], [ -101.573738098144005, 21.161420822143601 ], [ -101.549850463867003, 21.183589935302699 ], [ -101.501518249512003, 21.163179397583001 ], [ -101.495277404785, 21.144720077514599 ], [ -101.468399047852003, 21.141820907592901 ], [ -101.440116882324006, 21.127540588378999 ], [ -101.434257507324006, 21.0926609039307 ], [ -101.441017150879006, 21.070510864257901 ] ] ] } },
{ "type": "Feature", "properties": { "NAME_1": "Guanajuato", "NAME_2": "Manuel Doblado" }, "geometry": { "type": "Polygon", "coordinates": [ [ [ -101.766456604004006, 20.601520538330099 ], [ -101.783142089844006, 20.5802707672119 ], [ -101.820320129395, 20.564010620117202 ], [ -101.866142272949006, 20.5135803222657 ], [ -101.99169921875, 20.498720169067401 ], [ -101.997291564940994, 20.511869430541999 ], [ -101.992546081542997, 20.5796909332275 ], [ -101.98021697998, 20.594409942626999 ], [ -101.981559753417997, 20.6107997894288 ], [ -102.030532836914006, 20.701280593872099 ], [ -102.065483093262003, 20.714540481567401 ], [ -102.072731018065994, 20.741949081421001 ], [ -102.068511962890994, 20.762760162353601 ], [ -102.048439025879006, 20.769741058349599 ], [ -102.037857055664006, 20.788619995117301 ], [ -102.015830993652003, 20.794252395629901 ], [ -101.992782592772997, 20.8130798339844 ], [ -101.959266662597997, 20.810632705688398 ], [ -101.947868347167997, 20.7818298339844 ], [ -101.911056518555, 20.813289642333999 ], [ -101.890487670897997, 20.821029663086101 ], [ -101.823440551757997, 20.773139953613299 ], [ -101.792381286620994, 20.773019790649499 ], [ -101.807426452637003, 20.743770599365199 ], [ -101.790542602539006, 20.747459411621001 ], [ -101.773216247559006, 20.740169525146499 ], [ -101.739372253417997, 20.765970230102699 ], [ -101.70809173584, 20.765529632568398 ], [ -101.706619262695, 20.7168903350831 ], [ -101.719596862792997, 20.707290649414102 ], [ -101.70426940918, 20.693149566650501 ], [ -101.703346252440994, 20.680810928344702 ], [ -101.706787109375, 20.6762409210206 ], [ -101.73509979248, 20.685819625854499 ], [ -101.748092651367003, 20.677362442016602 ], [ -101.766456604004006, 20.601520538330099 ] ] ] } },
{ "type": "Feature", "properties": { "NAME_1": "Guanajuato", "NAME_2": "Moroleón" }, "geometry": { "type": "Polygon", "coordinates": [ [ [ -101.188117980957003, 20.0283508300782 ], [ -101.181137084960994, 20.011560440063501 ], [ -101.187881469727003, 20.004091262817401 ], [ -101.237281799315994, 19.987552642822301 ], [ -101.288879394530994, 20.011299133300799 ], [ -101.330017089844006, 20.016599655151399 ], [ -101.344985961914006, 20.0690727233888 ], [ -101.316719055175994, 20.094089508056602 ], [ -101.302223205565994, 20.125501632690501 ], [ -101.276191711425994, 20.121099472045898 ], [ -101.275131225585994, 20.147649765014702 ], [ -101.255592346190994, 20.150569915771499 ], [ -101.260246276855, 20.1644802093507 ], [ -101.247848510742003, 20.166660308837901 ], [ -101.224533081055, 20.1475009918213 ], [ -101.190505981445, 20.136081695556602 ], [ -101.228378295897997, 20.119760513305799 ], [ -101.203247070312003, 20.0867004394532 ], [ -101.237846374512003, 20.0377407073975 ], [ -101.238410949707003, 20.0146083831787 ], [ -101.226486206055, 20.006059646606602 ], [ -101.210960388184006, 20.022050857543999 ], [ -101.188117980957003, 20.0283508300782 ] ] ] } },
{ "type": "Feature", "properties": { "NAME_1": "Guanajuato", "NAME_2": "Ocampo" }, "geometry": { "type": "Polygon", "coordinates": [ [ [ -101.646667480469006, 21.349380493164201 ], [ -101.63304901123, 21.3785495758057 ], [ -101.660797119140994, 21.390649795532301 ], [ -101.665496826172003, 21.402259826660199 ], [ -101.640419006347997, 21.474571228027301 ], [ -101.670379638672003, 21.482551574706999 ], [ -101.608161926269005, 21.694061279296999 ], [ -101.613639831542997, 21.718189239502099 ], [ -101.565391540527003, 21.768310546875 ], [ -101.589027404785, 21.783607482910199 ], [ -101.595947265625, 21.797010421753001 ], [ -101.550888061522997, 21.8448181152344 ], [ -101.508583068847997, 21.8215007781982 ], [ -101.498016357422003, 21.823419570923001 ], [ -101.476249694824006, 21.856689453125099 ], [ -101.435417175292997, 21.832710266113398 ], [ -101.4013671875, 21.832668304443398 ], [ -101.404266357422003, 21.792850494384801 ], [ -101.421310424805, 21.775699615478601 ], [ -101.485061645507997, 21.784439086914201 ], [ -101.482429504395, 21.773500442504901 ], [ -101.453025817870994, 21.765130996704102 ], [ -101.452827453612997, 21.758750915527301 ], [ -101.474899291992003, 21.7228908538818 ], [ -101.48526763916, 21.675880432128999 ], [ -101.480186462402003, 21.665399551391701 ], [ -101.46028137207, 21.670919418335099 ], [ -101.443206787109006, 21.6561298370362 ], [ -101.418197631835994, 21.655969619750898 ], [ -101.402397155762003, 21.602640151977599 ], [ -101.412391662597997, 21.575910568237401 ], [ -101.402191162109006, 21.563400268554801 ], [ -101.367080688477003, 21.539779663085898 ], [ -101.334197998047003, 21.547880172729599 ], [ -101.301727294922003, 21.530889511108501 ], [ -101.305099487305, 21.510339736938501 ], [ -101.36206817627, 21.456729888916001 ], [ -101.323219299315994, 21.4456901550293 ], [ -101.313316345215, 21.428379058837901 ], [ -101.31664276123, 21.411020278930799 ], [ -101.372596740722997, 21.390510559082099 ], [ -101.422836303710994, 21.384649276733299 ], [ -101.453628540039006, 21.361061096191399 ], [ -101.461166381835994, 21.368339538574201 ], [ -101.447326660155994, 21.384361267089801 ], [ -101.44921875, 21.394849777221701 ], [ -101.485191345215, 21.365550994873001 ], [ -101.54402923584, 21.3572101593018 ], [ -101.576995849609006, 21.336162567138601 ], [ -101.628929138184006, 21.338159561157301 ], [ -101.646667480469006, 21.349380493164201 ] ] ] } },
{ "type": "Feature", "properties": { "NAME_1": "Guanajuato", "NAME_2": "Pénjamo" }, "geometry": { "type": "Polygon", "coordinates": [ [ [ -101.644462585449006, 20.292860031128001 ], [ -101.68335723877, 20.227729797363299 ], [ -101.720390319824006, 20.1921901702881 ], [ -101.751686096190994, 20.2028827667237 ], [ -101.844802856445, 20.197982788085898 ], [ -101.863952636719006, 20.214481353759801 ], [ -101.911056518555, 20.187641143798899 ], [ -101.940330505370994, 20.188592910766701 ], [ -101.96272277832, 20.2110710144043 ], [ -101.974342346190994, 20.290309906006001 ], [ -101.989143371582003, 20.309650421142599 ], [ -101.97444152832, 20.332981109619201 ], [ -102.004356384277003, 20.3501911163331 ], [ -102.025520324707003, 20.340631484985501 ], [ -102.031227111815994, 20.3231697082519 ], [ -102.039710998535, 20.344650268554702 ], [ -102.028038024902003, 20.382991790771499 ], [ -102.066040039062003, 20.3691310882569 ], [ -102.055839538574006, 20.399362564086999 ], [ -102.054862976074006, 20.4634609222412 ], [ -102.023696899414006, 20.514570236206101 ], [ -102.002807617187003, 20.5709018707275 ], [ -101.992546081542997, 20.5796909332275 ], [ -101.997291564940994, 20.511869430541999 ], [ -101.99169921875, 20.498720169067401 ], [ -101.971443176269005, 20.4964599609375 ], [ -101.866142272949006, 20.5135803222657 ], [ -101.820320129395, 20.564010620117202 ], [ -101.783142089844006, 20.5802707672119 ], [ -101.766456604004006, 20.601520538330099 ], [ -101.733047485352003, 20.5896511077882 ], [ -101.705551147460994, 20.565679550170898 ], [ -101.702438354492003, 20.5503826141357 ], [ -101.711082458495994, 20.5234107971193 ], [ -101.706008911132997, 20.507190704345799 ], [ -101.654479980469006, 20.514570236206101 ], [ -101.645706176757997, 20.510700225830099 ], [ -101.639457702637003, 20.488090515136701 ], [ -101.630882263184006, 20.497238159179702 ], [ -101.626518249512003, 20.492221832275401 ], [ -101.64037322998, 20.4398708343506 ], [ -101.641761779785, 20.388900756835898 ], [ -101.667037963867003, 20.336521148681602 ], [ -101.662933349609006, 20.326700210571399 ], [ -101.646362304687997, 20.3226127624512 ], [ -101.653732299805, 20.303159713745199 ], [ -101.644462585449006, 20.292860031128001 ] ] ] } },
{ "type": "Feature", "properties": { "NAME_1": "Guanajuato", "NAME_2": "Pueblo Nuevo" }, "geometry": { "type": "Polygon", "coordinates": [ [ [ -101.306091308594006, 20.547290802001999 ], [ -101.33716583252, 20.530492782592901 ], [ -101.365173339844006, 20.534969329833999 ], [ -101.389862060547003, 20.518440246581999 ], [ -101.396331787109006, 20.494430541992202 ], [ -101.415626525879006, 20.5306892395019 ], [ -101.39289855957, 20.5431003570557 ], [ -101.384925842285, 20.573520660400401 ], [ -101.358543395995994, 20.5843410491943 ], [ -101.329566955565994, 20.578720092773398 ], [ -101.291938781737997, 20.586910247802798 ], [ -101.293487548827997, 20.564271926879901 ], [ -101.306091308594006, 20.547290802001999 ] ] ] } },
{ "type": "Feature", "properties": { "NAME_1": "Guanajuato", "NAME_2": "Purísima del Rincón" }, "geometry": { "type": "Polygon", "coordinates": [ [ [ -102.106506347655994, 20.7258701324463 ], [ -102.124008178710994, 20.7417602539062 ], [ -102.133987426757997, 20.770811080932699 ], [ -102.075042724609006, 20.816921234131001 ], [ -102.046600341797003, 20.854120254516499 ], [ -102.045036315917997, 20.880790710449201 ], [ -102.001350402832003, 20.9085712432862 ], [ -101.958480834960994, 20.954460144043001 ], [ -101.931640625, 21.030441284179702 ], [ -101.891456604004006, 21.0907306671143 ], [ -101.842567443847997, 21.1214809417725 ], [ -101.81706237793, 21.0865802764894 ], [ -101.812812805175994, 21.055610656738299 ], [ -101.82723236084, 21.011280059814599 ], [ -101.850479125977003, 21.013370513916101 ], [ -101.865859985352003, 21.0248508453369 ], [ -101.890159606934006, 21.0111408233643 ], [ -101.893890380859006, 20.997650146484499 ], [ -101.881607055664006, 20.952440261840898 ], [ -101.891616821289006, 20.902179718017699 ], [ -101.913108825684006, 20.8531608581544 ], [ -101.914512634277003, 20.806180953979499 ], [ -101.947868347167997, 20.7818298339844 ], [ -101.959266662597997, 20.810632705688398 ], [ -101.992782592772997, 20.8130798339844 ], [ -102.015830993652003, 20.794252395629901 ], [ -102.037857055664006, 20.788619995117301 ], [ -102.048439025879006, 20.769741058349599 ], [ -102.068511962890994, 20.762760162353601 ], [ -102.072731018065994, 20.741949081421001 ], [ -102.065483093262003, 20.714540481567401 ], [ -102.106506347655994, 20.7258701324463 ] ] ] } },
{ "type": "Feature", "properties": { "NAME_1": "Guanajuato", "NAME_2": "Romita" }, "geometry": { "type": "Polygon", "coordinates": [ [ [ -101.621360778809006, 20.712661743164102 ], [ -101.63362121582, 20.7035102844238 ], [ -101.646011352539006, 20.667631149292099 ], [ -101.671356201172003, 20.679700851440401 ], [ -101.682952880859006, 20.654560089111399 ], [ -101.694671630859006, 20.655239105224599 ], [ -101.703407287597997, 20.666650772094702 ], [ -101.702331542969006, 20.6892604827881 ], [ -101.719596862792997, 20.707290649414102 ], [ -101.706619262695, 20.7168903350831 ], [ -101.704696655272997, 20.7582302093507 ], [ -101.727783203125, 20.839269638061602 ], [ -101.725952148437003, 20.861879348754901 ], [ -101.692588806152003, 20.882892608642599 ], [ -101.67569732666, 20.930152893066499 ], [ -101.659973144530994, 20.943861007690401 ], [ -101.616256713867003, 20.932050704956101 ], [ -101.605712890625, 20.937089920043899 ], [ -101.599166870117003, 20.9256896972657 ], [ -101.569862365722997, 20.920272827148398 ], [ -101.557060241699006, 20.894510269165199 ], [ -101.519149780272997, 20.900529861450199 ], [ -101.502822875977003, 20.853788375854599 ], [ -101.506362915039006, 20.8332328796387 ], [ -101.49178314209, 20.822320938110401 ], [ -101.500610351562003, 20.7752704620362 ], [ -101.514762878417997, 20.778430938720799 ], [ -101.535842895507997, 20.766040802002099 ], [ -101.593559265137003, 20.797880172729499 ], [ -101.609138488769005, 20.760402679443398 ], [ -101.62190246582, 20.749200820923001 ], [ -101.621360778809006, 20.712661743164102 ] ] ] } },
{ "type": "Feature", "properties": { "NAME_1": "Guanajuato", "NAME_2": "Salamanca" }, "geometry": { "type": "Polygon", "coordinates": [ [ [ -101.060012817382997, 20.567070007324201 ], [ -101.058578491210994, 20.5488300323487 ], [ -101.074371337890994, 20.539100646972699 ], [ -101.098960876465, 20.550880432128999 ], [ -101.112297058105, 20.546480178833001 ], [ -101.104843139647997, 20.510770797729499 ], [ -101.04736328125, 20.484920501708999 ], [ -101.05687713623, 20.4497394561769 ], [ -101.078025817870994, 20.446491241455099 ], [ -101.097396850585994, 20.429599761962798 ], [ -101.110076904297003, 20.4505805969238 ], [ -101.133262634277003, 20.4569606781006 ], [ -101.137756347655994, 20.470130920410099 ], [ -101.16056060791, 20.434289932251101 ], [ -101.205757141112997, 20.4155082702637 ], [ -101.26732635498, 20.442680358886701 ], [ -101.257987976074006, 20.477741241455099 ], [ -101.272476196289006, 20.496110916137599 ], [ -101.257827758789006, 20.505388259887798 ], [ -101.291831970215, 20.512420654296999 ], [ -101.306091308594006, 20.547290802001999 ], [ -101.293487548827997, 20.564271926879901 ], [ -101.292617797852003, 20.586669921874901 ], [ -101.276069641112997, 20.593410491943501 ], [ -101.263290405272997, 20.6220798492432 ], [ -101.271865844727003, 20.6343307495118 ], [ -101.304832458495994, 20.6338806152344 ], [ -101.303962707519005, 20.653070449829201 ], [ -101.26505279541, 20.728479385376001 ], [ -101.246612548827997, 20.7419109344482 ], [ -101.208419799805, 20.8128986358644 ], [ -101.199195861815994, 20.8390502929688 ], [ -101.203659057617003, 20.8449211120606 ], [ -101.104797363280994, 20.8815212249756 ], [ -101.099586486815994, 20.893028259277301 ], [ -101.061866760254006, 20.8863201141357 ], [ -101.042602539062003, 20.8714809417725 ], [ -101.054733276367003, 20.805498123168899 ], [ -101.091506958007997, 20.7745475769044 ], [ -101.09342956543, 20.7580795288087 ], [ -101.111763000487997, 20.735099792480501 ], [ -101.142486572265994, 20.7169303894044 ], [ -101.13720703125, 20.707210540771499 ], [ -101.11759185791, 20.707128524780401 ], [ -101.131706237792997, 20.692020416259901 ], [ -101.125679016112997, 20.682090759277301 ], [ -101.107002258300994, 20.686349868774499 ], [ -101.09935760498, 20.680799484253001 ], [ -101.085517883300994, 20.642290115356499 ], [ -101.086669921875, 20.624679565429702 ], [ -101.068481445312003, 20.6125297546387 ], [ -101.060012817382997, 20.567070007324201 ] ] ] } },
{ "type": "Feature", "properties": { "NAME_1": "Guanajuato", "NAME_2": "Salvatierra" }, "geometry": { "type": "Polygon", "coordinates": [ [ [ -101.011543273925994, 19.982469558715799 ], [ -101.025993347167997, 20.0656929016113 ], [ -101.008346557617003, 20.097381591796999 ], [ -100.958023071289006, 20.096429824829201 ], [ -100.915962219237997, 20.121641159057599 ], [ -100.902412414550994, 20.174940109253001 ], [ -100.918701171875, 20.174829483032301 ], [ -100.96671295166, 20.2011108398438 ], [ -100.999542236327997, 20.200332641601602 ], [ -101.013526916504006, 20.214330673217798 ], [ -101.038558959960994, 20.196710586547901 ], [ -101.056655883789006, 20.198989868164102 ], [ -101.083869934082003, 20.222570419311499 ], [ -101.094146728515994, 20.217990875244201 ], [ -101.101066589355, 20.221500396728501 ], [ -101.079376220702997, 20.236129760742202 ], [ -101.101287841797003, 20.2605590820312 ], [ -101.023277282715, 20.243091583251999 ], [ -100.997833251952997, 20.250909805297901 ], [ -100.985427856445, 20.264999389648501 ], [ -100.987663269042997, 20.311109542846701 ], [ -100.966590881347997, 20.327289581298899 ], [ -100.962753295897997, 20.349809646606602 ], [ -100.951606750487997, 20.354732513427798 ], [ -100.931228637695, 20.334608078003001 ], [ -100.866088867187997, 20.3194293975831 ], [ -100.878852844237997, 20.289382934570401 ], [ -100.87126159668, 20.277549743652301 ], [ -100.829879760742003, 20.2978496551513 ], [ -100.824676513672003, 20.254470825195298 ], [ -100.82982635498, 20.213731765747099 ], [ -100.810592651367003, 20.2086601257325 ], [ -100.787406921387003, 20.149419784546001 ], [ -100.807716369629006, 20.137569427490298 ], [ -100.855133056640994, 20.1428527832031 ], [ -100.860069274902003, 20.087680816650401 ], [ -100.870719909667997, 20.078210830688398 ], [ -100.885688781737997, 20.0372009277344 ], [ -100.948928833007997, 20.016660690307699 ], [ -101.001541137695, 19.977760314941499 ], [ -101.008346557617003, 19.9751701354981 ], [ -101.011543273925994, 19.982469558715799 ] ] ] } },
{ "type": "Feature", "properties": { "NAME_1": "Guanajuato", "NAME_2": "San Diego de la Unión" }, "geometry": { "type": "Polygon", "coordinates": [ [ [ -100.72038269043, 21.5505104064943 ], [ -100.724533081055, 21.539730072021499 ], [ -100.7080078125, 21.4132480621338 ], [ -100.690742492675994, 21.401159286499102 ], [ -100.665817260742003, 21.412189483642599 ], [ -100.634368896484006, 21.405290603637798 ], [ -100.620666503905994, 21.3826694488525 ], [ -100.623512268065994, 21.344110488891701 ], [ -100.689117431640994, 21.307268142700298 ], [ -100.702507019042997, 21.333320617675799 ], [ -100.737258911132997, 21.361150741577301 ], [ -100.743057250977003, 21.3496799468994 ], [ -100.727630615234006, 21.299272537231602 ], [ -100.767852783202997, 21.268899917602599 ], [ -100.781181335449006, 21.274431228637798 ], [ -100.799476623535, 21.3083896636963 ], [ -100.827239990234006, 21.311470031738299 ], [ -100.861183166504006, 21.343561172485401 ], [ -100.912300109862997, 21.306970596313501 ], [ -100.945541381835994, 21.3336200714112 ], [ -100.963912963867003, 21.329250335693501 ], [ -100.969520568847997, 21.309730529785298 ], [ -101.006141662597997, 21.315191268921001 ], [ -101.024757385254006, 21.3101806640625 ], [ -101.028587341309006, 21.340419769287099 ], [ -101.043548583984006, 21.344430923461999 ], [ -101.054962158202997, 21.3362007141113 ], [ -101.060386657715, 21.302120208740298 ], [ -101.07218170166, 21.308029174804599 ], [ -101.087013244629006, 21.3460426330568 ], [ -101.07080078125, 21.352518081665 ], [ -101.069770812987997, 21.383790969848601 ], [ -101.090263366699006, 21.421930313110501 ], [ -101.053657531737997, 21.438619613647599 ], [ -100.973670959472997, 21.5295505523682 ], [ -100.95630645752, 21.5611896514893 ], [ -100.973075866699006, 21.573310852050898 ], [ -100.971977233887003, 21.586999893188501 ], [ -100.898941040039006, 21.633712768554702 ], [ -100.890068054199006, 21.663600921631001 ], [ -100.799713134765994, 21.595409393310501 ], [ -100.72038269043, 21.5505104064943 ] ] ] } },
{ "type": "Feature", "properties": { "NAME_1": "Guanajuato", "NAME_2": "San Felipe" }, "geometry": { "type": "Polygon", "coordinates": [ [ [ -101.173843383789006, 21.210758209228601 ], [ -101.202766418457003, 21.211729049682699 ], [ -101.242378234862997, 21.2274703979493 ], [ -101.237106323242003, 21.200849533081101 ], [ -101.2451171875, 21.194379806518601 ], [ -101.246551513672003, 21.171340942382901 ], [ -101.278656005859006, 21.181779861450298 ], [ -101.290519714355, 21.178050994873001 ], [ -101.324516296387003, 21.156000137329201 ], [ -101.352188110352003, 21.148820877075199 ], [ -101.367256164550994, 21.128700256347798 ], [ -101.434257507324006, 21.0926609039307 ], [ -101.440116882324006, 21.127540588378999 ], [ -101.468399047852003, 21.141820907592901 ], [ -101.495277404785, 21.144720077514599 ], [ -101.501518249512003, 21.163179397583001 ], [ -101.549850463867003, 21.183589935302699 ], [ -101.560890197754006, 21.179460525512798 ], [ -101.570556640625, 21.1605110168457 ], [ -101.606628417969006, 21.1869106292725 ], [ -101.624572753905994, 21.2151699066163 ], [ -101.609260559082003, 21.234798431396499 ], [ -101.618125915527003, 21.263980865478601 ], [ -101.615020751952997, 21.2906799316406 ], [ -101.63005065918, 21.278570175171001 ], [ -101.642700195312003, 21.293411254882901 ], [ -101.658462524414006, 21.279239654541101 ], [ -101.670150756835994, 21.291570663452099 ], [ -101.677001953125, 21.313369750976499 ], [ -101.646667480469006, 21.349380493164201 ], [ -101.628929138184006, 21.338159561157301 ], [ -101.576995849609006, 21.336162567138601 ], [ -101.54402923584, 21.3572101593018 ], [ -101.485191345215, 21.365550994873001 ], [ -101.44921875, 21.394849777221701 ], [ -101.447326660155994, 21.384361267089801 ], [ -101.461166381835994, 21.368339538574201 ], [ -101.453628540039006, 21.361061096191399 ], [ -101.422836303710994, 21.384649276733299 ], [ -101.372596740722997, 21.390510559082099 ], [ -101.313911437987997, 21.416509628295799 ], [ -101.326141357422003, 21.448421478271499 ], [ -101.36206817627, 21.456729888916001 ], [ -101.305099487305, 21.510339736938501 ], [ -101.301727294922003, 21.530889511108501 ], [ -101.334197998047003, 21.547880172729599 ], [ -101.367080688477003, 21.539779663085898 ], [ -101.402191162109006, 21.563400268554801 ], [ -101.412391662597997, 21.575910568237401 ], [ -101.402397155762003, 21.602640151977599 ], [ -101.418197631835994, 21.655969619750898 ], [ -101.443206787109006, 21.6561298370362 ], [ -101.46028137207, 21.670919418335099 ], [ -101.480186462402003, 21.665399551391701 ], [ -101.48526763916, 21.675880432128999 ], [ -101.474899291992003, 21.7228908538818 ], [ -101.452827453612997, 21.758750915527301 ], [ -101.453025817870994, 21.765130996704102 ], [ -101.482429504395, 21.773500442504901 ], [ -101.485061645507997, 21.784439086914201 ], [ -101.421310424805, 21.775699615478601 ], [ -101.404266357422003, 21.792850494384801 ], [ -101.4013671875, 21.832668304443398 ], [ -101.323471069335994, 21.822980880737301 ], [ -101.263313293457003, 21.792970657348601 ], [ -101.152770996094006, 21.762620925903299 ], [ -101.066047668457003, 21.750101089477599 ], [ -101.025802612305, 21.724292755127099 ], [ -100.978118896484006, 21.7252311706544 ], [ -100.890068054199006, 21.663600921631001 ], [ -100.898941040039006, 21.633712768554702 ], [ -100.971977233887003, 21.586999893188501 ], [ -100.973075866699006, 21.573310852050898 ], [ -100.95630645752, 21.5611896514893 ], [ -100.973670959472997, 21.5295505523682 ], [ -101.053657531737997, 21.438619613647599 ], [ -101.090263366699006, 21.421930313110501 ], [ -101.069770812987997, 21.383790969848601 ], [ -101.07080078125, 21.352518081665 ], [ -101.087013244629006, 21.3460426330568 ], [ -101.074211120605, 21.3111801147462 ], [ -101.060386657715, 21.302120208740298 ], [ -101.065628051757997, 21.290399551391602 ], [ -101.086326599120994, 21.272672653198399 ], [ -101.104278564452997, 21.269130706787202 ], [ -101.144172668457003, 21.2800617218018 ], [ -101.15315246582, 21.267152786254901 ], [ -101.146842956542997, 21.23397064209 ], [ -101.173843383789006, 21.210758209228601 ] ] ] } },
{ "type": "Feature", "properties": { "NAME_1": "Guanajuato", "NAME_2": "San Francisco del Rincón" }, "geometry": { "type": "Polygon", "coordinates": [ [ [ -101.71053314209, 20.766670227050898 ], [ -101.739372253417997, 20.765970230102699 ], [ -101.773216247559006, 20.740169525146499 ], [ -101.790542602539006, 20.747459411621001 ], [ -101.807426452637003, 20.743770599365199 ], [ -101.792381286620994, 20.773019790649499 ], [ -101.823440551757997, 20.773139953613299 ], [ -101.884376525879006, 20.819940567016701 ], [ -101.911056518555, 20.813289642333999 ], [ -101.913108825684006, 20.8531608581544 ], [ -101.891616821289006, 20.902179718017699 ], [ -101.881607055664006, 20.952440261840898 ], [ -101.893890380859006, 20.997650146484499 ], [ -101.883270263672003, 21.0182781219482 ], [ -101.865859985352003, 21.0248508453369 ], [ -101.840698242187003, 21.010490417480501 ], [ -101.811561584472997, 21.012292861938501 ], [ -101.753692626952997, 21.030759811401399 ], [ -101.760757446289006, 20.991050720214801 ], [ -101.732063293457003, 21.002710342407202 ], [ -101.705986022949006, 20.981941223144599 ], [ -101.705856323242003, 20.961179733276499 ], [ -101.743026733397997, 20.963228225708001 ], [ -101.74870300293, 20.956609725952301 ], [ -101.725646972655994, 20.871690750122099 ], [ -101.727783203125, 20.839269638061602 ], [ -101.71053314209, 20.766670227050898 ] ] ] } },
{ "type": "Feature", "properties": { "NAME_1": "Guanajuato", "NAME_2": "San José Iturbide" }, "geometry": { "type": "Polygon", "coordinates": [ [ [ -100.28727722168, 20.937570571899499 ], [ -100.346168518065994, 20.911390304565501 ], [ -100.400787353515994, 20.916549682617202 ], [ -100.430335998535, 20.902778625488299 ], [ -100.457382202147997, 20.9150905609131 ], [ -100.52033996582, 20.9044494628906 ], [ -100.539840698242003, 20.9227104187012 ], [ -100.568519592285, 20.933122634887699 ], [ -100.543266296387003, 20.9810504913331 ], [ -100.554962158202997, 21.005090713501001 ], [ -100.550315856934006, 21.023609161376999 ], [ -100.563842773437997, 21.0638408660888 ], [ -100.541297912597997, 21.059999465942401 ], [ -100.534156799315994, 21.081541061401499 ], [ -100.523468017577997, 21.082349777221701 ], [ -100.397346496582003, 21.0879211425781 ], [ -100.363426208495994, 21.078250885009901 ], [ -100.351860046387003, 21.0950412750244 ], [ -100.342163085937003, 21.0967407226562 ], [ -100.322082519530994, 21.085620880126999 ], [ -100.322280883789006, 21.047410964965898 ], [ -100.312370300292997, 21.046380996703999 ], [ -100.298545837402003, 21.063421249389801 ], [ -100.291893005370994, 21.0589294433593 ], [ -100.313423156737997, 21.014850616455099 ], [ -100.295143127440994, 20.981460571289201 ], [ -100.28727722168, 20.937570571899499 ] ] ] } },
{ "type": "Feature", "properties": { "NAME_1": "Guanajuato", "NAME_2": "San Luis de la Paz" }, "geometry": { "type": "Polygon", "coordinates": [ [ [ -100.767852783202997, 21.268899917602599 ], [ -100.727630615234006, 21.299272537231602 ], [ -100.743057250977003, 21.3496799468994 ], [ -100.737258911132997, 21.361150741577301 ], [ -100.702507019042997, 21.333320617675799 ], [ -100.689117431640994, 21.307268142700298 ], [ -100.618499755859006, 21.349418640136701 ], [ -100.620666503905994, 21.3826694488525 ], [ -100.634368896484006, 21.405290603637798 ], [ -100.665817260742003, 21.412189483642599 ], [ -100.690742492675994, 21.401159286499102 ], [ -100.7080078125, 21.4132480621338 ], [ -100.724533081055, 21.539730072021499 ], [ -100.72038269043, 21.5505104064943 ], [ -100.67798614502, 21.534570693969801 ], [ -100.640968322754006, 21.533269882202099 ], [ -100.568656921387003, 21.535419464111399 ], [ -100.515975952147997, 21.552640914917099 ], [ -100.506050109862997, 21.569919586181701 ], [ -100.513496398925994, 21.600521087646399 ], [ -100.490898132324006, 21.645830154419102 ], [ -100.488906860352003, 21.6686305999757 ], [ -100.452117919922003, 21.696231842041101 ], [ -100.35563659668, 21.671949386596701 ], [ -100.306182861327997, 21.6473999023438 ], [ -100.290412902832003, 21.648199081421001 ], [ -100.221626281737997, 21.607000350952301 ], [ -100.233596801757997, 21.578250885009801 ], [ -100.227058410644005, 21.536172866821399 ], [ -100.258682250977003, 21.5283012390137 ], [ -100.291961669922003, 21.452030181884801 ], [ -100.308227539062003, 21.465520858764599 ], [ -100.334007263184006, 21.445850372314499 ], [ -100.358116149902003, 21.367151260376101 ], [ -100.374626159667997, 21.3548698425293 ], [ -100.37850189209, 21.314920425415199 ], [ -100.3671875, 21.303422927856499 ], [ -100.384971618652003, 21.2870292663575 ], [ -100.382041931152003, 21.2571811676025 ], [ -100.401832580565994, 21.214292526245199 ], [ -100.451393127440994, 21.196830749511701 ], [ -100.472045898437997, 21.1655597686769 ], [ -100.5068359375, 21.1863708496094 ], [ -100.56241607666, 21.162660598754901 ], [ -100.587738037109006, 21.161899566650401 ], [ -100.580963134765994, 21.142360687256001 ], [ -100.554481506347997, 21.1356105804443 ], [ -100.560638427734006, 21.114080429077202 ], [ -100.542129516602003, 21.103349685668999 ], [ -100.534156799315994, 21.081541061401499 ], [ -100.541297912597997, 21.059999465942401 ], [ -100.602226257324006, 21.0702304840087 ], [ -100.661308288574006, 21.064100265503001 ], [ -100.695098876952997, 21.0849094390869 ], [ -100.688667297362997, 21.1095905303956 ], [ -100.705062866210994, 21.1351509094238 ], [ -100.665435791015994, 21.155921936035199 ], [ -100.663597106934006, 21.165750503540199 ], [ -100.680068969727003, 21.182428359985401 ], [ -100.70987701416, 21.177730560302798 ], [ -100.721176147460994, 21.216579437255898 ], [ -100.765281677245994, 21.2499980926513 ], [ -100.767852783202997, 21.268899917602599 ] ] ] } },
{ "type": "Feature", "properties": { "NAME_1": "Guanajuato", "NAME_2": "Santa Catarina" }, "geometry": { "type": "Polygon", "coordinates": [ [ [ -100.009117126465, 21.192449569702099 ], [ -100.055152893065994, 21.1142597198487 ], [ -100.086982727050994, 21.0767307281494 ], [ -100.090476989745994, 21.059310913085898 ], [ -100.118850708007997, 21.0345993041993 ], [ -100.136672973632997, 21.065282821655298 ], [ -100.133476257324006, 21.0860900878907 ], [ -100.172561645507997, 21.148742675781399 ], [ -100.127853393555, 21.224979400634801 ], [ -100.090927124022997, 21.239480972290099 ], [ -100.078742980957003, 21.218830108642699 ], [ -100.044647216797003, 21.225072860717798 ], [ -100.03914642334, 21.2050285339356 ], [ -100.009117126465, 21.192449569702099 ] ] ] } },
{ "type": "Feature", "properties": { "NAME_1": "Guanajuato", "NAME_2": "Santa Cruz de Juventino Rosas" }, "geometry": { "type": "Polygon", "coordinates": [ [ [ -101.057098388672003, 20.799970626831101 ], [ -101.041526794434006, 20.770441055297901 ], [ -100.981590270995994, 20.759950637817401 ], [ -100.977096557617003, 20.732240676879801 ], [ -100.989921569824006, 20.701530456543001 ], [ -100.960258483887003, 20.7010307312012 ], [ -100.954193115234006, 20.650560379028398 ], [ -100.932792663574006, 20.635030746460099 ], [ -100.924758911132997, 20.617261886596701 ], [ -100.959396362305, 20.576681137085099 ], [ -101.007148742675994, 20.604959487915099 ], [ -101.017807006835994, 20.599870681762599 ], [ -101.030838012695, 20.571899414062599 ], [ -101.060012817382997, 20.567070007324201 ], [ -101.068481445312003, 20.6125297546387 ], [ -101.086669921875, 20.624679565429702 ], [ -101.085517883300994, 20.642290115356499 ], [ -101.09935760498, 20.680799484253001 ], [ -101.107002258300994, 20.686349868774499 ], [ -101.125679016112997, 20.682090759277301 ], [ -101.131706237792997, 20.692020416259901 ], [ -101.11759185791, 20.707128524780401 ], [ -101.141746520995994, 20.7121505737306 ], [ -101.138122558594006, 20.723171234130898 ], [ -101.107391357422003, 20.740209579467798 ], [ -101.082443237305, 20.785020828247202 ], [ -101.057098388672003, 20.799970626831101 ] ] ] } },
{ "type": "Feature", "properties": { "NAME_1": "Guanajuato", "NAME_2": "Santiago Maravatío" }, "geometry": { "type": "Polygon", "coordinates": [ [ [ -101.008346557617003, 20.097381591796999 ], [ -101.028472900390994, 20.1237907409669 ], [ -101.032257080077997, 20.162122726440501 ], [ -101.010375976562003, 20.204360961914102 ], [ -100.96671295166, 20.2011108398438 ], [ -100.918701171875, 20.174829483032301 ], [ -100.902412414550994, 20.174940109253001 ], [ -100.915962219237997, 20.121641159057599 ], [ -100.958023071289006, 20.096429824829201 ], [ -101.008346557617003, 20.097381591796999 ] ] ] } },
{ "type": "Feature", "properties": { "NAME_1": "Guanajuato", "NAME_2": "Silao" }, "geometry": { "type": "Polygon", "coordinates": [ [ [ -101.605712890625, 20.937089920043899 ], [ -101.598075866699006, 20.945779800415099 ], [ -101.601860046387003, 20.966770172119102 ], [ -101.636512756347997, 20.9831428527832 ], [ -101.62671661377, 21.023551940918001 ], [ -101.591491699219006, 21.022920608520501 ], [ -101.560256958007997, 21.0104293823243 ], [ -101.542297363280994, 21.027811050415099 ], [ -101.481796264647997, 21.0423297882081 ], [ -101.482376098632997, 21.065830230713001 ], [ -101.441017150879006, 21.070510864257901 ], [ -101.418823242187997, 21.063289642333999 ], [ -101.40258026123, 21.078388214111399 ], [ -101.360206604004006, 20.990930557251001 ], [ -101.346992492675994, 20.9286918640138 ], [ -101.348808288574006, 20.878700256347699 ], [ -101.366760253905994, 20.861749649047798 ], [ -101.353256225585994, 20.836000442504801 ], [ -101.37166595459, 20.820869445800898 ], [ -101.436447143555, 20.842798233032301 ], [ -101.429618835449006, 20.804700851440501 ], [ -101.44799041748, 20.7952785491943 ], [ -101.462142944335994, 20.797290802002099 ], [ -101.506362915039006, 20.8332328796387 ], [ -101.502822875977003, 20.853788375854599 ], [ -101.519149780272997, 20.900529861450199 ], [ -101.557060241699006, 20.894510269165199 ], [ -101.569862365722997, 20.920272827148398 ], [ -101.599166870117003, 20.9256896972657 ], [ -101.605712890625, 20.937089920043899 ] ] ] } },
{ "type": "Feature", "properties": { "NAME_1": "Guanajuato", "NAME_2": "Tarandacuao" }, "geometry": { "type": "Polygon", "coordinates": [ [ [ -100.595512390137003, 19.962589263916101 ], [ -100.634437561035, 19.959842681884801 ], [ -100.635627746582003, 19.971290588378999 ], [ -100.615966796875, 19.998928070068398 ], [ -100.589241027832003, 20.012100219726602 ], [ -100.603782653809006, 20.0531406402588 ], [ -100.591133117675994, 20.0416698455812 ], [ -100.58625793457, 20.051050186157301 ], [ -100.577156066894005, 20.047349929809599 ], [ -100.567626953125, 20.0553398132325 ], [ -100.58634185791, 20.060670852661101 ], [ -100.568916320800994, 20.066339492798001 ], [ -100.576477050780994, 20.073230743408299 ], [ -100.564979553222997, 20.079841613769599 ], [ -100.515716552734006, 20.069900512695401 ], [ -100.512870788574006, 20.041049957275501 ], [ -100.503540039062003, 20.02645111084 ], [ -100.468231201172003, 20.0053615570069 ], [ -100.506286621094006, 19.972000122070401 ], [ -100.534446716309006, 19.909509658813501 ], [ -100.548316955565994, 19.9109191894531 ], [ -100.552589416504006, 19.923000335693299 ], [ -100.536766052245994, 19.977521896362401 ], [ -100.560287475585994, 19.977630615234499 ], [ -100.595512390137003, 19.962589263916101 ] ] ] } },
{ "type": "Feature", "properties": { "NAME_1": "Guanajuato", "NAME_2": "Tarimoro" }, "geometry": { "type": "Polygon", "coordinates": [ [ [ -100.621887207030994, 20.165042877197202 ], [ -100.731246948242003, 20.157470703125099 ], [ -100.756523132324006, 20.147640228271602 ], [ -100.771797180175994, 20.156192779541101 ], [ -100.787406921387003, 20.149419784546001 ], [ -100.810592651367003, 20.2086601257325 ], [ -100.82982635498, 20.213731765747099 ], [ -100.829360961914006, 20.303108215331999 ], [ -100.812019348145, 20.308988571166999 ], [ -100.802017211914006, 20.32737159729 ], [ -100.774040222167997, 20.333820343017699 ], [ -100.764289855957003, 20.3508205413819 ], [ -100.748420715332003, 20.3580627441407 ], [ -100.712882995605, 20.420789718628001 ], [ -100.68522644043, 20.4457397460938 ], [ -100.662376403809006, 20.421049118042099 ], [ -100.650932312012003, 20.394872665405401 ], [ -100.624969482422003, 20.388942718506001 ], [ -100.632713317870994, 20.3790397644044 ], [ -100.622016906737997, 20.348510742187599 ], [ -100.593856811522997, 20.3396110534668 ], [ -100.627258300780994, 20.304319381713999 ], [ -100.622451782227003, 20.283779144287202 ], [ -100.604942321777003, 20.271118164062599 ], [ -100.601860046387003, 20.2491893768312 ], [ -100.60897064209, 20.218240737915 ], [ -100.604888916015994, 20.196529388427699 ], [ -100.612342834472997, 20.1928100585938 ], [ -100.629341125487997, 20.204799652099702 ], [ -100.633338928222997, 20.198129653930799 ], [ -100.621887207030994, 20.165042877197202 ] ] ] } },
{ "type": "Feature", "properties": { "NAME_1": "Guanajuato", "NAME_2": "Tierra Blanca" }, "geometry": { "type": "Polygon", "coordinates": [ [ [ -100.082801818847997, 21.033460617065501 ], [ -100.107482910155994, 20.963760375976602 ], [ -100.117416381835994, 20.961990356445401 ], [ -100.142242431640994, 20.980079650878999 ], [ -100.150932312012003, 20.9765129089356 ], [ -100.15495300293, 20.9325695037843 ], [ -100.184272766112997, 20.9238395690918 ], [ -100.25154876709, 20.939132690429801 ], [ -100.28727722168, 20.937570571899499 ], [ -100.295143127440994, 20.981460571289201 ], [ -100.313423156737997, 21.014850616455099 ], [ -100.291893005370994, 21.0589294433593 ], [ -100.298545837402003, 21.063421249389801 ], [ -100.312370300292997, 21.046380996703999 ], [ -100.322280883789006, 21.047410964965898 ], [ -100.322082519530994, 21.085620880126999 ], [ -100.312141418457003, 21.095239639282202 ], [ -100.289588928222997, 21.090919494628999 ], [ -100.294479370117003, 21.1244297027588 ], [ -100.172561645507997, 21.148742675781399 ], [ -100.133476257324006, 21.0860900878907 ], [ -100.136672973632997, 21.065282821655298 ], [ -100.124755859375, 21.040258407592798 ], [ -100.116119384765994, 21.035539627075199 ], [ -100.090476989745994, 21.059310913085898 ], [ -100.082801818847997, 21.033460617065501 ] ] ] } },
{ "type": "Feature", "properties": { "NAME_1": "Guanajuato", "NAME_2": "Uriangato" }, "geometry": { "type": "Polygon", "coordinates": [ [ [ -101.098075866699006, 20.048271179199201 ], [ -101.122512817382997, 20.043981552123999 ], [ -101.167320251465, 20.0647411346437 ], [ -101.172317504882997, 20.054090499877901 ], [ -101.195922851562003, 20.043699264526399 ], [ -101.188117980957003, 20.0283508300782 ], [ -101.210960388184006, 20.022050857543999 ], [ -101.226486206055, 20.006059646606602 ], [ -101.236183166504006, 20.009599685668899 ], [ -101.237846374512003, 20.0377407073975 ], [ -101.203247070312003, 20.0867004394532 ], [ -101.228378295897997, 20.119760513305799 ], [ -101.190521240234006, 20.134019851684599 ], [ -101.212303161620994, 20.144910812377901 ], [ -101.220909118652003, 20.180250167846701 ], [ -101.212646484375, 20.1821899414063 ], [ -101.191398620605, 20.166490554809702 ], [ -101.154067993164006, 20.16233253479 ], [ -101.168556213379006, 20.145139694213899 ], [ -101.157470703125, 20.1350402832031 ], [ -101.132247924805, 20.154970169067401 ], [ -101.123336791992003, 20.151491165161101 ], [ -101.130065917969006, 20.127790451049901 ], [ -101.09977722168, 20.0980129241943 ], [ -101.098075866699006, 20.048271179199201 ] ] ] } },
{ "type": "Feature", "properties": { "NAME_1": "Guanajuato", "NAME_2": "Valle de Santiago" }, "geometry": { "type": "Polygon", "coordinates": [ [ [ -101.401496887207003, 20.260770797729499 ], [ -101.456207275390994, 20.3088703155518 ], [ -101.478973388672003, 20.3170604705812 ], [ -101.466270446777003, 20.3273811340332 ], [ -101.452445983887003, 20.370622634887699 ], [ -101.438812255859006, 20.371578216552798 ], [ -101.425765991210994, 20.3997306823731 ], [ -101.406730651855, 20.409389495849599 ], [ -101.42546081543, 20.464401245117099 ], [ -101.398361206055, 20.4775104522706 ], [ -101.389862060547003, 20.518440246581999 ], [ -101.365173339844006, 20.534969329833999 ], [ -101.33716583252, 20.530492782592901 ], [ -101.306091308594006, 20.547290802001999 ], [ -101.291831970215, 20.512420654296999 ], [ -101.257827758789006, 20.505388259887798 ], [ -101.272476196289006, 20.496110916137599 ], [ -101.257987976074006, 20.477741241455099 ], [ -101.26732635498, 20.442680358886701 ], [ -101.23265838623, 20.432300567626999 ], [ -101.213020324707003, 20.416330337524499 ], [ -101.16056060791, 20.434289932251101 ], [ -101.137756347655994, 20.470130920410099 ], [ -101.133262634277003, 20.4569606781006 ], [ -101.110076904297003, 20.4505805969238 ], [ -101.097396850585994, 20.429599761962798 ], [ -101.095191955565994, 20.412290573120099 ], [ -101.113250732422003, 20.388130187988299 ], [ -101.109031677245994, 20.364440917968899 ], [ -101.126472473144005, 20.3508205413819 ], [ -101.130462646484006, 20.319650650024499 ], [ -101.147369384765994, 20.2953205108643 ], [ -101.148880004882997, 20.267700195312599 ], [ -101.161422729492003, 20.258829116821399 ], [ -101.197761535645, 20.264289855957099 ], [ -101.221366882324006, 20.248630523681602 ], [ -101.25089263916, 20.269100189208999 ], [ -101.313819885254006, 20.2841796875 ], [ -101.324806213379006, 20.279100418090799 ], [ -101.329498291015994, 20.264232635498001 ], [ -101.356018066405994, 20.261631011962901 ], [ -101.386001586914006, 20.241712570190501 ], [ -101.401496887207003, 20.260770797729499 ] ] ] } },
{ "type": "Feature", "properties": { "NAME_1": "Guanajuato", "NAME_2": "Victoria" }, "geometry": { "type": "Polygon", "coordinates": [ [ [ -100.172561645507997, 21.148742675781399 ], [ -100.290740966797003, 21.125610351562599 ], [ -100.302452087402003, 21.145570755004801 ], [ -100.297073364257997, 21.1632003784181 ], [ -100.301956176757997, 21.170230865478501 ], [ -100.334182739257997, 21.175350189209102 ], [ -100.358726501465, 21.204740524292099 ], [ -100.401832580565994, 21.214292526245199 ], [ -100.382041931152003, 21.2571811676025 ], [ -100.384971618652003, 21.2870292663575 ], [ -100.3671875, 21.303422927856499 ], [ -100.37850189209, 21.314920425415199 ], [ -100.374626159667997, 21.3548698425293 ], [ -100.358116149902003, 21.367151260376101 ], [ -100.334007263184006, 21.445850372314499 ], [ -100.308227539062003, 21.465520858764599 ], [ -100.291961669922003, 21.452030181884801 ], [ -100.258682250977003, 21.5283012390137 ], [ -100.227058410644005, 21.536172866821399 ], [ -100.233596801757997, 21.578250885009801 ], [ -100.221626281737997, 21.607000350952301 ], [ -100.185859680175994, 21.579048156738398 ], [ -100.164482116699006, 21.573520660400401 ], [ -100.15357208252, 21.5477504730225 ], [ -100.131942749022997, 21.548820495605501 ], [ -100.10587310791, 21.514419555664102 ], [ -100.112487792969006, 21.489509582519599 ], [ -100.149017333984006, 21.461780548095799 ], [ -100.166816711425994, 21.421691894531399 ], [ -100.14330291748, 21.414180755615199 ], [ -100.146980285645, 21.39430809021 ], [ -100.132446289062003, 21.381681442260799 ], [ -100.156410217285, 21.3707199096681 ], [ -100.164779663085994, 21.352840423583999 ], [ -100.16130065918, 21.328920364379901 ], [ -100.169448852539006, 21.308771133422901 ], [ -100.156890869140994, 21.274219512939499 ], [ -100.145576477050994, 21.1903305053712 ], [ -100.172561645507997, 21.148742675781399 ] ] ] } },
{ "type": "Feature", "properties": { "NAME_1": "Guanajuato", "NAME_2": "Villagrán" }, "geometry": { "type": "Polygon", "coordinates": [ [ [ -101.060012817382997, 20.567070007324201 ], [ -101.030838012695, 20.571899414062599 ], [ -101.017807006835994, 20.599870681762599 ], [ -101.007148742675994, 20.604959487915099 ], [ -100.966812133789006, 20.5771503448487 ], [ -100.939376831055, 20.596281051635799 ], [ -100.935173034667997, 20.576990127563398 ], [ -100.910316467285, 20.5584011077881 ], [ -100.899101257324006, 20.5364208221437 ], [ -100.910499572754006, 20.533060073852699 ], [ -100.94750213623, 20.543729782104499 ], [ -100.951858520507997, 20.519161224365298 ], [ -100.988716125487997, 20.5123405456544 ], [ -101.011093139647997, 20.4900016784669 ], [ -101.041412353515994, 20.4830207824707 ], [ -101.106101989745994, 20.514179229736399 ], [ -101.112297058105, 20.546480178833001 ], [ -101.098960876465, 20.550880432128999 ], [ -101.074371337890994, 20.539100646972699 ], [ -101.058578491210994, 20.5488300323487 ], [ -101.060012817382997, 20.567070007324201 ] ] ] } },
{ "type": "Feature", "properties": { "NAME_1": "Guanajuato", "NAME_2": "Xichú" }, "geometry": { "type": "Polygon", "coordinates": [ [ [ -100.10587310791, 21.514419555664102 ], [ -100.061172485352003, 21.468942642211999 ], [ -99.994056701660199, 21.4776000976562 ], [ -99.975158691406193, 21.4981994628906 ], [ -99.951820373535099, 21.466451644897599 ], [ -99.896156311035099, 21.4646110534669 ], [ -99.840248107910099, 21.4809799194337 ], [ -99.781570434570298, 21.5146999359132 ], [ -99.761970520019503, 21.4962882995606 ], [ -99.766296386718807, 21.419370651245099 ], [ -99.805358886718693, 21.3745307922363 ], [ -99.842437744140597, 21.375350952148398 ], [ -99.871726989745994, 21.352069854736399 ], [ -99.909278869628906, 21.347669601440401 ], [ -99.918296813964801, 21.339839935302699 ], [ -99.900917053222599, 21.2698993682862 ], [ -99.910118103027301, 21.243791580200099 ], [ -99.938667297363196, 21.222810745239201 ], [ -100.009117126465, 21.192449569702099 ], [ -100.03914642334, 21.2050285339356 ], [ -100.044647216797003, 21.225072860717798 ], [ -100.078742980957003, 21.218830108642699 ], [ -100.094650268555, 21.240129470825298 ], [ -100.121322631835994, 21.232109069824201 ], [ -100.147499084472997, 21.196479797363299 ], [ -100.156890869140994, 21.274219512939499 ], [ -100.169448852539006, 21.308771133422901 ], [ -100.16130065918, 21.328920364379901 ], [ -100.163200378417997, 21.361749649047901 ], [ -100.13240814209, 21.386249542236399 ], [ -100.146980285645, 21.39430809021 ], [ -100.14330291748, 21.414180755615199 ], [ -100.166816711425994, 21.421691894531399 ], [ -100.149017333984006, 21.461780548095799 ], [ -100.112487792969006, 21.489509582519599 ], [ -100.10587310791, 21.514419555664102 ] ] ] } },
{ "type": "Feature", "properties": { "NAME_1": "Guanajuato", "NAME_2": "Yuriria" }, "geometry": { "type": "Polygon", "coordinates": [ [ [ -101.426177978515994, 20.047960281372099 ], [ -101.424468994140994, 20.16090965271 ], [ -101.437759399414006, 20.184770584106499 ], [ -101.443618774414006, 20.2310905456543 ], [ -101.428268432617003, 20.2294311523438 ], [ -101.401649475097997, 20.211439132690401 ], [ -101.387298583984006, 20.214330673217798 ], [ -101.37686920166, 20.221759796142599 ], [ -101.386001586914006, 20.241712570190501 ], [ -101.356018066405994, 20.261631011962901 ], [ -101.329498291015994, 20.264232635498001 ], [ -101.321632385254006, 20.282550811767599 ], [ -101.25089263916, 20.269100189208999 ], [ -101.221366882324006, 20.248630523681602 ], [ -101.197761535645, 20.264289855957099 ], [ -101.161422729492003, 20.258829116821399 ], [ -101.148880004882997, 20.267700195312599 ], [ -101.146408081055, 20.2855129241943 ], [ -101.122222900390994, 20.287130355835099 ], [ -101.080825805664006, 20.2411403656007 ], [ -101.079696655272997, 20.232469558715898 ], [ -101.097747802734006, 20.2186012268068 ], [ -101.083869934082003, 20.222570419311499 ], [ -101.04866027832, 20.196449279785199 ], [ -101.01847076416, 20.213499069213999 ], [ -101.010353088379006, 20.210760116577202 ], [ -101.03173828125, 20.168991088867202 ], [ -101.028472900390994, 20.1237907409669 ], [ -101.008087158202997, 20.101280212402301 ], [ -101.025993347167997, 20.0656929016113 ], [ -101.09757232666, 20.0484294891357 ], [ -101.09977722168, 20.0980129241943 ], [ -101.130065917969006, 20.127790451049901 ], [ -101.123336791992003, 20.151491165161101 ], [ -101.132247924805, 20.154970169067401 ], [ -101.157470703125, 20.1350402832031 ], [ -101.168556213379006, 20.145139694213899 ], [ -101.154067993164006, 20.16233253479 ], [ -101.191398620605, 20.166490554809702 ], [ -101.212646484375, 20.1821899414063 ], [ -101.222419738769005, 20.177490234375099 ], [ -101.21272277832, 20.164810180664102 ], [ -101.213287353515994, 20.147422790527301 ], [ -101.232498168945, 20.152200698852699 ], [ -101.242881774902003, 20.165348052978601 ], [ -101.260246276855, 20.1644802093507 ], [ -101.255592346190994, 20.150569915771499 ], [ -101.275131225585994, 20.147649765014702 ], [ -101.276191711425994, 20.121099472045898 ], [ -101.302223205565994, 20.125501632690501 ], [ -101.316719055175994, 20.094089508056602 ], [ -101.342796325684006, 20.073419570923001 ], [ -101.330017089844006, 20.016599655151399 ], [ -101.405822753905994, 20.024852752685501 ], [ -101.426177978515994, 20.047960281372099 ] ] ] } }
]
}
