{
"type": "FeatureCollection",
"name": "hidalgo",
"crs": { "type": "name", "properties": { "name": "urn:ogc:def:crs:OGC:1.3:CRS84" } },
"features": [
{ "type": "Feature", "properties": { "NAME_1": "Hidalgo", "NAME_2": "Acatlán" }, "geometry": { "type": "Polygon", "coordinates": [ [ [ -98.310173034667898, 20.216030120849599 ], [ -98.337982177734403, 20.146110534668001 ], [ -98.390678405761705, 20.124729156494201 ], [ -98.429000854492102, 20.081140518188501 ], [ -98.470863342285099, 20.088750839233501 ], [ -98.486579895019503, 20.104761123657202 ], [ -98.4385986328125, 20.141399383544901 ], [ -98.434455871582003, 20.167312622070401 ], [ -98.415702819824205, 20.164421081543001 ], [ -98.410179138183594, 20.1709003448487 ], [ -98.421226501464801, 20.253021240234499 ], [ -98.44677734375, 20.262670516967798 ], [ -98.452720642089801, 20.2734603881837 ], [ -98.352607727050696, 20.315250396728601 ], [ -98.350090026855497, 20.305419921875099 ], [ -98.362007141113295, 20.285560607910199 ], [ -98.363021850585895, 20.242500305175799 ], [ -98.353431701660199, 20.2331275939943 ], [ -98.334320068359304, 20.2366619110107 ], [ -98.310173034667898, 20.216030120849599 ] ] ] } },
{ "type": "Feature", "properties": { "NAME_1": "Hidalgo", "NAME_2": "Acaxochitlán" }, "geometry": { "type": "Polygon", "coordinates": [ [ [ -98.166976928710895, 20.106319427490199 ], [ -98.1890869140625, 20.165920257568398 ], [ -98.264572143554702, 20.152511596679801 ], [ -98.261810302734403, 20.1794109344482 ], [ -98.21378326416, 20.204809188842798 ], [ -98.198211669921804, 20.239442825317401 ], [ -98.117889404296903, 20.258501052856399 ], [ -98.109519958495994, 20.250009536743299 ], [ -98.114311218261705, 20.2204494476318 ], [ -98.099586486816406, 20.1756706237794 ], [ -98.111846923828097, 20.0948181152344 ], [ -98.166976928710895, 20.106319427490199 ] ] ] } },
{ "type": "Feature", "properties": { "NAME_1": "Hidalgo", "NAME_2": "Actopan" }, "geometry": { "type": "Polygon", "coordinates": [ [ [ -98.760955810546903, 20.302690505981602 ], [ -98.7734375, 20.2735099792481 ], [ -98.810028076171903, 20.262151718139801 ], [ -98.852645874023395, 20.266170501708999 ], [ -98.8697509765625, 20.246910095215 ], [ -98.894515991210795, 20.262331008911101 ], [ -98.926818847656193, 20.301679611206101 ], [ -98.933097839355497, 20.326530456543001 ], [ -98.913238525390597, 20.384799957275401 ], [ -98.8875732421875, 20.3773708343507 ], [ -98.835823059082003, 20.388750076293899 ], [ -98.758110046386705, 20.4345893859863 ], [ -98.749519348144503, 20.427650451660199 ], [ -98.736076354980398, 20.374040603637599 ], [ -98.741378784179702, 20.344789505004901 ], [ -98.768608093261705, 20.321460723876999 ], [ -98.760955810546903, 20.302690505981602 ] ] ] } },
{ "type": "Feature", "properties": { "NAME_1": "Hidalgo", "NAME_2": "Agua Blanca de Iturbide" }, "geometry": { "type": "Polygon", "coordinates": [ [ [ -98.267112731933594, 20.437700271606602 ], [ -98.245681762695298, 20.4164428710938 ], [ -98.260940551757798, 20.380470275878999 ], [ -98.260246276855497, 20.3378810882569 ], [ -98.271362304687401, 20.336460113525501 ], [ -98.292205810546903, 20.3140392303468 ], [ -98.314636230468807, 20.373050689697301 ], [ -98.338661193847699, 20.386680603027401 ], [ -98.36572265625, 20.390638351440501 ], [ -98.340599060058494, 20.410150527954102 ], [ -98.292587280273395, 20.422121047973601 ], [ -98.267112731933594, 20.437700271606602 ] ] ] } },
{ "type": "Feature", "properties": { "NAME_1": "Hidalgo", "NAME_2": "Ajacuba" }, "geometry": { "type": "Polygon", "coordinates": [ [ [ -98.867286682128906, 20.1873512268068 ], [ -98.875900268554602, 20.128080368042099 ], [ -98.8514404296875, 20.0724105834962 ], [ -98.841339111328097, 20.010341644287202 ], [ -98.843727111816406, 19.983350753784201 ], [ -98.855712890625, 19.967889785766701 ], [ -98.871856689453097, 19.973182678222699 ], [ -98.865730285644503, 20.030830383300898 ], [ -98.888320922851605, 20.0697307586669 ], [ -98.955963134765597, 20.052249908447301 ], [ -98.999748229980497, 20.0248908996582 ], [ -99.029556274413906, 20.047950744628999 ], [ -99.096717834472699, 20.061571121215898 ], [ -99.109481811523395, 20.087350845336999 ], [ -99.071708679199105, 20.127759933471701 ], [ -99.068550109863196, 20.146390914917099 ], [ -99.104812622070298, 20.1551704406738 ], [ -99.154685974121094, 20.194700241088899 ], [ -99.122627258300696, 20.2021503448487 ], [ -99.102409362792898, 20.194351196289102 ], [ -99.039192199707003, 20.212450027465898 ], [ -98.947319030761705, 20.198368072509901 ], [ -98.869003295898395, 20.2188606262207 ], [ -98.867286682128906, 20.1873512268068 ] ] ] } },
{ "type": "Feature", "properties": { "NAME_1": "Hidalgo", "NAME_2": "Alfajayucan" }, "geometry": { "type": "Polygon", "coordinates": [ [ [ -99.253387451171903, 20.415580749511701 ], [ -99.266166687011705, 20.4050598144532 ], [ -99.289497375488196, 20.4013481140138 ], [ -99.329040527343807, 20.332410812377901 ], [ -99.374282836914006, 20.340852737426701 ], [ -99.426750183105398, 20.328491210937599 ], [ -99.442855834960895, 20.3194694519044 ], [ -99.459808349609403, 20.2860012054444 ], [ -99.507080078125, 20.2942123413087 ], [ -99.576972961425795, 20.285760879516602 ], [ -99.568199157714801, 20.345420837402301 ], [ -99.542587280273395, 20.420209884643601 ], [ -99.523269653320298, 20.447139739990199 ], [ -99.498466491699205, 20.443498611450199 ], [ -99.486480712890597, 20.486272811889801 ], [ -99.456489562988196, 20.511360168456999 ], [ -99.433891296386705, 20.5111598968506 ], [ -99.416389465332003, 20.494398117065501 ], [ -99.395187377929602, 20.5058994293213 ], [ -99.270011901855497, 20.509170532226701 ], [ -99.253387451171903, 20.415580749511701 ] ] ] } },
{ "type": "Feature", "properties": { "NAME_1": "Hidalgo", "NAME_2": "Almoloya" }, "geometry": { "type": "Polygon", "coordinates": [ [ [ -98.332443237304702, 19.623710632324201 ], [ -98.362197875976605, 19.614669799804801 ], [ -98.361343383789105, 19.664670944213899 ], [ -98.377670288085895, 19.701658248901399 ], [ -98.352531433105398, 19.748540878295898 ], [ -98.243789672851506, 19.834672927856399 ], [ -98.196037292480398, 19.841842651367099 ], [ -98.159523010253906, 19.707080841064599 ], [ -98.165267944335895, 19.699308395385899 ], [ -98.2421875, 19.7216110229493 ], [ -98.260322570800696, 19.718250274658299 ], [ -98.292930603027301, 19.6627826690675 ], [ -98.332443237304702, 19.623710632324201 ] ] ] } },
{ "type": "Feature", "properties": { "NAME_1": "Hidalgo", "NAME_2": "Apan" }, "geometry": { "type": "Polygon", "coordinates": [ [ [ -98.362197875976605, 19.614669799804801 ], [ -98.420608520507798, 19.6062107086182 ], [ -98.474403381347599, 19.614831924438501 ], [ -98.501548767089801, 19.6014194488525 ], [ -98.492706298828097, 19.615249633788999 ], [ -98.493782043456903, 19.6356105804443 ], [ -98.508049011230497, 19.696561813354499 ], [ -98.457015991210895, 19.738702774047798 ], [ -98.456199645995994, 19.758308410644499 ], [ -98.404685974120994, 19.798231124878001 ], [ -98.384872436523295, 19.8035583496094 ], [ -98.351799011230497, 19.844129562377901 ], [ -98.304077148437401, 19.8661804199219 ], [ -98.267646789550696, 19.8532600402832 ], [ -98.258453369140597, 19.866029739379901 ], [ -98.263931274414006, 19.8779201507569 ], [ -98.241600036620994, 19.906829833984499 ], [ -98.174949645995994, 19.918889999389599 ], [ -98.193298339843807, 19.878351211547901 ], [ -98.196037292480398, 19.841842651367099 ], [ -98.243789672851506, 19.834672927856399 ], [ -98.352531433105398, 19.748540878295898 ], [ -98.377670288085895, 19.701658248901399 ], [ -98.361343383789105, 19.664670944213899 ], [ -98.362197875976605, 19.614669799804801 ] ] ] } },
{ "type": "Feature", "properties": { "NAME_1": "Hidalgo", "NAME_2": "Atitalaquia" }, "geometry": { "type": "Polygon", "coordinates": [ [ [ -99.096717834472699, 20.061571121215898 ], [ -99.168258666992202, 20.051660537719801 ], [ -99.196090698242202, 20.0725994110107 ], [ -99.109481811523395, 20.087350845336999 ], [ -99.096717834472699, 20.061571121215898 ] ] ] } },
{ "type": "Feature", "properties": { "NAME_1": "Hidalgo", "NAME_2": "Atlapexco" }, "geometry": { "type": "Polygon", "coordinates": [ [ [ -98.418312072753807, 21.002479553222699 ], [ -98.440567016601406, 21.035110473632798 ], [ -98.416442871093807, 21.042230606079102 ], [ -98.398178100585895, 21.060571670532301 ], [ -98.373878479003807, 21.051000595092901 ], [ -98.361480712890597, 21.0548000335694 ], [ -98.352737426757798, 21.0766201019287 ], [ -98.365829467773395, 21.1079406738281 ], [ -98.362190246582003, 21.116859436035298 ], [ -98.323387145996094, 21.135780334472798 ], [ -98.285652160644503, 21.119979858398398 ], [ -98.306648254394503, 21.087661743164102 ], [ -98.311782836914105, 21.061681747436602 ], [ -98.310256958007798, 21.040950775146499 ], [ -98.294677734375, 21.021430969238299 ], [ -98.418312072753807, 21.002479553222699 ] ] ] } },
{ "type": "Feature", "properties": { "NAME_1": "Hidalgo", "NAME_2": "Atotonilco de Tula" }, "geometry": { "type": "Polygon", "coordinates": [ [ [ -99.021087646484403, 20.014930725097699 ], [ -99.163757324218807, 19.982091903686602 ], [ -99.177642822265597, 19.956098556518601 ], [ -99.177352905273395, 19.881330490112301 ], [ -99.213027954101506, 19.925729751586999 ], [ -99.204490661621094, 19.971460342407202 ], [ -99.224456787109304, 20.00710105896 ], [ -99.197128295898395, 20.035511016845799 ], [ -99.204376220703097, 20.078111648559599 ], [ -99.168258666992202, 20.051660537719801 ], [ -99.096717834472699, 20.061571121215898 ], [ -99.029556274413906, 20.047950744628999 ], [ -98.999748229980497, 20.0248908996582 ], [ -99.021087646484403, 20.014930725097699 ] ] ] } },
{ "type": "Feature", "properties": { "NAME_1": "Hidalgo", "NAME_2": "Atotonilco el Grande" }, "geometry": { "type": "Polygon", "coordinates": [ [ [ -98.461517333984304, 20.376981735229599 ], [ -98.5086669921875, 20.3619308471681 ], [ -98.506622314453097, 20.345670700073399 ], [ -98.513839721679702, 20.335029602050898 ], [ -98.557876586914105, 20.2947483062744 ], [ -98.598258972167997, 20.270900726318299 ], [ -98.663269042968807, 20.308179855346701 ], [ -98.706016540527301, 20.286779403686499 ], [ -98.743461608886705, 20.304069519043001 ], [ -98.760955810546903, 20.302690505981602 ], [ -98.769157409667997, 20.3155803680419 ], [ -98.740196228027301, 20.3472805023193 ], [ -98.736000061035099, 20.3819808959962 ], [ -98.742027282714801, 20.405452728271499 ], [ -98.682662963867202, 20.416610717773501 ], [ -98.663116455078097, 20.427919387817401 ], [ -98.633308410644503, 20.424240112304702 ], [ -98.604667663574205, 20.431470870971701 ], [ -98.582527160644503, 20.3980007171631 ], [ -98.560211181640597, 20.398220062255898 ], [ -98.516532897949205, 20.4308490753175 ], [ -98.516418457031193, 20.447719573974599 ], [ -98.502487182617202, 20.457202911377099 ], [ -98.461517333984304, 20.376981735229599 ] ] ] } },
{ "type": "Feature", "properties": { "NAME_1": "Hidalgo", "NAME_2": "Calnali" }, "geometry": { "type": "Polygon", "coordinates": [ [ [ -98.431480407714801, 20.9344806671143 ], [ -98.461570739746094, 20.923709869384801 ], [ -98.487503051757798, 20.9227905273438 ], [ -98.493232727050795, 20.92991065979 ], [ -98.565689086913906, 20.896570205688501 ], [ -98.590103149413906, 20.8975601196288 ], [ -98.573356628417997, 20.930538177490298 ], [ -98.594879150390597, 20.955591201782202 ], [ -98.541931152343693, 20.975099563598601 ], [ -98.538871765136705, 20.968282699584901 ], [ -98.468009948730398, 20.970609664916999 ], [ -98.425819396972699, 20.948530197143601 ], [ -98.431480407714801, 20.9344806671143 ] ] ] } },
{ "type": "Feature", "properties": { "NAME_1": "Hidalgo", "NAME_2": "Cardonal" }, "geometry": { "type": "Polygon", "coordinates": [ [ [ -98.917747497558594, 20.7516498565675 ], [ -98.907142639160199, 20.739059448242099 ], [ -98.907127380371094, 20.72066116333 ], [ -98.917877197265597, 20.656330108642699 ], [ -98.923995971679702, 20.524751663208001 ], [ -98.992416381835895, 20.4910106658937 ], [ -99.016197204589801, 20.455310821533299 ], [ -99.033836364745994, 20.4558811187744 ], [ -99.041221618652301, 20.4592094421387 ], [ -99.039993286132798, 20.494319915771499 ], [ -99.059661865234304, 20.553230285644599 ], [ -99.154457092285099, 20.651609420776499 ], [ -99.163963317871094, 20.7464294433594 ], [ -99.1142578125, 20.7865600585937 ], [ -99.087905883789006, 20.822790145873999 ], [ -99.084236145019503, 20.845270156860401 ], [ -99.038887023925696, 20.870670318603601 ], [ -99.033576965332003, 20.883050918579201 ], [ -99.010459899902301, 20.850141525268601 ], [ -98.989295959472599, 20.849540710449201 ], [ -99.012008666992102, 20.821388244628999 ], [ -99.010246276855497, 20.807580947875898 ], [ -98.960533142089801, 20.766559600830099 ], [ -98.917747497558594, 20.7516498565675 ] ] ] } },
{ "type": "Feature", "properties": { "NAME_1": "Hidalgo", "NAME_2": "Chapantongo" }, "geometry": { "type": "Polygon", "coordinates": [ [ [ -99.523521423339801, 20.1703605651857 ], [ -99.522567749023395, 20.193059921264702 ], [ -99.576972961425795, 20.285760879516602 ], [ -99.507080078125, 20.2942123413087 ], [ -99.459808349609403, 20.2860012054444 ], [ -99.442855834960895, 20.3194694519044 ], [ -99.426750183105398, 20.328491210937599 ], [ -99.374282836914006, 20.340852737426701 ], [ -99.329040527343807, 20.332410812377901 ], [ -99.329307556152301, 20.2688808441162 ], [ -99.399375915527301, 20.272861480712901 ], [ -99.464912414550795, 20.192621231079201 ], [ -99.483886718749901, 20.191370010376001 ], [ -99.4962158203125, 20.143421173095799 ], [ -99.519302368164105, 20.150579452514801 ], [ -99.523521423339801, 20.1703605651857 ] ] ] } },
{ "type": "Feature", "properties": { "NAME_1": "Hidalgo", "NAME_2": "Chapulhuacán" }, "geometry": { "type": "Polygon", "coordinates": [ [ [ -98.826103210449205, 21.189939498901399 ], [ -98.837165832519503, 21.169519424438501 ], [ -98.869873046875, 21.1686916351319 ], [ -98.880859374999901, 21.133459091186499 ], [ -98.939659118652301, 21.0449504852294 ], [ -98.965248107910099, 21.0383605957031 ], [ -98.970565795898395, 21.025537490844801 ], [ -98.98388671875, 21.030839920043999 ], [ -98.987609863281193, 21.057420730590898 ], [ -99.002037048339801, 21.076461791992301 ], [ -98.998756408691406, 21.108289718627901 ], [ -99.006790161132798, 21.122949600219801 ], [ -99.010551452636705, 21.192090988159201 ], [ -98.907470703124901, 21.236320495605501 ], [ -98.867950439453097, 21.197280883789102 ], [ -98.826103210449205, 21.189939498901399 ] ] ] } },
{ "type": "Feature", "properties": { "NAME_1": "Hidalgo", "NAME_2": "Chilcuautla" }, "geometry": { "type": "Polygon", "coordinates": [ [ [ -99.329040527343807, 20.332410812377901 ], [ -99.285476684570298, 20.404550552368299 ], [ -99.266166687011705, 20.4050598144532 ], [ -99.253387451171903, 20.415580749511701 ], [ -99.191673278808494, 20.416690826416001 ], [ -99.164436340332003, 20.431190490722798 ], [ -99.142227172851605, 20.4580307006837 ], [ -99.122787475585895, 20.444700241088999 ], [ -99.163192749023395, 20.384992599487401 ], [ -99.166542053222699, 20.302078247070401 ], [ -99.200508117675795, 20.258470535278299 ], [ -99.256607055664006, 20.275850296020501 ], [ -99.325462341308494, 20.266138076782202 ], [ -99.331962585449205, 20.286079406738299 ], [ -99.329040527343807, 20.332410812377901 ] ] ] } },
{ "type": "Feature", "properties": { "NAME_1": "Hidalgo", "NAME_2": "Cuautepec de Hinojosa" }, "geometry": { "type": "Polygon", "coordinates": [ [ [ -98.123718261718807, 20.043899536132798 ], [ -98.131950378417898, 19.994421005248999 ], [ -98.158676147460895, 19.9606704711913 ], [ -98.174949645995994, 19.918889999389599 ], [ -98.241600036620994, 19.906829833984499 ], [ -98.263931274414006, 19.8779201507569 ], [ -98.258453369140597, 19.866029739379901 ], [ -98.267646789550696, 19.8532600402832 ], [ -98.294570922851605, 19.865039825439499 ], [ -98.316825866699205, 19.862380981445401 ], [ -98.351799011230497, 19.844129562377901 ], [ -98.376708984375, 19.8199882507325 ], [ -98.389183044433594, 19.861141204833999 ], [ -98.349105834960895, 19.912799835205099 ], [ -98.368400573730497, 19.920280456543001 ], [ -98.348678588867202, 19.984939575195298 ], [ -98.294410705566406, 19.999490737915 ], [ -98.282997131347599, 20.0378608703613 ], [ -98.298629760742102, 20.054630279541001 ], [ -98.285102844238196, 20.066289901733299 ], [ -98.267066955566307, 20.0684108734131 ], [ -98.254531860351605, 20.1000194549562 ], [ -98.244560241699205, 20.105211257934599 ], [ -98.199600219726605, 20.092880249023398 ], [ -98.166976928710895, 20.106319427490199 ], [ -98.116142272949205, 20.098510742187599 ], [ -98.123718261718807, 20.043899536132798 ] ] ] } },
{ "type": "Feature", "properties": { "NAME_1": "Hidalgo", "NAME_2": "El Arenal" }, "geometry": { "type": "Polygon", "coordinates": [ [ [ -98.869003295898395, 20.2188606262207 ], [ -98.8697509765625, 20.246910095215 ], [ -98.852645874023395, 20.266170501708999 ], [ -98.810028076171903, 20.262151718139801 ], [ -98.780220031738295, 20.275760650634801 ], [ -98.768173217773395, 20.2651596069337 ], [ -98.785446166992202, 20.194360733032301 ], [ -98.822029113769503, 20.184869766235401 ], [ -98.867286682128906, 20.1873512268068 ], [ -98.869003295898395, 20.2188606262207 ] ] ] } },
{ "type": "Feature", "properties": { "NAME_1": "Hidalgo", "NAME_2": "Eloxochitlán" }, "geometry": { "type": "Polygon", "coordinates": [ [ [ -98.7528076171875, 20.823329925537099 ], [ -98.746559143066406, 20.754510879516701 ], [ -98.852462768554702, 20.7399501800538 ], [ -98.895408630371094, 20.744800567626999 ], [ -98.960533142089801, 20.766559600830099 ], [ -99.014183044433494, 20.814661026001001 ], [ -98.986122131347699, 20.853580474853601 ], [ -98.956489562988196, 20.853298187255898 ], [ -98.908416748046804, 20.871170043945401 ], [ -98.883537292480398, 20.887460708618299 ], [ -98.877555847167997, 20.901420593261701 ], [ -98.861686706542898, 20.894620895385899 ], [ -98.823867797851605, 20.903118133545 ], [ -98.815216064453097, 20.873600006103601 ], [ -98.820793151855398, 20.846891403198299 ], [ -98.839019775390597, 20.8232727050782 ], [ -98.829696655273395, 20.808811187744102 ], [ -98.7528076171875, 20.823329925537099 ] ] ] } },
{ "type": "Feature", "properties": { "NAME_1": "Hidalgo", "NAME_2": "Emiliano Zapata" }, "geometry": { "type": "Polygon", "coordinates": [ [ [ -98.679061889648395, 19.5666904449463 ], [ -98.682716369628906, 19.6039009094238 ], [ -98.676048278808594, 19.6283397674562 ], [ -98.662536621093807, 19.662330627441499 ], [ -98.619316101074205, 19.7262897491456 ], [ -98.598236083984403, 19.718290328979499 ], [ -98.569625854492202, 19.72825050354 ], [ -98.510879516601605, 19.700849533081001 ], [ -98.494895935058494, 19.6479091644288 ], [ -98.492706298828097, 19.615249633788999 ], [ -98.501548767089801, 19.6014194488525 ], [ -98.564453125, 19.589981079101602 ], [ -98.674797058105497, 19.5501594543457 ], [ -98.679061889648395, 19.5666904449463 ] ] ] } },
{ "type": "Feature", "properties": { "NAME_1": "Hidalgo", "NAME_2": "Epazoyucan" }, "geometry": { "type": "Polygon", "coordinates": [ [ [ -98.682083129882798, 20.0124816894532 ], [ -98.678627014160199, 20.039491653442301 ], [ -98.667587280273395, 20.054290771484499 ], [ -98.636093139648395, 20.057010650634801 ], [ -98.6257705688475, 20.044309616088999 ], [ -98.595626831054602, 20.043180465698399 ], [ -98.567253112792997, 20.116252899169901 ], [ -98.551597595214801, 20.113330841064599 ], [ -98.526527404785199, 20.073549270629901 ], [ -98.503738403320298, 20.062940597534201 ], [ -98.506729125976506, 20.053150177001999 ], [ -98.521659851074205, 20.0471897125244 ], [ -98.541519165039105, 19.962938308715898 ], [ -98.552047729492102, 19.962009429931701 ], [ -98.567657470703097, 19.9426498413087 ], [ -98.635070800781193, 19.9333400726319 ], [ -98.646530151367102, 19.9628810882569 ], [ -98.682083129882798, 20.0124816894532 ] ] ] } },
{ "type": "Feature", "properties": { "NAME_1": "Hidalgo", "NAME_2": "Francisco I. Madero" }, "geometry": { "type": "Polygon", "coordinates": [ [ [ -99.122627258300696, 20.2021503448487 ], [ -99.056777954101605, 20.288690567016701 ], [ -99.032623291015597, 20.2913303375244 ], [ -99.010696411132798, 20.279960632324201 ], [ -98.996665954589801, 20.216600418090898 ], [ -98.985237121582003, 20.204280853271602 ], [ -99.039192199707003, 20.212450027465898 ], [ -99.106903076171903, 20.193702697753999 ], [ -99.122627258300696, 20.2021503448487 ] ] ] } },
{ "type": "Feature", "properties": { "NAME_1": "Hidalgo", "NAME_2": "Huasca de Ocampo" }, "geometry": { "type": "Polygon", "coordinates": [ [ [ -98.500061035156193, 20.117401123046999 ], [ -98.490966796875, 20.1520080566406 ], [ -98.504127502441406, 20.186809539794901 ], [ -98.553070068359304, 20.145290374755898 ], [ -98.551582336425795, 20.195310592651399 ], [ -98.530456542968807, 20.2427291870118 ], [ -98.532600402832003, 20.252540588378899 ], [ -98.558799743652301, 20.2684211730956 ], [ -98.561813354492202, 20.2922897338868 ], [ -98.513839721679702, 20.335029602050898 ], [ -98.506622314453097, 20.345670700073399 ], [ -98.5086669921875, 20.3619308471681 ], [ -98.461517333984304, 20.376981735229599 ], [ -98.425956726074205, 20.335979461669901 ], [ -98.399116516113295, 20.351110458373999 ], [ -98.399696350097699, 20.291660308838001 ], [ -98.430587768554702, 20.285631179809599 ], [ -98.453453063964801, 20.271310806274499 ], [ -98.421226501464801, 20.253021240234499 ], [ -98.410179138183594, 20.1709003448487 ], [ -98.415702819824205, 20.164421081543001 ], [ -98.434455871582003, 20.167312622070401 ], [ -98.4385986328125, 20.141399383544901 ], [ -98.482681274414105, 20.107049942016602 ], [ -98.500061035156193, 20.117401123046999 ] ] ] } },
{ "type": "Feature", "properties": { "NAME_1": "Hidalgo", "NAME_2": "Huautla" }, "geometry": { "type": "Polygon", "coordinates": [ [ [ -98.249992370605398, 20.945440292358398 ], [ -98.272872924804702, 20.9801006317138 ], [ -98.301467895507798, 21.0034198760987 ], [ -98.294677734375, 21.021430969238299 ], [ -98.311859130859403, 21.045988082885799 ], [ -98.310096740722599, 21.076610565185501 ], [ -98.288536071777301, 21.1162624359132 ], [ -98.235733032226605, 21.171220779418999 ], [ -98.219688415527301, 21.199171066284201 ], [ -98.190986633300696, 21.180070877075298 ], [ -98.186851501464801, 21.157302856445401 ], [ -98.127136230468807, 21.0942401885987 ], [ -98.110031127929702, 21.061830520629801 ], [ -98.167762756347699, 21.002609252929801 ], [ -98.199043273925795, 20.935159683227699 ], [ -98.221450805664105, 20.946872711181602 ], [ -98.249992370605398, 20.945440292358398 ] ] ] } },
{ "type": "Feature", "properties": { "NAME_1": "Hidalgo", "NAME_2": "Huazalingo" }, "geometry": { "type": "Polygon", "coordinates": [ [ [ -98.418312072753807, 21.002479553222699 ], [ -98.425819396972699, 20.948530197143601 ], [ -98.468009948730398, 20.970609664916999 ], [ -98.542350769042997, 20.969619750976701 ], [ -98.539726257324205, 20.989580154418899 ], [ -98.506660461425795, 21.0360012054443 ], [ -98.488327026367102, 21.032569885253999 ], [ -98.447807312011705, 21.0435295104982 ], [ -98.418312072753807, 21.002479553222699 ] ] ] } },
{ "type": "Feature", "properties": { "NAME_1": "Hidalgo", "NAME_2": "Huehuetla" }, "geometry": { "type": "Polygon", "coordinates": [ [ [ -98.113937377929702, 20.418758392333999 ], [ -98.091316223144503, 20.4605312347413 ], [ -98.049156188964801, 20.483049392700298 ], [ -98.060768127441406, 20.501449584960898 ], [ -98.043411254882798, 20.523759841919102 ], [ -98.011436462402301, 20.5299606323243 ], [ -98.001815795898395, 20.540439605712901 ], [ -98.013916015625, 20.5853290557862 ], [ -98.023040771484304, 20.588039398193501 ], [ -98.0323486328125, 20.564832687378001 ], [ -98.049247741699205, 20.604850769043001 ], [ -98.060333251953097, 20.609319686889599 ], [ -98.029411315917898, 20.645280838012699 ], [ -97.999862670898395, 20.660659790039201 ], [ -97.959686279296903, 20.6278190612793 ], [ -97.937957763671804, 20.623001098632901 ], [ -97.935180664062401, 20.510271072387699 ], [ -97.981971740722699, 20.460250854492202 ], [ -98.049377441406193, 20.415111541748001 ], [ -98.068626403808494, 20.388820648193398 ], [ -98.076927185058494, 20.401170730590799 ], [ -98.073898315429702, 20.4280605316163 ], [ -98.114723205566406, 20.404108047485401 ], [ -98.113937377929702, 20.418758392333999 ] ] ] } },
{ "type": "Feature", "properties": { "NAME_1": "Hidalgo", "NAME_2": "Huejutla de Reyes" }, "geometry": { "type": "Polygon", "coordinates": [ [ [ -98.285652160644503, 21.119979858398398 ], [ -98.323387145996094, 21.135780334472798 ], [ -98.362190246582003, 21.116859436035298 ], [ -98.365829467773395, 21.1079406738281 ], [ -98.352737426757798, 21.0766201019287 ], [ -98.364196777343807, 21.05299949646 ], [ -98.398178100585895, 21.060571670532301 ], [ -98.416442871093807, 21.042230606079102 ], [ -98.440567016601406, 21.035110473632798 ], [ -98.451232910156193, 21.044389724731499 ], [ -98.495841979980497, 21.0324096679687 ], [ -98.506660461425795, 21.0360012054443 ], [ -98.477378845214702, 21.0724906921387 ], [ -98.518829345703097, 21.079940795898398 ], [ -98.537086486816406, 21.101640701294102 ], [ -98.556739807128906, 21.085508346557699 ], [ -98.623970031738295, 21.164970397949201 ], [ -98.594207763671903, 21.184150695800799 ], [ -98.588981628417997, 21.157819747924901 ], [ -98.548233032226506, 21.175920486450199 ], [ -98.525367736816406, 21.144189834594801 ], [ -98.508895874023395, 21.142158508300799 ], [ -98.502700805664105, 21.218320846557699 ], [ -98.539260864257798, 21.226791381835898 ], [ -98.519706726074205, 21.258529663086001 ], [ -98.495468139648395, 21.273380279541101 ], [ -98.435096740722599, 21.216600418090898 ], [ -98.379325866699205, 21.188230514526399 ], [ -98.319602966308594, 21.186719894409201 ], [ -98.292167663574205, 21.219190597534201 ], [ -98.263740539550696, 21.216659545898398 ], [ -98.219688415527301, 21.199171066284201 ], [ -98.235733032226605, 21.171220779418999 ], [ -98.285652160644503, 21.119979858398398 ] ] ] } },
{ "type": "Feature", "properties": { "NAME_1": "Hidalgo", "NAME_2": "Huichapan" }, "geometry": { "type": "Polygon", "coordinates": [ [ [ -99.576972961425795, 20.285760879516602 ], [ -99.611160278320298, 20.2912197113037 ], [ -99.654823303222699, 20.318580627441499 ], [ -99.685668945312401, 20.311832427978601 ], [ -99.734909057617202, 20.338590621948299 ], [ -99.817497253417997, 20.3183002471925 ], [ -99.855621337890597, 20.3218383789063 ], [ -99.839530944824205, 20.4732894897462 ], [ -99.820587158203097, 20.466680526733398 ], [ -99.800201416015597, 20.471128463745199 ], [ -99.745719909667997, 20.4550495147706 ], [ -99.729316711425795, 20.424089431762798 ], [ -99.724502563476605, 20.436521530151399 ], [ -99.740280151367202, 20.482851028442401 ], [ -99.7352294921875, 20.4918308258057 ], [ -99.689361572265597, 20.452939987182599 ], [ -99.655212402343807, 20.469360351562401 ], [ -99.614219665527301, 20.4729194641113 ], [ -99.605659484863196, 20.487409591674901 ], [ -99.586502075195199, 20.4911403656006 ], [ -99.555526733398395, 20.483390808105501 ], [ -99.563110351562401, 20.4675197601319 ], [ -99.537208557128906, 20.476539611816499 ], [ -99.488876342773395, 20.462358474731399 ], [ -99.503196716308594, 20.440961837768601 ], [ -99.525520324707003, 20.445520401001101 ], [ -99.542587280273395, 20.420209884643601 ], [ -99.568199157714801, 20.345420837402301 ], [ -99.576972961425795, 20.285760879516602 ] ] ] } },
{ "type": "Feature", "properties": { "NAME_1": "Hidalgo", "NAME_2": "Ixmiquilpan" }, "geometry": { "type": "Polygon", "coordinates": [ [ [ -99.033836364745994, 20.4558811187744 ], [ -99.043792724609403, 20.442710876464801 ], [ -99.069847106933594, 20.471841812133899 ], [ -99.088043212890597, 20.472732543945401 ], [ -99.122787475585895, 20.444700241088999 ], [ -99.142227172851605, 20.4580307006837 ], [ -99.164436340332003, 20.431190490722798 ], [ -99.191673278808494, 20.416690826416001 ], [ -99.253387451171903, 20.415580749511701 ], [ -99.270011901855497, 20.509170532226701 ], [ -99.2503662109375, 20.514280319213999 ], [ -99.220008850097699, 20.548229217529201 ], [ -99.176345825195298, 20.569660186767599 ], [ -99.182037353515597, 20.5771999359131 ], [ -99.239006042480497, 20.585781097412202 ], [ -99.234130859375, 20.658979415893601 ], [ -99.246147155761705, 20.707660675048899 ], [ -99.238426208496094, 20.768491744995199 ], [ -99.195220947265597, 20.773759841918999 ], [ -99.163963317871094, 20.7464294433594 ], [ -99.154457092285099, 20.651609420776499 ], [ -99.059661865234304, 20.553230285644599 ], [ -99.039993286132798, 20.494319915771499 ], [ -99.041221618652301, 20.4592094421387 ], [ -99.033836364745994, 20.4558811187744 ] ] ] } },
{ "type": "Feature", "properties": { "NAME_1": "Hidalgo", "NAME_2": "Jacala de Ledezma" }, "geometry": { "type": "Polygon", "coordinates": [ [ [ -99.048416137695298, 20.968370437621999 ], [ -99.058982849121094, 20.925508499145501 ], [ -99.049278259277301, 20.900739669799901 ], [ -99.094406127929602, 20.872579574585 ], [ -99.141151428222699, 20.885242462158299 ], [ -99.147697448730398, 20.9015197753907 ], [ -99.176551818847699, 20.919870376586999 ], [ -99.194618225097599, 20.9487609863282 ], [ -99.221443176269503, 20.9709796905518 ], [ -99.250846862792997, 20.9810504913331 ], [ -99.259986877441406, 21.058921813964801 ], [ -99.243415832519503, 21.104040145874102 ], [ -99.254318237304602, 21.128320693969801 ], [ -99.212112426757798, 21.138431549072301 ], [ -99.152999877929702, 21.166030883789102 ], [ -99.143440246582003, 21.0878105163575 ], [ -99.104187011718807, 21.045648574829102 ], [ -99.096733093261705, 21.022050857543999 ], [ -99.0794677734375, 21.014240264892599 ], [ -99.076927185058494, 20.9952201843262 ], [ -99.048416137695298, 20.968370437621999 ] ] ] } },
{ "type": "Feature", "properties": { "NAME_1": "Hidalgo", "NAME_2": "Jaltocán" }, "geometry": { "type": "Polygon", "coordinates": [ [ [ -98.594207763671903, 21.184150695800799 ], [ -98.539260864257798, 21.226791381835898 ], [ -98.502700805664105, 21.218320846557699 ], [ -98.508895874023395, 21.142158508300799 ], [ -98.525367736816406, 21.144189834594801 ], [ -98.548233032226506, 21.175920486450199 ], [ -98.588981628417997, 21.157819747924901 ], [ -98.594207763671903, 21.184150695800799 ] ] ] } },
{ "type": "Feature", "properties": { "NAME_1": "Hidalgo", "NAME_2": "Juárez Hidalgo" }, "geometry": { "type": "Polygon", "coordinates": [ [ [ -98.823867797851605, 20.903118133545 ], [ -98.7978515625, 20.911710739135799 ], [ -98.7869873046875, 20.906810760498001 ], [ -98.776931762695298, 20.865909576416101 ], [ -98.7528076171875, 20.823329925537099 ], [ -98.770187377929702, 20.815927505493299 ], [ -98.834671020507798, 20.812349319458001 ], [ -98.838157653808594, 20.826330184936602 ], [ -98.816238403320298, 20.863388061523601 ], [ -98.823867797851605, 20.903118133545 ] ] ] } },
{ "type": "Feature", "properties": { "NAME_1": "Hidalgo", "NAME_2": "La Misión" }, "geometry": { "type": "Polygon", "coordinates": [ [ [ -98.986106872558594, 21.033359527587901 ], [ -99.036308288574205, 21.018550872802798 ], [ -99.0240478515625, 21.004091262817401 ], [ -99.035400390625, 20.982791900634801 ], [ -99.048339843749901, 20.977769851684599 ], [ -99.048416137695298, 20.968370437621999 ], [ -99.076927185058494, 20.9952201843262 ], [ -99.0794677734375, 21.014240264892599 ], [ -99.096733093261705, 21.022050857543999 ], [ -99.104187011718807, 21.045648574829102 ], [ -99.143440246582003, 21.0878105163575 ], [ -99.152999877929702, 21.166030883789102 ], [ -99.109519958496094, 21.1680908203125 ], [ -99.089172363281193, 21.180540084838999 ], [ -99.041442871093693, 21.1763401031494 ], [ -99.010551452636705, 21.192090988159201 ], [ -99.006790161132798, 21.122949600219801 ], [ -98.998756408691406, 21.108289718627901 ], [ -99.002037048339801, 21.076461791992301 ], [ -98.987609863281193, 21.057420730590898 ], [ -98.986106872558594, 21.033359527587901 ] ] ] } },
{ "type": "Feature", "properties": { "NAME_1": "Hidalgo", "NAME_2": "Lolotla" }, "geometry": { "type": "Polygon", "coordinates": [ [ [ -98.590103149413906, 20.8975601196288 ], [ -98.642196655273395, 20.8507595062257 ], [ -98.644363403320298, 20.837781906128001 ], [ -98.713012695312401, 20.882150650024499 ], [ -98.716087341308594, 20.9018783569337 ], [ -98.689682006835895, 20.8979110717775 ], [ -98.677169799804602, 20.910770416259901 ], [ -98.730178833007798, 20.955600738525501 ], [ -98.756095886230497, 20.993181228637699 ], [ -98.737617492675696, 21.038999557495199 ], [ -98.746406555175696, 21.074621200561602 ], [ -98.741081237792997, 21.146770477294901 ], [ -98.733467102050795, 21.165521621704201 ], [ -98.716552734374901, 21.176441192626999 ], [ -98.718147277832003, 21.136600494384901 ], [ -98.672492980957003, 20.984331130981499 ], [ -98.641609191894503, 20.947761535644499 ], [ -98.594696044921903, 20.952711105346701 ], [ -98.577491760253807, 20.937402725219801 ], [ -98.573036193847699, 20.925989151001101 ], [ -98.590103149413906, 20.8975601196288 ] ] ] } },
{ "type": "Feature", "properties": { "NAME_1": "Hidalgo", "NAME_2": "Metepec" }, "geometry": { "type": "Polygon", "coordinates": [ [ [ -98.399696350097699, 20.291660308838001 ], [ -98.399116516113295, 20.351110458373999 ], [ -98.36572265625, 20.390638351440501 ], [ -98.338661193847699, 20.386680603027401 ], [ -98.314636230468807, 20.373050689697301 ], [ -98.292205810546903, 20.3140392303468 ], [ -98.271362304687401, 20.336460113525501 ], [ -98.260246276855497, 20.3378810882569 ], [ -98.266487121582003, 20.278728485107401 ], [ -98.256813049316406, 20.277450561523601 ], [ -98.229316711425696, 20.300119400024499 ], [ -98.221282958984304, 20.2670497894288 ], [ -98.198211669921804, 20.239442825317401 ], [ -98.21378326416, 20.204809188842798 ], [ -98.261810302734403, 20.1794109344482 ], [ -98.291130065917997, 20.214878082275401 ], [ -98.306945800781193, 20.209880828857401 ], [ -98.314941406249901, 20.225040435791101 ], [ -98.334320068359304, 20.2366619110107 ], [ -98.353431701660199, 20.2331275939943 ], [ -98.363021850585895, 20.242500305175799 ], [ -98.361473083495994, 20.289039611816499 ], [ -98.350692749023395, 20.314170837402301 ], [ -98.399696350097699, 20.291660308838001 ] ] ] } },
{ "type": "Feature", "properties": { "NAME_1": "Hidalgo", "NAME_2": "Metztitlán" }, "geometry": { "type": "Polygon", "coordinates": [ [ [ -98.624916076660199, 20.641059875488299 ], [ -98.640007019042997, 20.6309108734131 ], [ -98.634689331054702, 20.5878295898438 ], [ -98.640129089355497, 20.562261581420898 ], [ -98.615776062011705, 20.475959777832099 ], [ -98.603652954101605, 20.461839675903299 ], [ -98.604667663574205, 20.431470870971701 ], [ -98.633308410644503, 20.424240112304702 ], [ -98.663116455078097, 20.427919387817401 ], [ -98.682662963867202, 20.416610717773501 ], [ -98.742027282714801, 20.405452728271499 ], [ -98.749519348144503, 20.427650451660199 ], [ -98.768753051757798, 20.449871063232401 ], [ -98.823547363281193, 20.458740234375 ], [ -98.839218139648395, 20.480890274047901 ], [ -98.883537292480398, 20.488950729370199 ], [ -98.923995971679702, 20.524751663208001 ], [ -98.917877197265597, 20.656330108642699 ], [ -98.907127380371094, 20.72066116333 ], [ -98.907142639160199, 20.739059448242099 ], [ -98.917747497558594, 20.7516498565675 ], [ -98.852462768554702, 20.7399501800538 ], [ -98.760612487792898, 20.748399734497202 ], [ -98.738990783691406, 20.758991241455 ], [ -98.670066833496094, 20.7376499176025 ], [ -98.663841247558594, 20.7198696136475 ], [ -98.641731262207003, 20.7175102233887 ], [ -98.624916076660199, 20.641059875488299 ] ] ] } },
{ "type": "Feature", "properties": { "NAME_1": "Hidalgo", "NAME_2": "Mineral de la Reforma" }, "geometry": { "type": "Polygon", "coordinates": [ [ [ -98.636093139648395, 20.057010650634801 ], [ -98.619132995605497, 20.073230743408299 ], [ -98.589248657226605, 20.068750381469801 ], [ -98.595626831054602, 20.043180465698399 ], [ -98.6257705688475, 20.044309616088999 ], [ -98.636093139648395, 20.057010650634801 ] ] ] } },
{ "type": "Feature", "properties": { "NAME_1": "Hidalgo", "NAME_2": "Mineral del Chico" }, "geometry": { "type": "Polygon", "coordinates": [ [ [ -98.582580566406193, 20.184150695800799 ], [ -98.620903015136705, 20.192689895629901 ], [ -98.641242980957003, 20.1750392913818 ], [ -98.653152465820298, 20.197790145874102 ], [ -98.674728393554702, 20.203330993652301 ], [ -98.705642700195298, 20.126560211181602 ], [ -98.758132934570298, 20.189020156860501 ], [ -98.780426025390597, 20.200750350952301 ], [ -98.778816223144503, 20.241399765014599 ], [ -98.767662048339801, 20.2617702484132 ], [ -98.7734375, 20.2735099792481 ], [ -98.760955810546903, 20.302690505981602 ], [ -98.743461608886705, 20.304069519043001 ], [ -98.706016540527301, 20.286779403686499 ], [ -98.665702819824205, 20.308620452881001 ], [ -98.608757019042997, 20.2742099761963 ], [ -98.5921630859375, 20.273258209228501 ], [ -98.579261779785199, 20.241300582885799 ], [ -98.582580566406193, 20.184150695800799 ] ] ] } },
{ "type": "Feature", "properties": { "NAME_1": "Hidalgo", "NAME_2": "Mineral del Monte" }, "geometry": { "type": "Polygon", "coordinates": [ [ [ -98.636093139648395, 20.057010650634801 ], [ -98.651573181152301, 20.084079742431701 ], [ -98.625396728515597, 20.1124801635743 ], [ -98.641242980957003, 20.1750392913818 ], [ -98.620903015136705, 20.192689895629901 ], [ -98.582580566406193, 20.184150695800799 ], [ -98.573158264160199, 20.172019958496101 ], [ -98.576705932617202, 20.149379730224702 ], [ -98.569831848144503, 20.1214809417725 ], [ -98.584793090820298, 20.078718185424801 ], [ -98.589248657226605, 20.068750381469801 ], [ -98.626258850097699, 20.071239471435501 ], [ -98.636093139648395, 20.057010650634801 ] ] ] } },
{ "type": "Feature", "properties": { "NAME_1": "Hidalgo", "NAME_2": "Mixquiahuala de Juárez" }, "geometry": { "type": "Polygon", "coordinates": [ [ [ -99.122627258300696, 20.2021503448487 ], [ -99.154685974121094, 20.194700241088899 ], [ -99.183212280273395, 20.2193107604981 ], [ -99.182800292968693, 20.233060836791999 ], [ -99.201522827148395, 20.2618312835693 ], [ -99.173393249511705, 20.291490554809599 ], [ -99.162277221679602, 20.263950347900401 ], [ -99.128257751464801, 20.2576408386231 ], [ -99.121757507324205, 20.267770767211999 ], [ -99.119445800781193, 20.321069717407202 ], [ -99.104469299316406, 20.342781066894499 ], [ -99.079856872558594, 20.323400497436499 ], [ -99.068756103515597, 20.329339981079201 ], [ -99.053276062011705, 20.306991577148601 ], [ -99.056777954101605, 20.288690567016701 ], [ -99.083969116210895, 20.246248245239201 ], [ -99.122627258300696, 20.2021503448487 ] ] ] } },
{ "type": "Feature", "properties": { "NAME_1": "Hidalgo", "NAME_2": "Molango de Escamilla" }, "geometry": { "type": "Polygon", "coordinates": [ [ [ -98.7528076171875, 20.823329925537099 ], [ -98.793685913085895, 20.9115695953369 ], [ -98.861686706542898, 20.894620895385899 ], [ -98.877555847167997, 20.901420593261701 ], [ -98.892677307128807, 20.884651184081999 ], [ -98.895866394042997, 20.927330017089801 ], [ -98.884452819824205, 20.944129943847699 ], [ -98.871322631835895, 20.9434509277344 ], [ -98.863441467285199, 20.9603080749512 ], [ -98.841896057128906, 20.973449707031399 ], [ -98.756095886230497, 20.993181228637699 ], [ -98.730178833007798, 20.955600738525501 ], [ -98.677169799804602, 20.910770416259901 ], [ -98.689682006835895, 20.8979110717775 ], [ -98.716087341308594, 20.9018783569337 ], [ -98.713012695312401, 20.882150650024499 ], [ -98.644363403320298, 20.837781906128001 ], [ -98.664672851562401, 20.789911270141602 ], [ -98.670066833496094, 20.7376499176025 ], [ -98.744171142578097, 20.757520675659102 ], [ -98.7528076171875, 20.823329925537099 ] ] ] } },
{ "type": "Feature", "properties": { "NAME_1": "Hidalgo", "NAME_2": "Nicolás Flores" }, "geometry": { "type": "Polygon", "coordinates": [ [ [ -99.238426208496094, 20.768491744995199 ], [ -99.244079589843807, 20.803369522094801 ], [ -99.209640502929702, 20.827001571655298 ], [ -99.185821533203097, 20.882961273193501 ], [ -99.142860412597699, 20.888677597046001 ], [ -99.094406127929602, 20.872579574585 ], [ -99.049278259277301, 20.900739669799901 ], [ -99.044212341308494, 20.886051177978501 ], [ -99.033576965332003, 20.883050918579201 ], [ -99.038887023925696, 20.870670318603601 ], [ -99.084236145019503, 20.845270156860401 ], [ -99.087905883789006, 20.822790145873999 ], [ -99.1142578125, 20.7865600585937 ], [ -99.160736083984403, 20.7464294433594 ], [ -99.195220947265597, 20.773759841918999 ], [ -99.238426208496094, 20.768491744995199 ] ] ] } },
{ "type": "Feature", "properties": { "NAME_1": "Hidalgo", "NAME_2": "Nopala de Villagrán" }, "geometry": { "type": "Polygon", "coordinates": [ [ [ -99.523521423339801, 20.1703605651857 ], [ -99.700469970703097, 20.194740295410199 ], [ -99.755371093749901, 20.2315998077393 ], [ -99.809593200683594, 20.250310897827301 ], [ -99.862266540527301, 20.30721282959 ], [ -99.855621337890597, 20.3218383789063 ], [ -99.817497253417997, 20.3183002471925 ], [ -99.734909057617202, 20.338590621948299 ], [ -99.685668945312401, 20.311832427978601 ], [ -99.650367736816307, 20.316970825195298 ], [ -99.611160278320298, 20.2912197113037 ], [ -99.576972961425795, 20.285760879516602 ], [ -99.522567749023395, 20.193059921264702 ], [ -99.523521423339801, 20.1703605651857 ] ] ] } },
{ "type": "Feature", "properties": { "NAME_1": "Hidalgo", "NAME_2": "Omitlán de Juárez" }, "geometry": { "type": "Polygon", "coordinates": [ [ [ -98.582580566406193, 20.184150695800799 ], [ -98.579261779785199, 20.241300582885799 ], [ -98.5921630859375, 20.273258209228501 ], [ -98.561813354492202, 20.2922897338868 ], [ -98.558799743652301, 20.2684211730956 ], [ -98.532600402832003, 20.252540588378899 ], [ -98.530456542968807, 20.2427291870118 ], [ -98.551582336425795, 20.195310592651399 ], [ -98.553070068359304, 20.145290374755898 ], [ -98.504127502441406, 20.186809539794901 ], [ -98.491859436035099, 20.161209106445401 ], [ -98.494087219238295, 20.1232509613038 ], [ -98.540740966796903, 20.0907802581788 ], [ -98.551597595214801, 20.113330841064599 ], [ -98.570922851562401, 20.115140914916999 ], [ -98.573158264160199, 20.172019958496101 ], [ -98.582580566406193, 20.184150695800799 ] ] ] } },
{ "type": "Feature", "properties": { "NAME_1": "Hidalgo", "NAME_2": "Pachuca de Soto" }, "geometry": { "type": "Polygon", "coordinates": [ [ [ -98.743347167968693, 19.997810363769599 ], [ -98.727088928222699, 20.047941207885899 ], [ -98.751739501953097, 20.094720840454201 ], [ -98.750701904296804, 20.11137008667 ], [ -98.705642700195298, 20.126560211181602 ], [ -98.682395935058494, 20.1969108581543 ], [ -98.659782409667898, 20.2022304534913 ], [ -98.644599914550795, 20.1844291687012 ], [ -98.625846862792898, 20.117811203002901 ], [ -98.6298828125, 20.1054401397706 ], [ -98.651039123535099, 20.089349746704201 ], [ -98.636093139648395, 20.057010650634801 ], [ -98.671577453613295, 20.052230834960898 ], [ -98.683166503906193, 20.008468627929702 ], [ -98.703651428222599, 19.9834594726563 ], [ -98.728538513183594, 19.986568450927699 ], [ -98.743347167968693, 19.997810363769599 ] ] ] } },
{ "type": "Feature", "properties": { "NAME_1": "Hidalgo", "NAME_2": "Pacula" }, "geometry": { "type": "Polygon", "coordinates": [ [ [ -99.399810791015597, 20.955869674682699 ], [ -99.391830444335895, 21.010320663452202 ], [ -99.361351013183594, 21.0595207214356 ], [ -99.377082824707003, 21.0870094299318 ], [ -99.372177124023395, 21.100740432739201 ], [ -99.329933166503807, 21.123109817504901 ], [ -99.311607360839801, 21.154211044311602 ], [ -99.254318237304602, 21.128320693969801 ], [ -99.243415832519503, 21.104040145874102 ], [ -99.259986877441406, 21.058921813964801 ], [ -99.255187988281193, 20.994340896606399 ], [ -99.249130249023395, 20.979450225830199 ], [ -99.221443176269503, 20.9709796905518 ], [ -99.210395812988295, 20.9593029022218 ], [ -99.261062622070298, 20.924671173095799 ], [ -99.336341857910099, 20.912229537963899 ], [ -99.375686645507798, 20.9463119506837 ], [ -99.399810791015597, 20.955869674682699 ] ] ] } },
{ "type": "Feature", "properties": { "NAME_1": "Hidalgo", "NAME_2": "Pisaflores" }, "geometry": { "type": "Polygon", "coordinates": [ [ [ -99.089172363281193, 21.180540084838999 ], [ -99.044799804687401, 21.2724094390869 ], [ -99.042266845703097, 21.2938117980956 ], [ -98.974571228027301, 21.318822860717901 ], [ -98.943351745605497, 21.316038131713899 ], [ -98.920120239257798, 21.276609420776399 ], [ -98.907470703124901, 21.236320495605501 ], [ -98.948905944824205, 21.214189529419102 ], [ -98.984138488769503, 21.2076206207275 ], [ -99.034477233886705, 21.1781616210938 ], [ -99.089172363281193, 21.180540084838999 ] ] ] } },
{ "type": "Feature", "properties": { "NAME_1": "Hidalgo", "NAME_2": "Progreso de Obregón" }, "geometry": { "type": "Polygon", "coordinates": [ [ [ -99.122787475585895, 20.444700241088999 ], [ -99.099761962890597, 20.468389511108398 ], [ -99.073547363281193, 20.473632812500099 ], [ -99.043792724609403, 20.442710876464801 ], [ -99.048652648925795, 20.4199199676513 ], [ -99.081329345703097, 20.369211196899499 ], [ -99.113647460937401, 20.3373699188232 ], [ -99.122459411621094, 20.3066005706788 ], [ -99.121757507324205, 20.267770767211999 ], [ -99.133186340332003, 20.2556381225587 ], [ -99.162277221679602, 20.263950347900401 ], [ -99.173393249511705, 20.291490554809599 ], [ -99.164787292480398, 20.3107509613038 ], [ -99.163192749023395, 20.384992599487401 ], [ -99.122787475585895, 20.444700241088999 ] ] ] } },
{ "type": "Feature", "properties": { "NAME_1": "Hidalgo", "NAME_2": "San Agustín Metzquititlán" }, "geometry": { "type": "Polygon", "coordinates": [ [ [ -98.624916076660199, 20.641059875488299 ], [ -98.587196350097699, 20.6273212432862 ], [ -98.571762084960895, 20.6543998718262 ], [ -98.546218872070298, 20.656488418579201 ], [ -98.474388122558494, 20.604721069336001 ], [ -98.5045166015625, 20.529720306396602 ], [ -98.509071350097699, 20.4809799194337 ], [ -98.502487182617202, 20.457202911377099 ], [ -98.516418457031193, 20.447719573974599 ], [ -98.516532897949205, 20.4308490753175 ], [ -98.560211181640597, 20.398220062255898 ], [ -98.580062866210895, 20.396409988403299 ], [ -98.601310729980497, 20.420150756835898 ], [ -98.603652954101605, 20.461839675903299 ], [ -98.615776062011705, 20.475959777832099 ], [ -98.639656066894503, 20.5597229003907 ], [ -98.634689331054702, 20.5878295898438 ], [ -98.640716552734304, 20.627199172973601 ], [ -98.624916076660199, 20.641059875488299 ] ] ] } },
{ "type": "Feature", "properties": { "NAME_1": "Hidalgo", "NAME_2": "San Agustín Tlaxiaca" }, "geometry": { "type": "Polygon", "coordinates": [ [ [ -98.867286682128906, 20.1873512268068 ], [ -98.822029113769503, 20.184869766235401 ], [ -98.774597167968807, 20.199909210205199 ], [ -98.733230590820298, 20.163698196411101 ], [ -98.705642700195298, 20.126560211181602 ], [ -98.750701904296804, 20.11137008667 ], [ -98.751739501953097, 20.094720840454201 ], [ -98.727088928222699, 20.047941207885899 ], [ -98.743347167968693, 19.997810363769599 ], [ -98.807167053222699, 19.9923706054688 ], [ -98.821746826171804, 19.9987182617188 ], [ -98.842102050781193, 19.992559432983501 ], [ -98.847366333007798, 20.0578212738038 ], [ -98.875900268554602, 20.128080368042099 ], [ -98.867286682128906, 20.1873512268068 ] ] ] } },
{ "type": "Feature", "properties": { "NAME_1": "Hidalgo", "NAME_2": "San Bartolo Tutotepec" }, "geometry": { "type": "Polygon", "coordinates": [ [ [ -98.267112731933594, 20.437700271606602 ], [ -98.178779602050696, 20.530189514160298 ], [ -98.108757019042898, 20.560590744018601 ], [ -98.060333251953097, 20.609319686889599 ], [ -98.049247741699205, 20.604850769043001 ], [ -98.0323486328125, 20.564832687378001 ], [ -98.023040771484304, 20.588039398193501 ], [ -98.013916015625, 20.5853290557862 ], [ -98.004478454589801, 20.534492492675799 ], [ -98.039787292480497, 20.5274982452393 ], [ -98.060272216796903, 20.503940582275501 ], [ -98.049156188964801, 20.483049392700298 ], [ -98.091316223144503, 20.4605312347413 ], [ -98.113937377929702, 20.418758392333999 ], [ -98.146392822265597, 20.4233417510987 ], [ -98.167152404785199, 20.375190734863299 ], [ -98.193519592285199, 20.351070404052699 ], [ -98.222763061523395, 20.335800170898601 ], [ -98.259048461914006, 20.331480026245099 ], [ -98.261459350585895, 20.3774719238281 ], [ -98.245681762695298, 20.4164428710938 ], [ -98.267112731933594, 20.437700271606602 ] ] ] } },
{ "type": "Feature", "properties": { "NAME_1": "Hidalgo", "NAME_2": "San Felipe Orizatlán" }, "geometry": { "type": "Polygon", "coordinates": [ [ [ -98.594207763671903, 21.184150695800799 ], [ -98.623970031738295, 21.164970397949201 ], [ -98.677291870117202, 21.159288406372202 ], [ -98.674690246582003, 21.205350875854599 ], [ -98.689788818359403, 21.230350494384801 ], [ -98.711639404296903, 21.244970321655298 ], [ -98.703201293945298, 21.272830963134702 ], [ -98.658538818359403, 21.353479385376001 ], [ -98.603523254394503, 21.4121704101562 ], [ -98.509033203124901, 21.410671234130898 ], [ -98.487800598144503, 21.3638000488282 ], [ -98.507392883300696, 21.289619445800799 ], [ -98.495468139648395, 21.273380279541101 ], [ -98.519706726074205, 21.258529663086001 ], [ -98.553207397460895, 21.2121696472169 ], [ -98.594207763671903, 21.184150695800799 ] ] ] } },
{ "type": "Feature", "properties": { "NAME_1": "Hidalgo", "NAME_2": "San Salvador" }, "geometry": { "type": "Polygon", "coordinates": [ [ [ -98.869003295898395, 20.2188606262207 ], [ -98.947319030761705, 20.198368072509901 ], [ -98.985237121582003, 20.204280853271602 ], [ -98.996665954589801, 20.216600418090898 ], [ -99.010696411132798, 20.279960632324201 ], [ -99.023719787597599, 20.290739059448399 ], [ -99.056777954101605, 20.288690567016701 ], [ -99.054130554199205, 20.315160751342901 ], [ -99.068756103515597, 20.329339981079201 ], [ -98.9730224609375, 20.391609191894499 ], [ -98.953048706054602, 20.4009895324706 ], [ -98.935676574707003, 20.398769378662202 ], [ -98.913238525390597, 20.384799957275401 ], [ -98.931816101074205, 20.3331928253175 ], [ -98.929496765136705, 20.305599212646602 ], [ -98.894515991210795, 20.262331008911101 ], [ -98.8697509765625, 20.246910095215 ], [ -98.869003295898395, 20.2188606262207 ] ] ] } },
{ "type": "Feature", "properties": { "NAME_1": "Hidalgo", "NAME_2": "Santiago de Anaya" }, "geometry": { "type": "Polygon", "coordinates": [ [ [ -99.043792724609403, 20.442710876464801 ], [ -99.033836364745994, 20.4558811187744 ], [ -99.016197204589801, 20.455310821533299 ], [ -98.988136291503807, 20.4939498901368 ], [ -98.923995971679702, 20.524751663208001 ], [ -98.883537292480398, 20.488950729370199 ], [ -98.839218139648395, 20.480890274047901 ], [ -98.820793151855398, 20.457532882690401 ], [ -98.768753051757798, 20.449871063232401 ], [ -98.760955810546903, 20.4344005584718 ], [ -98.825897216796903, 20.392549514770501 ], [ -98.884429931640597, 20.377790451049801 ], [ -98.940696716308594, 20.4007282257081 ], [ -98.955917358398395, 20.400121688842798 ], [ -99.079856872558594, 20.323400497436499 ], [ -99.109321594238295, 20.3424301147462 ], [ -99.081329345703097, 20.369211196899499 ], [ -99.048652648925795, 20.4199199676513 ], [ -99.043792724609403, 20.442710876464801 ] ] ] } },
{ "type": "Feature", "properties": { "NAME_1": "Hidalgo", "NAME_2": "Santiago Tulantepec de Lugo Guerrero" }, "geometry": { "type": "Polygon", "coordinates": [ [ [ -98.348678588867202, 19.984939575195298 ], [ -98.357307434082003, 20.003711700439499 ], [ -98.3824462890625, 20.023900985717901 ], [ -98.398612976074205, 20.028770446777301 ], [ -98.417839050292898, 20.021520614623999 ], [ -98.4190673828125, 20.037879943847798 ], [ -98.401756286621094, 20.056310653686602 ], [ -98.325729370117102, 20.0740985870362 ], [ -98.309669494628906, 20.0670394897462 ], [ -98.282997131347599, 20.0378608703613 ], [ -98.289070129394503, 20.010391235351602 ], [ -98.306709289550795, 19.993249893188501 ], [ -98.348678588867202, 19.984939575195298 ] ] ] } },
{ "type": "Feature", "properties": { "NAME_1": "Hidalgo", "NAME_2": "Singuilucan" }, "geometry": { "type": "Polygon", "coordinates": [ [ [ -98.368400573730497, 19.920280456543001 ], [ -98.417572021484304, 19.9167003631593 ], [ -98.428146362304602, 19.865720748901399 ], [ -98.493072509765597, 19.867559432983398 ], [ -98.504997253417997, 19.888650894165 ], [ -98.499389648437401, 19.924989700317401 ], [ -98.540962219238196, 19.948312759399499 ], [ -98.524917602539105, 20.037370681762798 ], [ -98.503738403320298, 20.062940597534201 ], [ -98.523162841796903, 20.070970535278299 ], [ -98.540740966796903, 20.0907802581788 ], [ -98.500061035156193, 20.117401123046999 ], [ -98.470863342285099, 20.088750839233501 ], [ -98.413490295410199, 20.076192855835099 ], [ -98.401756286621094, 20.056310653686602 ], [ -98.414703369140597, 20.048692703247099 ], [ -98.419563293457003, 20.023332595825199 ], [ -98.398612976074205, 20.028770446777301 ], [ -98.3824462890625, 20.023900985717901 ], [ -98.357307434082003, 20.003711700439499 ], [ -98.348678588867202, 19.984939575195298 ], [ -98.368400573730497, 19.920280456543001 ] ] ] } },
{ "type": "Feature", "properties": { "NAME_1": "Hidalgo", "NAME_2": "Tasquillo" }, "geometry": { "type": "Polygon", "coordinates": [ [ [ -99.486480712890597, 20.486272811889801 ], [ -99.536659240722699, 20.515140533447301 ], [ -99.545455932617202, 20.533729553222699 ], [ -99.444557189941406, 20.6356506347657 ], [ -99.425582885742102, 20.619611740112202 ], [ -99.384689331054602, 20.611841201782301 ], [ -99.359970092773395, 20.598310470581101 ], [ -99.301139831542898, 20.629352569580099 ], [ -99.2586669921875, 20.626560211181701 ], [ -99.237922668457003, 20.643310546874901 ], [ -99.239006042480497, 20.585781097412202 ], [ -99.176567077636705, 20.5732307434082 ], [ -99.179992675781193, 20.564790725708001 ], [ -99.220008850097699, 20.548229217529201 ], [ -99.243080139160099, 20.5199928283693 ], [ -99.261398315429702, 20.509870529174901 ], [ -99.395187377929602, 20.5058994293213 ], [ -99.416389465332003, 20.494398117065501 ], [ -99.433891296386705, 20.5111598968506 ], [ -99.450523376464801, 20.512290954589801 ], [ -99.486480712890597, 20.486272811889801 ] ] ] } },
{ "type": "Feature", "properties": { "NAME_1": "Hidalgo", "NAME_2": "Tecozautla" }, "geometry": { "type": "Polygon", "coordinates": [ [ [ -99.839530944824205, 20.4732894897462 ], [ -99.822082519531193, 20.553501129150401 ], [ -99.758758544921903, 20.5719528198243 ], [ -99.722656249999901, 20.597690582275401 ], [ -99.690856933593807, 20.597480773925898 ], [ -99.605812072753906, 20.6243495941163 ], [ -99.545791625976605, 20.6573791503907 ], [ -99.509170532226605, 20.693710327148398 ], [ -99.476905822753807, 20.655570983886701 ], [ -99.445518493652301, 20.639560699463001 ], [ -99.545455932617202, 20.533729553222699 ], [ -99.536659240722699, 20.515140533447301 ], [ -99.486480712890597, 20.486272811889801 ], [ -99.488876342773395, 20.462358474731399 ], [ -99.537208557128906, 20.476539611816499 ], [ -99.563110351562401, 20.4675197601319 ], [ -99.555526733398395, 20.483390808105501 ], [ -99.586502075195199, 20.4911403656006 ], [ -99.605659484863196, 20.487409591674901 ], [ -99.614219665527301, 20.4729194641113 ], [ -99.655212402343807, 20.469360351562401 ], [ -99.689361572265597, 20.452939987182599 ], [ -99.7352294921875, 20.4918308258057 ], [ -99.740280151367202, 20.482851028442401 ], [ -99.724502563476605, 20.436521530151399 ], [ -99.729316711425795, 20.424089431762798 ], [ -99.745719909667997, 20.4550495147706 ], [ -99.800201416015597, 20.471128463745199 ], [ -99.820587158203097, 20.466680526733398 ], [ -99.839530944824205, 20.4732894897462 ] ] ] } },
{ "type": "Feature", "properties": { "NAME_1": "Hidalgo", "NAME_2": "Tenango de Doria" }, "geometry": { "type": "Polygon", "coordinates": [ [ [ -98.100532531738295, 20.354129791259801 ], [ -98.227203369140597, 20.302801132202099 ], [ -98.256813049316406, 20.277450561523601 ], [ -98.267372131347599, 20.280490875244102 ], [ -98.259048461914006, 20.331480026245099 ], [ -98.217720031738295, 20.337409973144499 ], [ -98.177246093749901, 20.3625106811525 ], [ -98.146392822265597, 20.4233417510987 ], [ -98.113937377929702, 20.418758392333999 ], [ -98.114723205566406, 20.404108047485401 ], [ -98.073898315429702, 20.4280605316163 ], [ -98.076927185058494, 20.401170730590799 ], [ -98.068626403808494, 20.388820648193398 ], [ -98.100532531738295, 20.354129791259801 ] ] ] } },
{ "type": "Feature", "properties": { "NAME_1": "Hidalgo", "NAME_2": "Tepeapulco" }, "geometry": { "type": "Polygon", "coordinates": [ [ [ -98.619316101074205, 19.7262897491456 ], [ -98.609100341796903, 19.760871887207099 ], [ -98.579696655273395, 19.752729415893501 ], [ -98.555526733398395, 19.759828567505 ], [ -98.520599365234403, 19.802120208740199 ], [ -98.446876525878906, 19.865209579467901 ], [ -98.4259033203125, 19.867679595947401 ], [ -98.417572021484304, 19.9167003631593 ], [ -98.350067138671903, 19.9151000976562 ], [ -98.387916564941307, 19.867990493774499 ], [ -98.373176574707003, 19.818050384521602 ], [ -98.456199645995994, 19.758308410644499 ], [ -98.457015991210895, 19.738702774047798 ], [ -98.495750427245994, 19.703718185424801 ], [ -98.508049011230497, 19.696561813354499 ], [ -98.523887634277301, 19.710720062255799 ], [ -98.569625854492202, 19.72825050354 ], [ -98.598236083984403, 19.718290328979499 ], [ -98.619316101074205, 19.7262897491456 ] ] ] } },
{ "type": "Feature", "properties": { "NAME_1": "Hidalgo", "NAME_2": "Tepehuacán de Guerrero" }, "geometry": { "type": "Polygon", "coordinates": [ [ [ -98.756095886230497, 20.993181228637699 ], [ -98.841896057128906, 20.973449707031399 ], [ -98.863441467285199, 20.9603080749512 ], [ -98.871322631835895, 20.9434509277344 ], [ -98.884452819824205, 20.944129943847699 ], [ -98.895866394042997, 20.927330017089801 ], [ -98.919548034667997, 20.96928024292 ], [ -98.924751281738295, 21.0229301452638 ], [ -98.970565795898395, 21.025537490844801 ], [ -98.965248107910099, 21.0383605957031 ], [ -98.939659118652301, 21.0449504852294 ], [ -98.919387817382798, 21.067590713501001 ], [ -98.878837585449205, 21.1373500823975 ], [ -98.869873046875, 21.1686916351319 ], [ -98.837165832519503, 21.169519424438501 ], [ -98.826103210449205, 21.189939498901399 ], [ -98.805038452148395, 21.196439743041999 ], [ -98.764366149902301, 21.256111145019599 ], [ -98.768798828124901, 21.2794208526612 ], [ -98.761360168457003, 21.285631179809599 ], [ -98.724906921386705, 21.2341709136963 ], [ -98.729499816894503, 21.218839645385799 ], [ -98.715759277343807, 21.180791854858398 ], [ -98.734725952148395, 21.163921356201101 ], [ -98.741081237792997, 21.146770477294901 ], [ -98.746406555175696, 21.074621200561602 ], [ -98.737617492675696, 21.038999557495199 ], [ -98.756095886230497, 20.993181228637699 ] ] ] } },
{ "type": "Feature", "properties": { "NAME_1": "Hidalgo", "NAME_2": "Tepeji del Río de Ocampo" }, "geometry": { "type": "Polygon", "coordinates": [ [ [ -99.186500549316307, 19.844461441040099 ], [ -99.219421386718693, 19.805231094360501 ], [ -99.302818298339801, 19.845251083373999 ], [ -99.300582885742102, 19.7924709320069 ], [ -99.311096191406193, 19.758621215820401 ], [ -99.330329895019503, 19.736291885376001 ], [ -99.359382629394503, 19.721229553222699 ], [ -99.364570617675696, 19.727279663085898 ], [ -99.355583190917898, 19.815322875976701 ], [ -99.370773315429602, 19.841302871704201 ], [ -99.371177673339801, 19.866050720215 ], [ -99.402282714843807, 19.894750595092798 ], [ -99.412307739257798, 19.938270568847699 ], [ -99.453826904296804, 19.970529556274499 ], [ -99.458961486816307, 19.998630523681701 ], [ -99.439216613769503, 20.0146808624269 ], [ -99.435096740722699, 20.029649734497099 ], [ -99.411682128906193, 20.005689620971701 ], [ -99.380836486816406, 20.000129699707099 ], [ -99.315872192382798, 20.0129299163818 ], [ -99.273193359374901, 19.973489761352699 ], [ -99.224456787109304, 20.00710105896 ], [ -99.204490661621094, 19.971460342407202 ], [ -99.214675903320298, 19.929708480835099 ], [ -99.177352905273395, 19.881330490112301 ], [ -99.186500549316307, 19.844461441040099 ] ] ] } },
{ "type": "Feature", "properties": { "NAME_1": "Hidalgo", "NAME_2": "Tepetitlán" }, "geometry": { "type": "Polygon", "coordinates": [ [ [ -99.328056335449105, 20.185319900512798 ], [ -99.334457397460895, 20.176540374755898 ], [ -99.369293212890597, 20.169439315796001 ], [ -99.434158325195298, 20.178180694580199 ], [ -99.464912414550795, 20.192621231079201 ], [ -99.415946960449205, 20.256509780883899 ], [ -99.399375915527301, 20.272861480712901 ], [ -99.383232116699205, 20.276849746704201 ], [ -99.329307556152301, 20.2688808441162 ], [ -99.328056335449105, 20.185319900512798 ] ] ] } },
{ "type": "Feature", "properties": { "NAME_1": "Hidalgo", "NAME_2": "Tetepango" }, "geometry": { "type": "Polygon", "coordinates": [ [ [ -99.090888977050795, 20.105741500854599 ], [ -99.144187927245994, 20.123109817504901 ], [ -99.145980834960895, 20.143030166626101 ], [ -99.133872985839801, 20.176010131835898 ], [ -99.099319458007798, 20.152170181274499 ], [ -99.068550109863196, 20.146390914917099 ], [ -99.071708679199105, 20.127759933471701 ], [ -99.090888977050795, 20.105741500854599 ] ] ] } },
{ "type": "Feature", "properties": { "NAME_1": "Hidalgo", "NAME_2": "Tezontepec de Aldama" }, "geometry": { "type": "Polygon", "coordinates": [ [ [ -99.183212280273395, 20.2193107604981 ], [ -99.201606750488295, 20.178230285644599 ], [ -99.188537597656193, 20.138320922851602 ], [ -99.230583190917898, 20.105100631713899 ], [ -99.295631408691307, 20.172082901001001 ], [ -99.328056335449105, 20.185319900512798 ], [ -99.329307556152301, 20.2688808441162 ], [ -99.264862060546903, 20.276332855224702 ], [ -99.209457397460895, 20.264619827270501 ], [ -99.186622619628807, 20.2406196594238 ], [ -99.183212280273395, 20.2193107604981 ] ] ] } },
{ "type": "Feature", "properties": { "NAME_1": "Hidalgo", "NAME_2": "Tianguistengo" }, "geometry": { "type": "Polygon", "coordinates": [ [ [ -98.386398315429602, 20.8219108581544 ], [ -98.422958374023395, 20.7919006347656 ], [ -98.435882568359304, 20.759241104126001 ], [ -98.463546752929602, 20.732160568237301 ], [ -98.504928588867102, 20.7451896667481 ], [ -98.550582885742202, 20.706100463867202 ], [ -98.564842224121094, 20.726570129394599 ], [ -98.597900390624901, 20.739261627197301 ], [ -98.595352172851605, 20.770570755005 ], [ -98.612968444824205, 20.792020797729599 ], [ -98.594146728515597, 20.821720123291101 ], [ -98.577331542968807, 20.831079483032202 ], [ -98.535430908203097, 20.8243827819825 ], [ -98.53662109375, 20.855470657348601 ], [ -98.513160705566406, 20.869340896606602 ], [ -98.517005920410199, 20.9060802459718 ], [ -98.480712890624901, 20.925859451293899 ], [ -98.461570739746094, 20.923709869384801 ], [ -98.436965942382798, 20.935159683227699 ], [ -98.406509399414006, 20.879989624023601 ], [ -98.402511596679602, 20.843940734863398 ], [ -98.386398315429602, 20.8219108581544 ] ] ] } },
{ "type": "Feature", "properties": { "NAME_1": "Hidalgo", "NAME_2": "Tizayuca" }, "geometry": { "type": "Polygon", "coordinates": [ [ [ -98.848030090332003, 19.803068161010899 ], [ -98.866371154785099, 19.768840789795 ], [ -98.897026062011705, 19.7431926727294 ], [ -98.921180725097699, 19.7006111145019 ], [ -98.949661254882798, 19.7057304382325 ], [ -98.954406738281094, 19.75465965271 ], [ -98.984596252441406, 19.805149078369102 ], [ -98.982910156249901, 19.826339721679801 ], [ -98.942161560058594, 19.850610733032301 ], [ -98.884452819824205, 19.855899810791001 ], [ -98.848030090332003, 19.803068161010899 ] ] ] } },
{ "type": "Feature", "properties": { "NAME_1": "Hidalgo", "NAME_2": "Tlahuelilpan" }, "geometry": { "type": "Polygon", "coordinates": [ [ [ -99.144187927245994, 20.123109817504901 ], [ -99.188537597656193, 20.138320922851602 ], [ -99.201606750488295, 20.178230285644599 ], [ -99.183212280273395, 20.2193107604981 ], [ -99.133872985839801, 20.176010131835898 ], [ -99.145980834960895, 20.143030166626101 ], [ -99.144187927245994, 20.123109817504901 ] ] ] } },
{ "type": "Feature", "properties": { "NAME_1": "Hidalgo", "NAME_2": "Tlahuiltepa" }, "geometry": { "type": "Polygon", "coordinates": [ [ [ -99.049278259277301, 20.900739669799901 ], [ -99.058982849121094, 20.925508499145501 ], [ -99.048339843749901, 20.977769851684599 ], [ -99.035400390625, 20.982791900634801 ], [ -99.0240478515625, 21.004091262817401 ], [ -99.036308288574205, 21.018550872802798 ], [ -98.986106872558594, 21.033359527587901 ], [ -98.960182189941406, 21.023229598998999 ], [ -98.924751281738295, 21.0229301452638 ], [ -98.919548034667997, 20.96928024292 ], [ -98.895866394042997, 20.927330017089801 ], [ -98.891777038574205, 20.888860702514702 ], [ -98.899116516113295, 20.877050399780401 ], [ -98.956489562988196, 20.853298187255898 ], [ -98.981117248535199, 20.856758117675799 ], [ -99.003189086914105, 20.847288131713899 ], [ -99.016441345214801, 20.856861114501999 ], [ -99.023956298828097, 20.877759933471701 ], [ -99.044212341308494, 20.886051177978501 ], [ -99.049278259277301, 20.900739669799901 ] ] ] } },
{ "type": "Feature", "properties": { "NAME_1": "Hidalgo", "NAME_2": "Tlanalapa" }, "geometry": { "type": "Polygon", "coordinates": [ [ [ -98.609100341796903, 19.760871887207099 ], [ -98.613098144531193, 19.813568115234499 ], [ -98.579566955566406, 19.8130207061768 ], [ -98.566467285156193, 19.829099655151399 ], [ -98.490707397460895, 19.866590499877901 ], [ -98.446876525878906, 19.865209579467901 ], [ -98.520599365234403, 19.802120208740199 ], [ -98.555526733398395, 19.759828567505 ], [ -98.579696655273395, 19.752729415893501 ], [ -98.609100341796903, 19.760871887207099 ] ] ] } },
{ "type": "Feature", "properties": { "NAME_1": "Hidalgo", "NAME_2": "Tlanchinol" }, "geometry": { "type": "Polygon", "coordinates": [ [ [ -98.541931152343693, 20.975099563598601 ], [ -98.570930480957003, 20.968441009521499 ], [ -98.601310729980497, 20.950122833251999 ], [ -98.636566162109403, 20.946590423583999 ], [ -98.672492980957003, 20.984331130981499 ], [ -98.719329833984403, 21.143480300903299 ], [ -98.715759277343807, 21.180791854858398 ], [ -98.729957580566406, 21.223188400268601 ], [ -98.711639404296903, 21.244970321655298 ], [ -98.689788818359403, 21.230350494384801 ], [ -98.674690246582003, 21.205350875854599 ], [ -98.677291870117202, 21.159288406372202 ], [ -98.623970031738295, 21.164970397949201 ], [ -98.556739807128906, 21.085508346557699 ], [ -98.537086486816406, 21.101640701294102 ], [ -98.518829345703097, 21.079940795898398 ], [ -98.477378845214702, 21.0724906921387 ], [ -98.539726257324205, 20.989580154418899 ], [ -98.541931152343693, 20.975099563598601 ] ] ] } },
{ "type": "Feature", "properties": { "NAME_1": "Hidalgo", "NAME_2": "Tlaxcoapan" }, "geometry": { "type": "Polygon", "coordinates": [ [ [ -99.204376220703097, 20.078111648559599 ], [ -99.230583190917898, 20.105100631713899 ], [ -99.188537597656193, 20.138320922851602 ], [ -99.090888977050795, 20.105741500854599 ], [ -99.109481811523395, 20.087350845336999 ], [ -99.156097412109304, 20.0839328765869 ], [ -99.187683105468807, 20.073040008545 ], [ -99.204376220703097, 20.078111648559599 ] ] ] } },
{ "type": "Feature", "properties": { "NAME_1": "Hidalgo", "NAME_2": "Tolcayuca" }, "geometry": { "type": "Polygon", "coordinates": [ [ [ -98.834159851074205, 19.908060073852699 ], [ -98.808181762695298, 19.8607196807862 ], [ -98.848030090332003, 19.803068161010899 ], [ -98.879013061523395, 19.8526706695557 ], [ -98.905456542968693, 19.855802536010799 ], [ -98.893539428710895, 19.939140319824201 ], [ -98.871856689453097, 19.973182678222699 ], [ -98.850723266601506, 19.970880508422901 ], [ -98.834159851074205, 19.908060073852699 ] ] ] } },
{ "type": "Feature", "properties": { "NAME_1": "Hidalgo", "NAME_2": "Tula de Allende" }, "geometry": { "type": "Polygon", "coordinates": [ [ [ -99.435096740722699, 20.029649734497099 ], [ -99.481597900390497, 20.101390838623001 ], [ -99.4962158203125, 20.143421173095799 ], [ -99.483886718749901, 20.191370010376001 ], [ -99.460609436035099, 20.1927795410157 ], [ -99.434158325195298, 20.178180694580199 ], [ -99.369293212890597, 20.169439315796001 ], [ -99.334457397460895, 20.176540374755898 ], [ -99.328056335449105, 20.185319900512798 ], [ -99.305046081542898, 20.177930831909201 ], [ -99.205940246582003, 20.081310272216701 ], [ -99.196983337402301, 20.0377807617188 ], [ -99.224456787109304, 20.00710105896 ], [ -99.273193359374901, 19.973489761352699 ], [ -99.315872192382798, 20.0129299163818 ], [ -99.380836486816406, 20.000129699707099 ], [ -99.411682128906193, 20.005689620971701 ], [ -99.435096740722699, 20.029649734497099 ] ] ] } },
{ "type": "Feature", "properties": { "NAME_1": "Hidalgo", "NAME_2": "Tulancingo de Bravo" }, "geometry": { "type": "Polygon", "coordinates": [ [ [ -98.429000854492102, 20.081140518188501 ], [ -98.390678405761705, 20.124729156494201 ], [ -98.337982177734403, 20.146110534668001 ], [ -98.310173034667898, 20.216030120849599 ], [ -98.305076599121094, 20.2093105316163 ], [ -98.291130065917997, 20.214878082275401 ], [ -98.261810302734403, 20.1794109344482 ], [ -98.264572143554702, 20.152511596679801 ], [ -98.1890869140625, 20.165920257568398 ], [ -98.166976928710895, 20.106319427490199 ], [ -98.204612731933494, 20.092760086059599 ], [ -98.247398376464801, 20.1049003601075 ], [ -98.267066955566307, 20.0684108734131 ], [ -98.285102844238196, 20.066289901733299 ], [ -98.298629760742102, 20.054630279541001 ], [ -98.325729370117102, 20.0740985870362 ], [ -98.401756286621094, 20.056310653686602 ], [ -98.413490295410199, 20.076192855835099 ], [ -98.429000854492102, 20.081140518188501 ] ] ] } },
{ "type": "Feature", "properties": { "NAME_1": "Hidalgo", "NAME_2": "Villa de Tezontepec" }, "geometry": { "type": "Polygon", "coordinates": [ [ [ -98.675628662109304, 19.8261203765869 ], [ -98.788276672363196, 19.806850433349599 ], [ -98.839538574218807, 19.8066005706788 ], [ -98.808181762695298, 19.8607196807862 ], [ -98.834159851074205, 19.908060073852699 ], [ -98.786026000976605, 19.895040512085 ], [ -98.754112243652301, 19.936212539672901 ], [ -98.740821838378906, 19.93510055542 ], [ -98.702423095703097, 19.898229598999102 ], [ -98.683036804199205, 19.893861770629901 ], [ -98.670455932617202, 19.842939376831001 ], [ -98.675628662109304, 19.8261203765869 ] ] ] } },
{ "type": "Feature", "properties": { "NAME_1": "Hidalgo", "NAME_2": "Xochiatipan" }, "geometry": { "type": "Polygon", "coordinates": [ [ [ -98.246406555175795, 20.818330764770501 ], [ -98.313285827636705, 20.873781204223601 ], [ -98.327476501464801, 20.87260055542 ], [ -98.373886108398395, 20.833421707153398 ], [ -98.381942749023395, 20.903511047363299 ], [ -98.345046997070298, 20.909259796142699 ], [ -98.325820922851506, 20.890691757202099 ], [ -98.278831481933594, 20.912229537963899 ], [ -98.249992370605398, 20.945440292358398 ], [ -98.221450805664105, 20.946872711181602 ], [ -98.199043273925795, 20.935159683227699 ], [ -98.2093505859375, 20.892780303955099 ], [ -98.187179565429702, 20.8531818389893 ], [ -98.188819885253906, 20.8355102539063 ], [ -98.246406555175795, 20.818330764770501 ] ] ] } },
{ "type": "Feature", "properties": { "NAME_1": "Hidalgo", "NAME_2": "Xochicoatlán" }, "geometry": { "type": "Polygon", "coordinates": [ [ [ -98.644363403320298, 20.837781906128001 ], [ -98.642196655273395, 20.8507595062257 ], [ -98.607200622558594, 20.877260208129901 ], [ -98.594268798828097, 20.897262573242202 ], [ -98.565689086913906, 20.896570205688501 ], [ -98.520973205566406, 20.920761108398501 ], [ -98.488662719726605, 20.927829742431602 ], [ -98.517005920410199, 20.9060802459718 ], [ -98.513160705566406, 20.869340896606602 ], [ -98.53662109375, 20.855470657348601 ], [ -98.535430908203097, 20.8243827819825 ], [ -98.577331542968807, 20.831079483032202 ], [ -98.594146728515597, 20.821720123291101 ], [ -98.612106323242102, 20.794361114501999 ], [ -98.595352172851605, 20.770570755005 ], [ -98.597900390624901, 20.739261627197301 ], [ -98.660217285156193, 20.717861175537099 ], [ -98.669906616210895, 20.728599548339801 ], [ -98.666389465332003, 20.779029846191499 ], [ -98.644363403320298, 20.837781906128001 ] ] ] } },
{ "type": "Feature", "properties": { "NAME_1": "Hidalgo", "NAME_2": "Yahualica" }, "geometry": { "type": "Polygon", "coordinates": [ [ [ -98.373886108398395, 20.833421707153398 ], [ -98.386398315429602, 20.8219108581544 ], [ -98.395973205566406, 20.832309722900401 ], [ -98.406509399414006, 20.879989624023601 ], [ -98.428512573242202, 20.918729782104499 ], [ -98.423858642578097, 20.996271133422901 ], [ -98.386016845702997, 21.010501861572301 ], [ -98.294677734375, 21.021430969238299 ], [ -98.30029296875, 21.00101852417 ], [ -98.272872924804702, 20.9801006317138 ], [ -98.249992370605398, 20.945440292358398 ], [ -98.260917663574205, 20.925830841064599 ], [ -98.305740356445298, 20.895811080932599 ], [ -98.325820922851506, 20.890691757202099 ], [ -98.350532531738196, 20.9103507995606 ], [ -98.381942749023395, 20.903511047363299 ], [ -98.373886108398395, 20.833421707153398 ] ] ] } },
{ "type": "Feature", "properties": { "NAME_1": "Hidalgo", "NAME_2": "Zacualtipán de Angeles" }, "geometry": { "type": "Polygon", "coordinates": [ [ [ -98.643539428710895, 20.721321105956999 ], [ -98.597900390624901, 20.739261627197301 ], [ -98.564842224121094, 20.726570129394599 ], [ -98.550582885742202, 20.706100463867202 ], [ -98.504928588867102, 20.7451896667481 ], [ -98.463546752929602, 20.732160568237301 ], [ -98.474388122558494, 20.604721069336001 ], [ -98.546218872070298, 20.656488418579201 ], [ -98.571762084960895, 20.6543998718262 ], [ -98.587196350097699, 20.6273212432862 ], [ -98.624916076660199, 20.641059875488299 ], [ -98.643539428710895, 20.721321105956999 ] ] ] } },
{ "type": "Feature", "properties": { "NAME_1": "Hidalgo", "NAME_2": "Zapotlán de Juárez" }, "geometry": { "type": "Polygon", "coordinates": [ [ [ -98.709793090820298, 19.981500625610501 ], [ -98.786026000976605, 19.895040512085 ], [ -98.834159851074205, 19.908060073852699 ], [ -98.850723266601506, 19.970880508422901 ], [ -98.842102050781193, 19.992559432983501 ], [ -98.821746826171804, 19.9987182617188 ], [ -98.807167053222699, 19.9923706054688 ], [ -98.743347167968693, 19.997810363769599 ], [ -98.709793090820298, 19.981500625610501 ] ] ] } },
{ "type": "Feature", "properties": { "NAME_1": "Hidalgo", "NAME_2": "Zempoala" }, "geometry": { "type": "Polygon", "coordinates": [ [ [ -98.754112243652301, 19.936212539672901 ], [ -98.682083129882798, 20.0124816894532 ], [ -98.646530151367102, 19.9628810882569 ], [ -98.635070800781193, 19.9333400726319 ], [ -98.567657470703097, 19.9426498413087 ], [ -98.552047729492102, 19.962009429931701 ], [ -98.541519165039105, 19.962938308715898 ], [ -98.540191650390597, 19.9440002441407 ], [ -98.499389648437401, 19.924989700317401 ], [ -98.504997253417997, 19.888650894165 ], [ -98.490707397460895, 19.866590499877901 ], [ -98.566467285156193, 19.829099655151399 ], [ -98.579566955566406, 19.8130207061768 ], [ -98.613098144531193, 19.813568115234499 ], [ -98.620567321777301, 19.8283405303956 ], [ -98.672752380370994, 19.826908111572301 ], [ -98.683036804199205, 19.893861770629901 ], [ -98.698646545410199, 19.895910263061602 ], [ -98.731475830078097, 19.929380416870099 ], [ -98.754112243652301, 19.936212539672901 ] ] ] } },
{ "type": "Feature", "properties": { "NAME_1": "Hidalgo", "NAME_2": "Zimapán" }, "geometry": { "type": "Polygon", "coordinates": [ [ [ -99.237922668457003, 20.643310546874901 ], [ -99.2586669921875, 20.626560211181701 ], [ -99.293922424316406, 20.631420135498001 ], [ -99.337066650390597, 20.604751586914201 ], [ -99.370140075683594, 20.599910736084102 ], [ -99.384689331054602, 20.611841201782301 ], [ -99.425582885742102, 20.619611740112202 ], [ -99.442871093749901, 20.629230499267599 ], [ -99.450912475585895, 20.647119522094801 ], [ -99.476905822753807, 20.655570983886701 ], [ -99.538986206054602, 20.741580963134901 ], [ -99.537986755371094, 20.760620117187401 ], [ -99.492256164550696, 20.8566703796387 ], [ -99.478668212890597, 20.869268417358501 ], [ -99.442092895507798, 20.876342773437599 ], [ -99.413459777832003, 20.917800903320298 ], [ -99.399810791015597, 20.955869674682699 ], [ -99.375686645507798, 20.9463119506837 ], [ -99.336341857910099, 20.912229537963899 ], [ -99.261062622070298, 20.924671173095799 ], [ -99.210395812988295, 20.9593029022218 ], [ -99.194618225097599, 20.9487609863282 ], [ -99.176551818847699, 20.919870376586999 ], [ -99.145011901855398, 20.8980808258057 ], [ -99.142860412597699, 20.888677597046001 ], [ -99.192817687988196, 20.877691268920898 ], [ -99.209640502929702, 20.827001571655298 ], [ -99.244079589843807, 20.803369522094801 ], [ -99.237960815429702, 20.766429901123001 ], [ -99.245979309082003, 20.698480606078999 ], [ -99.234840393066406, 20.664260864257901 ], [ -99.237922668457003, 20.643310546874901 ] ] ] } }
]
}
