{
"type": "FeatureCollection",
"name": "morelos",
"crs": { "type": "name", "properties": { "name": "urn:ogc:def:crs:OGC:1.3:CRS84" } },
"features": [
{ "type": "Feature", "properties": { "NAME_1": "Morelos", "NAME_2": "Amacuzac" }, "geometry": { "type": "Polygon", "coordinates": [ [ [ -99.450813293457003, 18.605960845947401 ], [ -99.445053100585895, 18.618200302124102 ], [ -99.388359069824205, 18.6320705413819 ], [ -99.363067626953097, 18.648469924926701 ], [ -99.304733276367202, 18.622390747070401 ], [ -99.290077209472599, 18.630582809448399 ], [ -99.234016418457003, 18.6273593902588 ], [ -99.265823364257798, 18.593549728393601 ], [ -99.263603210449205, 18.578010559082099 ], [ -99.275047302246094, 18.561090469360501 ], [ -99.245521545410199, 18.565479278564499 ], [ -99.243309020996094, 18.559200286865298 ], [ -99.256950378417997, 18.5524005889893 ], [ -99.250053405761705, 18.5346908569337 ], [ -99.281791687011705, 18.526880264282301 ], [ -99.289947509765597, 18.5429801940919 ], [ -99.300117492675795, 18.54301071167 ], [ -99.306121826171804, 18.513349533081101 ], [ -99.322471618652301, 18.504560470581001 ], [ -99.352142333984403, 18.551691055297901 ], [ -99.388870239257798, 18.579339981079201 ], [ -99.469711303710895, 18.577671051025401 ], [ -99.470558166503906, 18.586931228637699 ], [ -99.450813293457003, 18.605960845947401 ] ] ] } },
{ "type": "Feature", "properties": { "NAME_1": "Morelos", "NAME_2": "Atlatlahucan" }, "geometry": { "type": "Polygon", "coordinates": [ [ [ -98.914726257324205, 18.8749904632568 ], [ -98.885246276855398, 18.8960475921631 ], [ -98.900581359863295, 18.905950546264702 ], [ -98.941177368164105, 18.905559539795 ], [ -98.928520202636705, 18.922872543335 ], [ -98.894836425781193, 18.939701080322301 ], [ -98.879470825195298, 18.961389541626001 ], [ -98.850776672363295, 18.962430953979499 ], [ -98.792251586914006, 18.9823398590088 ], [ -98.746307373046804, 18.966751098632798 ], [ -98.803855895996094, 18.913610458374102 ], [ -98.851356506347699, 18.899240493774499 ], [ -98.862052917480497, 18.868360519409201 ], [ -98.881629943847599, 18.845701217651399 ], [ -98.899665832519403, 18.851911544799801 ], [ -98.914726257324205, 18.8749904632568 ] ] ] } },
{ "type": "Feature", "properties": { "NAME_1": "Morelos", "NAME_2": "Axochiapan" }, "geometry": { "type": "Polygon", "coordinates": [ [ [ -98.632736206054702, 18.584659576416001 ], [ -98.604476928710895, 18.470239639282301 ], [ -98.614212036132798, 18.4453525543213 ], [ -98.628196716308594, 18.4339103698732 ], [ -98.643280029296903, 18.439388275146499 ], [ -98.729415893554602, 18.527549743652301 ], [ -98.749282836914105, 18.534469604492202 ], [ -98.740188598632798, 18.5954704284669 ], [ -98.722618103027301, 18.609619140625099 ], [ -98.702377319335895, 18.6097812652588 ], [ -98.632736206054702, 18.584659576416001 ] ] ] } },
{ "type": "Feature", "properties": { "NAME_1": "Morelos", "NAME_2": "Ayala" }, "geometry": { "type": "Polygon", "coordinates": [ [ [ -98.973503112792997, 18.588619232177699 ], [ -98.932250976562401, 18.663700103759801 ], [ -98.974311828613196, 18.6580905914307 ], [ -99.008941650390597, 18.673469543456999 ], [ -99.015792846679602, 18.708208084106399 ], [ -99.007080078125, 18.7299194335938 ], [ -99.022621154785199, 18.7617797851562 ], [ -99.010940551757798, 18.7824306488038 ], [ -98.983970642089702, 18.772790908813601 ], [ -98.973541259765597, 18.785100936889801 ], [ -98.931472778320298, 18.786809921264801 ], [ -98.912948608398395, 18.770402908325199 ], [ -98.894882202148395, 18.773719787597798 ], [ -98.858581542968807, 18.751550674438501 ], [ -98.845413208007798, 18.779260635376101 ], [ -98.801200866699205, 18.765399932861399 ], [ -98.780006408691406, 18.744729995727599 ], [ -98.793426513671804, 18.711811065673899 ], [ -98.787101745605398, 18.677700042724599 ], [ -98.817771911621094, 18.665311813354599 ], [ -98.856086730957003, 18.662969589233501 ], [ -98.892227172851406, 18.641630172729499 ], [ -98.898986816406193, 18.6149997711182 ], [ -98.915122985839801, 18.592269897461001 ], [ -98.919647216796903, 18.562311172485401 ], [ -98.948326110839801, 18.566270828246999 ], [ -98.971122741699205, 18.550880432128999 ], [ -98.973503112792997, 18.588619232177699 ] ] ] } },
{ "type": "Feature", "properties": { "NAME_1": "Morelos", "NAME_2": "Coatlán del Río" }, "geometry": { "type": "Polygon", "coordinates": [ [ [ -99.338493347167997, 18.724189758300799 ], [ -99.370880126953097, 18.7061290740968 ], [ -99.402259826660199, 18.661359786987301 ], [ -99.444396972656193, 18.6279392242432 ], [ -99.449287414550795, 18.646158218383899 ], [ -99.464836120605497, 18.6614494323732 ], [ -99.459167480468693, 18.685749053955099 ], [ -99.451896667480497, 18.704450607299702 ], [ -99.405708312988295, 18.755388259887798 ], [ -99.382858276367102, 18.765569686889702 ], [ -99.359786987304602, 18.7357406616212 ], [ -99.338493347167997, 18.724189758300799 ] ] ] } },
{ "type": "Feature", "properties": { "NAME_1": "Morelos", "NAME_2": "Cuautla" }, "geometry": { "type": "Polygon", "coordinates": [ [ [ -98.872222900390597, 18.855430603027301 ], [ -98.859863281249901, 18.847959518432699 ], [ -98.826736450195298, 18.8475017547607 ], [ -98.829017639160199, 18.818622589111399 ], [ -98.855857849120994, 18.752510070800898 ], [ -98.894882202148395, 18.773719787597798 ], [ -98.912948608398395, 18.770402908325199 ], [ -98.927520751953097, 18.785749435424801 ], [ -98.973541259765597, 18.785100936889801 ], [ -98.988121032714801, 18.802869796752901 ], [ -98.977409362792997, 18.8425807952881 ], [ -98.938751220703097, 18.8656406402588 ], [ -98.914726257324205, 18.8749904632568 ], [ -98.887321472167997, 18.844451904296999 ], [ -98.872222900390597, 18.855430603027301 ] ] ] } },
{ "type": "Feature", "properties": { "NAME_1": "Morelos", "NAME_2": "Cuernavaca" }, "geometry": { "type": "Polygon", "coordinates": [ [ [ -99.284706115722699, 18.965179443359499 ], [ -99.258979797363196, 18.938011169433601 ], [ -99.246116638183494, 18.935512542724702 ], [ -99.203750610351605, 18.944740295410199 ], [ -99.170730590820298, 18.970970153808601 ], [ -99.175765991210895, 18.960300445556701 ], [ -99.167129516601605, 18.957460403442301 ], [ -99.127967834472599, 18.978950500488398 ], [ -99.107971191406193, 18.908609390258899 ], [ -99.138427734375, 18.897670745849599 ], [ -99.158943176269503, 18.861629486083999 ], [ -99.179962158203097, 18.874549865722699 ], [ -99.199722290039105, 18.860889434814499 ], [ -99.222740173339801, 18.889970779418899 ], [ -99.232307434081903, 18.8897399902344 ], [ -99.234069824218807, 18.877119064331101 ], [ -99.213645935058594, 18.839250564575199 ], [ -99.211448669433594, 18.8185501098632 ], [ -99.260459899902301, 18.836139678955099 ], [ -99.280616760253906, 18.851301193237401 ], [ -99.283607482910099, 18.834579467773398 ], [ -99.255111694335895, 18.8097229003907 ], [ -99.281745910644503, 18.807439804077099 ], [ -99.305000305175795, 18.835720062255898 ], [ -99.334365844726605, 18.824632644653398 ], [ -99.357688903808494, 18.839748382568398 ], [ -99.317169189453097, 18.897590637206999 ], [ -99.284706115722699, 18.965179443359499 ] ] ] } },
{ "type": "Feature", "properties": { "NAME_1": "Morelos", "NAME_2": "Emiliano Zapata" }, "geometry": { "type": "Polygon", "coordinates": [ [ [ -99.113533020019503, 18.778671264648601 ], [ -99.1334228515625, 18.8060111999513 ], [ -99.144653320312401, 18.800579071044901 ], [ -99.141296386718693, 18.779670715331999 ], [ -99.154533386230497, 18.784669876098601 ], [ -99.171058654785099, 18.825252532958999 ], [ -99.168342590332003, 18.834190368652301 ], [ -99.066108703613295, 18.844522476196399 ], [ -99.059432983398395, 18.821331024169901 ], [ -99.085487365722699, 18.7983207702637 ], [ -99.075668334960895, 18.738229751586999 ], [ -99.113533020019503, 18.778671264648601 ] ] ] } },
{ "type": "Feature", "properties": { "NAME_1": "Morelos", "NAME_2": "Huitzilac" }, "geometry": { "type": "Polygon", "coordinates": [ [ [ -99.217002868652301, 19.063440322876001 ], [ -99.155738830566406, 19.0713005065919 ], [ -99.116851806640597, 19.028480529785199 ], [ -99.093063354492102, 19.032022476196399 ], [ -99.089370727539105, 19.0011291503906 ], [ -99.124443054199205, 18.993352890014801 ], [ -99.127967834472599, 18.978950500488398 ], [ -99.167129516601605, 18.957460403442301 ], [ -99.175765991210895, 18.960300445556701 ], [ -99.170730590820298, 18.970970153808601 ], [ -99.203750610351605, 18.944740295410199 ], [ -99.255058288574205, 18.9360027313232 ], [ -99.283363342285199, 18.9676303863525 ], [ -99.254112243652301, 19.001012802124102 ], [ -99.217002868652301, 19.063440322876001 ] ] ] } },
{ "type": "Feature", "properties": { "NAME_1": "Morelos", "NAME_2": "Jantetelco" }, "geometry": { "type": "Polygon", "coordinates": [ [ [ -98.684387207031193, 18.602420806884801 ], [ -98.676597595214801, 18.644260406494201 ], [ -98.745208740234403, 18.7340698242187 ], [ -98.704483032226605, 18.7312412261962 ], [ -98.652572631835895, 18.771070480346701 ], [ -98.657737731933594, 18.720800399780401 ], [ -98.632736206054702, 18.584659576416001 ], [ -98.684387207031193, 18.602420806884801 ] ] ] } },
{ "type": "Feature", "properties": { "NAME_1": "Morelos", "NAME_2": "Jiutepec" }, "geometry": { "type": "Polygon", "coordinates": [ [ [ -99.168342590332003, 18.834190368652301 ], [ -99.180900573730398, 18.8461093902588 ], [ -99.182708740234304, 18.874498367309499 ], [ -99.156723022460895, 18.862340927124102 ], [ -99.138427734375, 18.897670745849599 ], [ -99.121047973632798, 18.900020599365298 ], [ -99.107521057128906, 18.913589477539102 ], [ -99.064582824707003, 18.860010147094702 ], [ -99.066108703613295, 18.844522476196399 ], [ -99.168342590332003, 18.834190368652301 ] ] ] } },
{ "type": "Feature", "properties": { "NAME_1": "Morelos", "NAME_2": "Jojutla" }, "geometry": { "type": "Polygon", "coordinates": [ [ [ -99.084510803222699, 18.647689819335898 ], [ -99.062370300292997, 18.5820827484131 ], [ -99.075782775878807, 18.567329406738398 ], [ -99.070617675781193, 18.550710678100501 ], [ -99.092247009277301, 18.520891189575199 ], [ -99.102851867675795, 18.5360507965088 ], [ -99.120956420898395, 18.5242004394532 ], [ -99.140281677246094, 18.525880813598601 ], [ -99.130821228027301, 18.5423107147218 ], [ -99.139205932617102, 18.5570697784425 ], [ -99.156341552734403, 18.545680999756001 ], [ -99.195991516113295, 18.542921066284201 ], [ -99.222717285156193, 18.556190490722699 ], [ -99.211296081542898, 18.5724411010743 ], [ -99.226898193359403, 18.579372406005898 ], [ -99.206466674804702, 18.641450881958001 ], [ -99.155136108398395, 18.648090362548899 ], [ -99.151947021484403, 18.629610061645501 ], [ -99.118766784667997, 18.613502502441499 ], [ -99.108848571777301, 18.6213893890381 ], [ -99.105339050292898, 18.641370773315401 ], [ -99.084510803222699, 18.647689819335898 ] ] ] } },
{ "type": "Feature", "properties": { "NAME_1": "Morelos", "NAME_2": "Jonacatepec" }, "geometry": { "type": "Polygon", "coordinates": [ [ [ -98.740188598632798, 18.5954704284669 ], [ -98.753486633300795, 18.6053981781006 ], [ -98.762062072753906, 18.627660751342798 ], [ -98.753585815429702, 18.6509304046631 ], [ -98.791267395019503, 18.688499450683601 ], [ -98.792938232421804, 18.7152194976806 ], [ -98.776542663574205, 18.746379852294901 ], [ -98.741516113281193, 18.73051071167 ], [ -98.676597595214801, 18.644260406494201 ], [ -98.684387207031193, 18.602420806884801 ], [ -98.715187072753906, 18.612249374389702 ], [ -98.740188598632798, 18.5954704284669 ] ] ] } },
{ "type": "Feature", "properties": { "NAME_1": "Morelos", "NAME_2": "Mazatepec" }, "geometry": { "type": "Polygon", "coordinates": [ [ [ -99.265167236328097, 18.670852661132901 ], [ -99.309097290039105, 18.651220321655401 ], [ -99.315376281738295, 18.630092620849702 ], [ -99.363067626953097, 18.648469924926701 ], [ -99.343193054199205, 18.6591606140138 ], [ -99.328613281249901, 18.696411132812599 ], [ -99.331863403320298, 18.732620239257901 ], [ -99.323280334472599, 18.7433300018312 ], [ -99.310310363769503, 18.737911224365298 ], [ -99.298683166503807, 18.710090637206999 ], [ -99.265167236328097, 18.670852661132901 ] ] ] } },
{ "type": "Feature", "properties": { "NAME_1": "Morelos", "NAME_2": "Miacatlán" }, "geometry": { "type": "Polygon", "coordinates": [ [ [ -99.405708312988295, 18.755388259887798 ], [ -99.392883300781193, 18.769229888916101 ], [ -99.381233215332003, 18.814752578735501 ], [ -99.367996215820298, 18.830980300903398 ], [ -99.357688903808494, 18.839748382568398 ], [ -99.334365844726605, 18.824632644653398 ], [ -99.311126708984403, 18.837528228759702 ], [ -99.287033081054602, 18.810041427612401 ], [ -99.244888305664006, 18.808099746704201 ], [ -99.225448608398395, 18.785060882568501 ], [ -99.200523376464801, 18.777879714965898 ], [ -99.200881958007798, 18.7275199890137 ], [ -99.235176086425795, 18.675270080566499 ], [ -99.265167236328097, 18.670852661132901 ], [ -99.298683166503807, 18.710090637206999 ], [ -99.312812805175795, 18.739669799804702 ], [ -99.323280334472599, 18.7433300018312 ], [ -99.332298278808594, 18.726089477539102 ], [ -99.342971801757798, 18.724571228027301 ], [ -99.382858276367102, 18.765569686889702 ], [ -99.405708312988295, 18.755388259887798 ] ] ] } },
{ "type": "Feature", "properties": { "NAME_1": "Morelos", "NAME_2": "Ocuituco" }, "geometry": { "type": "Polygon", "coordinates": [ [ [ -98.681793212890597, 18.944339752197202 ], [ -98.680877685546804, 18.8960475921631 ], [ -98.716278076171903, 18.856510162353601 ], [ -98.734970092773395, 18.886360168457099 ], [ -98.758689880370994, 18.885889053344801 ], [ -98.736877441406193, 18.920629501342798 ], [ -98.725677490234403, 18.9605808258057 ], [ -98.681793212890597, 18.944339752197202 ] ] ] } },
{ "type": "Feature", "properties": { "NAME_1": "Morelos", "NAME_2": "Puente de Ixtla" }, "geometry": { "type": "Polygon", "coordinates": [ [ [ -99.315376281738295, 18.630092620849702 ], [ -99.304626464843807, 18.6537685394287 ], [ -99.235176086425795, 18.675270080566499 ], [ -99.200881958007798, 18.7275199890137 ], [ -99.170379638671804, 18.731510162353501 ], [ -99.171646118164006, 18.707269668579102 ], [ -99.148307800292997, 18.72878074646 ], [ -99.112129211425696, 18.720018386840799 ], [ -99.107711791992202, 18.698369979858398 ], [ -99.127059936523395, 18.689130783081101 ], [ -99.124359130859403, 18.676279067993299 ], [ -99.144676208496094, 18.675212860107401 ], [ -99.148681640625, 18.6515998840332 ], [ -99.210441589355398, 18.6379909515381 ], [ -99.226898193359403, 18.579372406005898 ], [ -99.211296081542898, 18.5724411010743 ], [ -99.222717285156193, 18.556190490722699 ], [ -99.199699401855497, 18.543750762939599 ], [ -99.156341552734403, 18.545680999756001 ], [ -99.139205932617102, 18.5570697784425 ], [ -99.133026123046804, 18.552659988403398 ], [ -99.131568908691307, 18.539140701294102 ], [ -99.147743225097699, 18.508581161498999 ], [ -99.17529296875, 18.483699798584102 ], [ -99.174079895019503, 18.476049423217798 ], [ -99.154533386230497, 18.466930389404201 ], [ -99.157279968261705, 18.456949234008899 ], [ -99.173011779785199, 18.449119567871101 ], [ -99.198081970214801, 18.450868606567301 ], [ -99.284461975097599, 18.4628505706787 ], [ -99.3009033203125, 18.473690032958999 ], [ -99.322471618652301, 18.504560470581001 ], [ -99.306121826171804, 18.513349533081101 ], [ -99.300117492675795, 18.54301071167 ], [ -99.289947509765597, 18.5429801940919 ], [ -99.281791687011705, 18.526880264282301 ], [ -99.250053405761705, 18.5346908569337 ], [ -99.256950378417997, 18.5524005889893 ], [ -99.243309020996094, 18.559200286865298 ], [ -99.245521545410199, 18.565479278564499 ], [ -99.275047302246094, 18.561090469360501 ], [ -99.263603210449205, 18.578010559082099 ], [ -99.265823364257798, 18.593549728393601 ], [ -99.234016418457003, 18.6273593902588 ], [ -99.290077209472599, 18.630582809448399 ], [ -99.304733276367202, 18.622390747070401 ], [ -99.315376281738295, 18.630092620849702 ] ] ] } },
{ "type": "Feature", "properties": { "NAME_1": "Morelos", "NAME_2": "Temixco" }, "geometry": { "type": "Polygon", "coordinates": [ [ [ -99.158401489257798, 18.800840377807599 ], [ -99.171318054199205, 18.7972812652588 ], [ -99.195037841796903, 18.806079864501999 ], [ -99.200523376464801, 18.777879714965898 ], [ -99.218536376953097, 18.781690597534102 ], [ -99.242637634277301, 18.807012557983501 ], [ -99.278297424316406, 18.828170776367202 ], [ -99.285316467285099, 18.8460006713868 ], [ -99.280616760253906, 18.851301193237401 ], [ -99.260459899902301, 18.836139678955099 ], [ -99.211448669433594, 18.8185501098632 ], [ -99.213645935058594, 18.839250564575199 ], [ -99.234069824218807, 18.877119064331101 ], [ -99.234771728515597, 18.8878993988038 ], [ -99.222740173339801, 18.889970779418899 ], [ -99.199722290039105, 18.860889434814499 ], [ -99.182708740234304, 18.874498367309499 ], [ -99.180900573730398, 18.8461093902588 ], [ -99.168342590332003, 18.834190368652301 ], [ -99.1697998046875, 18.820930480957099 ], [ -99.158401489257798, 18.800840377807599 ] ] ] } },
{ "type": "Feature", "properties": { "NAME_1": "Morelos", "NAME_2": "Temoac" }, "geometry": { "type": "Polygon", "coordinates": [ [ [ -98.801200866699205, 18.765399932861399 ], [ -98.772003173828097, 18.784362792968899 ], [ -98.749710083007798, 18.812038421630898 ], [ -98.718650817870994, 18.788589477539201 ], [ -98.64990234375, 18.776639938354499 ], [ -98.697052001953097, 18.7347812652588 ], [ -98.714363098144503, 18.729232788086001 ], [ -98.780006408691406, 18.744729995727599 ], [ -98.801200866699205, 18.765399932861399 ] ] ] } },
{ "type": "Feature", "properties": { "NAME_1": "Morelos", "NAME_2": "Tepalcingo" }, "geometry": { "type": "Polygon", "coordinates": [ [ [ -98.749282836914105, 18.534469604492202 ], [ -98.790657043457003, 18.481370925903398 ], [ -98.839828491210895, 18.4546127319337 ], [ -98.865791320800696, 18.477420806884702 ], [ -98.889976501464801, 18.484411239623999 ], [ -98.896072387695298, 18.5100708007813 ], [ -98.91162109375, 18.5217514038087 ], [ -98.920951843261705, 18.543741226196399 ], [ -98.915122985839801, 18.592269897461001 ], [ -98.898986816406193, 18.6149997711182 ], [ -98.892227172851406, 18.641630172729499 ], [ -98.856086730957003, 18.662969589233501 ], [ -98.817771911621094, 18.665311813354599 ], [ -98.787101745605398, 18.677700042724599 ], [ -98.752861022949205, 18.648679733276399 ], [ -98.762062072753906, 18.627660751342798 ], [ -98.753486633300795, 18.6053981781006 ], [ -98.740188598632798, 18.5954704284669 ], [ -98.749282836914105, 18.534469604492202 ] ] ] } },
{ "type": "Feature", "properties": { "NAME_1": "Morelos", "NAME_2": "Tepoztlán" }, "geometry": { "type": "Polygon", "coordinates": [ [ [ -99.127967834472599, 18.978950500488398 ], [ -99.124443054199205, 18.993352890014801 ], [ -99.091346740722599, 18.998359680175898 ], [ -99.088172912597599, 19.024179458618299 ], [ -99.102935791015597, 19.035142898559599 ], [ -99.051277160644503, 19.0736904144288 ], [ -99.033416748046903, 19.074359893798899 ], [ -99.000938415527301, 19.0458507537843 ], [ -99.022956848144503, 19.0188503265381 ], [ -99.022407531738295, 18.9971809387206 ], [ -98.991859436035099, 18.934110641479499 ], [ -99.0206298828125, 18.899539947509801 ], [ -99.050941467285199, 18.898820877075298 ], [ -99.05029296875, 18.875221252441399 ], [ -99.082000732421804, 18.8743495941163 ], [ -99.123626708984403, 18.946649551391602 ], [ -99.127967834472599, 18.978950500488398 ] ] ] } },
{ "type": "Feature", "properties": { "NAME_1": "Morelos", "NAME_2": "Tetecala" }, "geometry": { "type": "Polygon", "coordinates": [ [ [ -99.445053100585895, 18.618200302124102 ], [ -99.444396972656193, 18.6279392242432 ], [ -99.402259826660199, 18.661359786987301 ], [ -99.370880126953097, 18.7061290740968 ], [ -99.332298278808594, 18.726089477539102 ], [ -99.328613281249901, 18.696411132812599 ], [ -99.343193054199205, 18.6591606140138 ], [ -99.388359069824205, 18.6320705413819 ], [ -99.445053100585895, 18.618200302124102 ] ] ] } },
{ "type": "Feature", "properties": { "NAME_1": "Morelos", "NAME_2": "Tetela del Volcán" }, "geometry": { "type": "Polygon", "coordinates": [ [ [ -98.614517211913906, 18.857610702514599 ], [ -98.631095886230398, 18.861791610717901 ], [ -98.631790161132798, 18.8854084014893 ], [ -98.683631896972599, 18.877590179443299 ], [ -98.681793212890597, 18.944339752197202 ], [ -98.657623291015497, 18.957271575927798 ], [ -98.592628479003906, 19.0160617828369 ], [ -98.546577453613295, 19.0288696289063 ], [ -98.580406188964801, 18.964788436889801 ], [ -98.614517211913906, 18.857610702514599 ] ] ] } },
{ "type": "Feature", "properties": { "NAME_1": "Morelos", "NAME_2": "Tlalnepantla" }, "geometry": { "type": "Polygon", "coordinates": [ [ [ -99.000938415527301, 19.0458507537843 ], [ -98.980346679687401, 19.044670104980501 ], [ -98.903076171874901, 19.072242736816399 ], [ -98.856262207031193, 19.066898345947301 ], [ -98.887001037597699, 19.039190292358299 ], [ -98.871086120605497, 19.023830413818501 ], [ -98.900390625, 19.015989303588899 ], [ -98.915519714355497, 18.9874382019044 ], [ -98.948562622070298, 18.966859817504901 ], [ -99.004539489745994, 18.968940734863299 ], [ -99.018302917480398, 18.984817504882901 ], [ -99.023658752441406, 19.016580581665 ], [ -99.000938415527301, 19.0458507537843 ] ] ] } },
{ "type": "Feature", "properties": { "NAME_1": "Morelos", "NAME_2": "Tlaltizapán" }, "geometry": { "type": "Polygon", "coordinates": [ [ [ -99.065132141113295, 18.675928115844702 ], [ -99.076759338378807, 18.690629959106399 ], [ -99.109741210937401, 18.671150207519499 ], [ -99.127555847167997, 18.687080383300799 ], [ -99.106712341308594, 18.701099395751999 ], [ -99.117736816406193, 18.7763195037843 ], [ -99.108078002929702, 18.775619506836101 ], [ -99.075668334960895, 18.738229751586999 ], [ -99.085487365722699, 18.7983207702637 ], [ -99.058692932128906, 18.8247509002687 ], [ -99.042098999023395, 18.817621231079201 ], [ -99.052780151367202, 18.7990112304688 ], [ -99.037689208984403, 18.786859512329201 ], [ -99.010032653808594, 18.739149093628001 ], [ -99.007347106933594, 18.721981048583999 ], [ -99.015792846679602, 18.708208084106399 ], [ -99.008941650390597, 18.673469543456999 ], [ -98.974311828613196, 18.6580905914307 ], [ -98.932250976562401, 18.663700103759801 ], [ -98.973503112792997, 18.588619232177699 ], [ -99.002372741699205, 18.618131637573299 ], [ -99.017387390136705, 18.653600692749102 ], [ -99.051048278808594, 18.662179946899499 ], [ -99.065132141113295, 18.675928115844702 ] ] ] } },
{ "type": "Feature", "properties": { "NAME_1": "Morelos", "NAME_2": "Tlaquiltenango" }, "geometry": { "type": "Polygon", "coordinates": [ [ [ -99.173011779785199, 18.449119567871101 ], [ -99.153793334960895, 18.4637775421143 ], [ -99.17529296875, 18.483699798584102 ], [ -99.147743225097699, 18.508581161498999 ], [ -99.140281677246094, 18.525880813598601 ], [ -99.120956420898395, 18.5242004394532 ], [ -99.102851867675795, 18.5360507965088 ], [ -99.092247009277301, 18.520891189575199 ], [ -99.070617675781193, 18.550710678100501 ], [ -99.075782775878807, 18.567329406738398 ], [ -99.062370300292997, 18.5820827484131 ], [ -99.0682373046875, 18.613849639892599 ], [ -99.084777832031193, 18.645420074463001 ], [ -99.061912536621094, 18.677131652832099 ], [ -99.051048278808594, 18.662179946899499 ], [ -99.015907287597599, 18.65159034729 ], [ -99.002372741699205, 18.618131637573299 ], [ -98.971778869628906, 18.586389541626001 ], [ -98.971122741699205, 18.550880432128999 ], [ -98.948326110839801, 18.566270828246999 ], [ -98.919647216796903, 18.562311172485401 ], [ -98.918991088867102, 18.5360794067382 ], [ -98.896072387695298, 18.5100708007813 ], [ -98.889976501464801, 18.484411239623999 ], [ -98.865791320800696, 18.477420806884702 ], [ -98.839828491210895, 18.4546127319337 ], [ -98.868362426757798, 18.4137897491456 ], [ -98.972557067871094, 18.347391128540099 ], [ -99.055747985839801, 18.431999206543001 ], [ -99.173011779785199, 18.449119567871101 ] ] ] } },
{ "type": "Feature", "properties": { "NAME_1": "Morelos", "NAME_2": "Tlayacapan" }, "geometry": { "type": "Polygon", "coordinates": [ [ [ -98.941917419433594, 18.900770187377901 ], [ -98.975852966308494, 18.892560958862301 ], [ -98.984512329101506, 18.897148132324201 ], [ -98.999153137207003, 18.922880172729499 ], [ -98.991737365722699, 18.939760208129901 ], [ -99.004158020019503, 18.954849243164102 ], [ -99.004539489745994, 18.968940734863299 ], [ -98.879470825195298, 18.961389541626001 ], [ -98.898056030273395, 18.937139511108299 ], [ -98.932250976562401, 18.9198303222656 ], [ -98.941917419433594, 18.900770187377901 ] ] ] } },
{ "type": "Feature", "properties": { "NAME_1": "Morelos", "NAME_2": "Totolapan" }, "geometry": { "type": "Polygon", "coordinates": [ [ [ -98.940727233886705, 18.969102859497099 ], [ -98.915519714355497, 18.9874382019044 ], [ -98.900390625, 19.015989303588899 ], [ -98.871086120605497, 19.023830413818501 ], [ -98.887001037597699, 19.039190292358299 ], [ -98.856262207031193, 19.066898345947301 ], [ -98.824127197265597, 19.038179397583001 ], [ -98.792251586914006, 18.9823398590088 ], [ -98.856468200683594, 18.961408615112301 ], [ -98.940727233886705, 18.969102859497099 ] ] ] } },
{ "type": "Feature", "properties": { "NAME_1": "Morelos", "NAME_2": "Xochitepec" }, "geometry": { "type": "Polygon", "coordinates": [ [ [ -99.112129211425696, 18.720018386840799 ], [ -99.148307800292997, 18.72878074646 ], [ -99.171646118164006, 18.707269668579102 ], [ -99.170379638671804, 18.731510162353501 ], [ -99.200881958007798, 18.7275199890137 ], [ -99.195037841796903, 18.806079864501999 ], [ -99.171318054199205, 18.7972812652588 ], [ -99.158401489257798, 18.800840377807599 ], [ -99.146263122558494, 18.778619766235401 ], [ -99.139556884765597, 18.782550811767699 ], [ -99.142517089843807, 18.803939819335898 ], [ -99.129638671875, 18.804470062255898 ], [ -99.113533020019503, 18.778671264648601 ], [ -99.119003295898395, 18.767219543457099 ], [ -99.112129211425696, 18.720018386840799 ] ] ] } },
{ "type": "Feature", "properties": { "NAME_1": "Morelos", "NAME_2": "Yautepec" }, "geometry": { "type": "Polygon", "coordinates": [ [ [ -98.973541259765597, 18.785100936889801 ], [ -98.983970642089702, 18.772790908813601 ], [ -99.010940551757798, 18.7824306488038 ], [ -99.022621154785199, 18.7617797851562 ], [ -99.052780151367202, 18.7990112304688 ], [ -99.042098999023395, 18.817621231079201 ], [ -99.058692932128906, 18.8247509002687 ], [ -99.067947387695298, 18.8485507965087 ], [ -99.064582824707003, 18.860010147094702 ], [ -99.078857421874901, 18.8708305358887 ], [ -99.05029296875, 18.875221252441399 ], [ -99.050941467285199, 18.898820877075298 ], [ -99.0206298828125, 18.899539947509801 ], [ -98.999153137207003, 18.922880172729499 ], [ -98.980056762695298, 18.893161773681701 ], [ -98.918647766113295, 18.906480789184702 ], [ -98.893409729003906, 18.9031505584718 ], [ -98.885246276855398, 18.8960475921631 ], [ -98.889221191406193, 18.887100219726602 ], [ -98.977409362792997, 18.8425807952881 ], [ -98.989601135253906, 18.808059692382798 ], [ -98.973541259765597, 18.785100936889801 ] ] ] } },
{ "type": "Feature", "properties": { "NAME_1": "Morelos", "NAME_2": "Yecapixtla" }, "geometry": { "type": "Polygon", "coordinates": [ [ [ -98.872222900390597, 18.855430603027301 ], [ -98.851356506347699, 18.899240493774499 ], [ -98.803855895996094, 18.913610458374102 ], [ -98.746307373046804, 18.966751098632798 ], [ -98.725677490234403, 18.9605808258057 ], [ -98.736877441406193, 18.920629501342798 ], [ -98.758689880370994, 18.885889053344801 ], [ -98.734970092773395, 18.886360168457099 ], [ -98.716278076171903, 18.856510162353601 ], [ -98.781417846679702, 18.776910781860401 ], [ -98.801200866699205, 18.765399932861399 ], [ -98.845413208007798, 18.779260635376101 ], [ -98.829017639160199, 18.818622589111399 ], [ -98.826736450195298, 18.8475017547607 ], [ -98.859863281249901, 18.847959518432699 ], [ -98.872222900390597, 18.855430603027301 ] ] ] } },
{ "type": "Feature", "properties": { "NAME_1": "Morelos", "NAME_2": "Zacatepec de Hidalgo" }, "geometry": { "type": "Polygon", "coordinates": [ [ [ -99.084510803222699, 18.647689819335898 ], [ -99.105339050292898, 18.641370773315401 ], [ -99.108848571777301, 18.6213893890381 ], [ -99.118766784667997, 18.613502502441499 ], [ -99.153923034667997, 18.634540557861399 ], [ -99.144676208496094, 18.675212860107401 ], [ -99.122611999511705, 18.679040908813501 ], [ -99.102317810058494, 18.671760559081999 ], [ -99.076759338378807, 18.690629959106399 ], [ -99.065132141113295, 18.675928115844702 ], [ -99.084510803222699, 18.647689819335898 ] ] ] } },
{ "type": "Feature", "properties": { "NAME_1": "Morelos", "NAME_2": "Zacualpan" }, "geometry": { "type": "Polygon", "coordinates": [ [ [ -98.716278076171903, 18.856510162353601 ], [ -98.687309265136705, 18.887519836425799 ], [ -98.677711486816307, 18.8745307922363 ], [ -98.628089904785199, 18.884109497070401 ], [ -98.632575988769503, 18.8651828765869 ], [ -98.615379333496094, 18.854980468749901 ], [ -98.64990234375, 18.776639938354499 ], [ -98.718650817870994, 18.788589477539201 ], [ -98.749710083007798, 18.812038421630898 ], [ -98.716278076171903, 18.856510162353601 ] ] ] } }
]
}
