{
"type": "FeatureCollection",
"name": "nayarit",
"crs": { "type": "name", "properties": { "name": "urn:ogc:def:crs:OGC:1.3:CRS84" } },
"features": [
{ "type": "Feature", "properties": { "NAME_1": "Nayarit", "NAME_2": "Acaponeta" }, "geometry": { "type": "Polygon", "coordinates": [ [ [ -104.964920043945, 22.465982437133899 ], [ -104.982849121094006, 22.462377548217798 ], [ -104.980918884277003, 22.438909530639599 ], [ -105.006057739257997, 22.438520431518601 ], [ -105.031005859375, 22.419740676879901 ], [ -105.020202636719006, 22.363380432128899 ], [ -105.055671691895, 22.370420455932599 ], [ -105.091918945312003, 22.341199874877901 ], [ -105.101539611815994, 22.3314094543456 ], [ -105.118698120117003, 22.277511596679801 ], [ -105.148780822754006, 22.269870758056602 ], [ -105.183662414550994, 22.28058052063 ], [ -105.239143371582003, 22.276180267333999 ], [ -105.252700805664006, 22.295841217041101 ], [ -105.292526245117003, 22.299301147460898 ], [ -105.340217590332003, 22.345478057861399 ], [ -105.350273132324006, 22.3677291870118 ], [ -105.408760070800994, 22.385829925537099 ], [ -105.464576721190994, 22.435052871704201 ], [ -105.58715057373, 22.4299926757812 ], [ -105.614059448242003, 22.440900802612401 ], [ -105.629936218262003, 22.456680297851602 ], [ -105.663307189940994, 22.561769485473601 ], [ -105.656692504882997, 22.571580886840898 ], [ -105.583045959472997, 22.533971786499102 ], [ -105.504600524902003, 22.5283107757568 ], [ -105.449020385742003, 22.5099411010743 ], [ -105.430366516112997, 22.545789718628001 ], [ -105.437431335449006, 22.616300582885799 ], [ -105.455322265625, 22.634929656982401 ], [ -105.469696044922003, 22.6938781738282 ], [ -105.453247070312003, 22.696830749511701 ], [ -105.409736633300994, 22.6419696807862 ], [ -105.384368896484006, 22.594762802124102 ], [ -105.343696594237997, 22.5578594207763 ], [ -105.32341003418, 22.522920608520501 ], [ -105.28150177002, 22.546449661254901 ], [ -105.257843017577997, 22.579200744628999 ], [ -105.23380279541, 22.5506801605225 ], [ -105.188751220702997, 22.536939620971701 ], [ -105.176567077637003, 22.519840240478601 ], [ -105.165046691895, 22.517839431762798 ], [ -105.111190795897997, 22.557931900024499 ], [ -105.035713195800994, 22.5933227539063 ], [ -104.988777160644005, 22.4958400726319 ], [ -104.964920043945, 22.465982437133899 ] ] ] } },
{ "type": "Feature", "properties": { "NAME_1": "Nayarit", "NAME_2": "Ahuacatlán" }, "geometry": { "type": "Polygon", "coordinates": [ [ [ -104.408561706542997, 21.029251098632901 ], [ -104.410316467285, 20.952341079711999 ], [ -104.416656494140994, 20.944740295410199 ], [ -104.444869995117003, 20.947719573974702 ], [ -104.443588256835994, 20.9021911621094 ], [ -104.451721191405994, 20.893920898437599 ], [ -104.489196777344006, 20.972560882568501 ], [ -104.498519897460994, 20.962511062622099 ], [ -104.496612548827997, 20.9245910644532 ], [ -104.51847076416, 20.9468898773194 ], [ -104.549217224120994, 20.9232711791993 ], [ -104.616912841797003, 20.9339809417725 ], [ -104.62654876709, 20.927530288696399 ], [ -104.628433227539006, 20.898809432983501 ], [ -104.692901611327997, 20.921979904174801 ], [ -104.744422912597997, 20.9768295288087 ], [ -104.698066711425994, 21.033670425415 ], [ -104.634300231932997, 21.0772609710694 ], [ -104.638893127440994, 21.125099182128999 ], [ -104.618865966797003, 21.137317657470799 ], [ -104.595207214355, 21.1254997253419 ], [ -104.584503173827997, 21.1014118194581 ], [ -104.573303222655994, 21.102689743042099 ], [ -104.560646057129006, 21.118118286132798 ], [ -104.536056518555, 21.12068939209 ], [ -104.505416870117003, 21.101230621337901 ], [ -104.479988098144005, 21.0979900360107 ], [ -104.45036315918, 21.051639556884801 ], [ -104.4287109375, 21.0560607910156 ], [ -104.423667907715, 21.074459075927798 ], [ -104.413276672362997, 21.080720901489201 ], [ -104.408561706542997, 21.029251098632901 ] ] ] } },
{ "type": "Feature", "properties": { "NAME_1": "Nayarit", "NAME_2": "Amatlán de Cañas" }, "geometry": { "type": "Polygon", "coordinates": [ [ [ -104.257461547852003, 20.610519409179702 ], [ -104.257598876952997, 20.585180282592798 ], [ -104.266448974609006, 20.579509735107401 ], [ -104.284568786620994, 20.596401214599702 ], [ -104.299186706542997, 20.645830154419102 ], [ -104.328750610352003, 20.679029464721701 ], [ -104.386726379394005, 20.719022750854499 ], [ -104.420890808105, 20.758970260620199 ], [ -104.469047546387003, 20.783870697021499 ], [ -104.579170227050994, 20.899499893188601 ], [ -104.595657348632997, 20.905300140380898 ], [ -104.628433227539006, 20.898809432983501 ], [ -104.625129699707003, 20.9297695159912 ], [ -104.549217224120994, 20.9232711791993 ], [ -104.51847076416, 20.9468898773194 ], [ -104.496612548827997, 20.9245910644532 ], [ -104.498519897460994, 20.962511062622099 ], [ -104.489196777344006, 20.972560882568501 ], [ -104.455619812012003, 20.894161224365298 ], [ -104.443588256835994, 20.9021911621094 ], [ -104.44270324707, 20.9486103057862 ], [ -104.416656494140994, 20.944740295410199 ], [ -104.41739654541, 20.923639297485401 ], [ -104.400543212890994, 20.907449722290099 ], [ -104.399520874022997, 20.890632629394599 ], [ -104.384872436522997, 20.903379440307699 ], [ -104.364929199219006, 20.905807495117202 ], [ -104.349990844727003, 20.931140899658299 ], [ -104.332107543945, 20.926187515258899 ], [ -104.277946472167997, 20.8573608398438 ], [ -104.289169311522997, 20.818820953369201 ], [ -104.332916259765994, 20.804809570312599 ], [ -104.337646484375, 20.770240783691499 ], [ -104.324928283690994, 20.730180740356399 ], [ -104.297653198242003, 20.710651397705099 ], [ -104.30744934082, 20.6845607757569 ], [ -104.268226623535, 20.6534729003906 ], [ -104.257461547852003, 20.610519409179702 ] ] ] } },
{ "type": "Feature", "properties": { "NAME_1": "Nayarit", "NAME_2": "Compostela" }, "geometry": { "type": "GeometryCollection", "geometries": [ { "type": "Polygon", "coordinates": [ [ [ -105.455696105957003, 20.860416412353601 ], [ -105.451805114745994, 20.875972747802699 ], [ -105.440971374512003, 20.870416641235401 ], [ -105.427085876465, 20.883472442626999 ], [ -105.402084350585994, 20.931249618530401 ], [ -105.359580993652003, 20.954860687256001 ], [ -105.345695495605, 20.979028701782301 ], [ -105.33097076416, 20.985694885253899 ], [ -105.31819152832, 21.006528854370199 ], [ -105.312919616699006, 21.0368061065675 ], [ -105.272361755370994, 21.023471832275401 ], [ -105.23486328125, 21.062915802001999 ], [ -105.22541809082, 21.0918064117432 ], [ -105.239303588867003, 21.132917404174801 ], [ -105.224029541015994, 21.1581935882569 ], [ -105.232360839844006, 21.1637496948243 ], [ -105.233749389647997, 21.182361602783299 ], [ -105.215698242187997, 21.205694198608501 ], [ -105.222915649414006, 21.272638320922901 ], [ -105.239028930664006, 21.331384658813501 ], [ -105.075172424315994, 21.3231410980225 ], [ -105.049468994140994, 21.341060638427798 ], [ -105.036521911620994, 21.319810867309599 ], [ -105.008499145507997, 21.3114318847657 ], [ -104.970252990722997, 21.2825107574462 ], [ -104.930679321289006, 21.270441055298001 ], [ -104.899429321289006, 21.281600952148501 ], [ -104.852226257324006, 21.323410034179702 ], [ -104.834182739257997, 21.324832916259801 ], [ -104.786750793457003, 21.2765808105469 ], [ -104.818168640137003, 21.1804904937744 ], [ -104.837181091309006, 21.157068252563501 ], [ -104.847702026367003, 21.1239318847657 ], [ -104.833969116210994, 21.073980331420898 ], [ -104.801292419434006, 21.00345993042 ], [ -104.851081848145, 20.995100021362401 ], [ -104.90022277832, 20.961219787597798 ], [ -104.919548034667997, 20.937271118164102 ], [ -104.971557617187997, 20.905799865722699 ], [ -105.031318664550994, 20.902032852172901 ], [ -105.053916931152003, 20.921550750732401 ], [ -105.066307067870994, 20.922309875488398 ], [ -105.131881713867003, 20.896329879760899 ], [ -105.200462341309006, 20.815788269043001 ], [ -105.201301574707003, 20.797700881958001 ], [ -105.231307983397997, 20.778659820556602 ], [ -105.28540802002, 20.697660446166999 ], [ -105.296524047852003, 20.693098068237301 ], [ -105.318748474120994, 20.736249923706101 ], [ -105.358192443847997, 20.762638092041001 ], [ -105.399024963379006, 20.734306335449201 ], [ -105.464302062987997, 20.7551383972169 ], [ -105.475975036620994, 20.751249313354499 ], [ -105.51180267334, 20.772081375122202 ], [ -105.535140991210994, 20.7576408386232 ], [ -105.538749694824006, 20.7693061828613 ], [ -105.527359008789006, 20.789861679077202 ], [ -105.519027709960994, 20.792360305786101 ], [ -105.506805419922003, 20.7820835113525 ], [ -105.48819732666, 20.7951374053956 ], [ -105.455696105957003, 20.860416412353601 ] ] ] }, { "type": "Polygon", "coordinates": [ [ [ -105.274307250975994, 21.0501384735107 ], [ -105.271247863769005, 21.049583435058501 ], [ -105.271530151367003, 21.0468063354493 ], [ -105.274307250975994, 21.0468063354493 ], [ -105.274307250975994, 21.0501384735107 ] ] ] }, { "type": "Polygon", "coordinates": [ [ [ -105.564308166504006, 20.704862594604599 ], [ -105.566528320312003, 20.6987495422363 ], [ -105.57152557373, 20.6990261077881 ], [ -105.570693969727003, 20.702083587646499 ], [ -105.564308166504006, 20.704862594604599 ] ] ] }, { "type": "Polygon", "coordinates": [ [ [ -105.582641601562003, 20.704027175903299 ], [ -105.578475952147997, 20.700136184692401 ], [ -105.58763885498, 20.691528320312599 ], [ -105.59041595459, 20.699306488037099 ], [ -105.582641601562003, 20.704027175903299 ] ] ] } ] } },
{ "type": "Feature", "properties": { "NAME_1": "Nayarit", "NAME_2": "El Nayar" }, "geometry": { "type": "Polygon", "coordinates": [ [ [ -104.92000579834, 21.753950119018601 ], [ -104.912040710449006, 21.812891006469801 ], [ -104.926460266112997, 21.840600967407202 ], [ -104.915466308594006, 21.8907680511475 ], [ -104.880798339844006, 21.902900695800898 ], [ -104.857856750487997, 21.924608230590898 ], [ -104.84105682373, 21.965129852295 ], [ -104.944999694824006, 22.0582981109619 ], [ -104.953758239745994, 22.093328475952202 ], [ -104.978507995605, 22.136102676391602 ], [ -104.98503112793, 22.180759429931602 ], [ -105.005516052245994, 22.2021007537843 ], [ -105.016410827637003, 22.2765808105468 ], [ -105.038963317870994, 22.3058280944825 ], [ -105.01774597168, 22.353759765625099 ], [ -105.032241821289006, 22.411649703979499 ], [ -105.027297973632997, 22.424190521240298 ], [ -105.006057739257997, 22.438520431518601 ], [ -104.980918884277003, 22.438909530639599 ], [ -104.98087310791, 22.463771820068501 ], [ -104.936248779297003, 22.4640407562256 ], [ -104.905876159667997, 22.492071151733398 ], [ -104.895202636719006, 22.5247306823731 ], [ -104.843536376952997, 22.5913200378419 ], [ -104.803833007812003, 22.532550811767599 ], [ -104.720527648925994, 22.506170272827099 ], [ -104.626426696777003, 22.420810699463001 ], [ -104.59236907959, 22.347780227661101 ], [ -104.562431335449006, 22.337110519409201 ], [ -104.515830993652003, 22.302391052246101 ], [ -104.496726989745994, 22.3036003112793 ], [ -104.490867614745994, 22.340980529785199 ], [ -104.480445861815994, 22.354850769043001 ], [ -104.363327026367003, 22.403251647949201 ], [ -104.355659484862997, 22.382989883422901 ], [ -104.35929107666, 22.3395004272462 ], [ -104.351036071777003, 22.286460876465 ], [ -104.334266662597997, 22.260761260986399 ], [ -104.308959960937997, 22.248582839965799 ], [ -104.301902770995994, 22.230791091919102 ], [ -104.336448669434006, 22.127319335937599 ], [ -104.351341247557997, 22.0487499237062 ], [ -104.345291137695, 21.972009658813601 ], [ -104.338623046875, 21.944160461425799 ], [ -104.327507019042997, 21.934299468994102 ], [ -104.353942871094006, 21.894838333129901 ], [ -104.419807434082003, 21.863920211792099 ], [ -104.403495788574006, 21.8467311859131 ], [ -104.422958374022997, 21.821580886840799 ], [ -104.419036865234006, 21.796020507812599 ], [ -104.399337768555, 21.7799797058107 ], [ -104.395889282227003, 21.766870498657301 ], [ -104.413970947265994, 21.721189498901399 ], [ -104.433967590332003, 21.7128200531006 ], [ -104.423957824707003, 21.676000595092798 ], [ -104.454376220702997, 21.622970581054702 ], [ -104.477600097655994, 21.526250839233501 ], [ -104.512046813965, 21.507432937622099 ], [ -104.540863037109006, 21.464950561523601 ], [ -104.575729370117003, 21.482629776001001 ], [ -104.584228515625, 21.503831863403299 ], [ -104.58283996582, 21.532432556152401 ], [ -104.612953186035, 21.568149566650401 ], [ -104.617362976074006, 21.592960357666101 ], [ -104.658309936522997, 21.6537895202637 ], [ -104.654396057129006, 21.6664028167725 ], [ -104.676361083984006, 21.6850109100343 ], [ -104.675628662109006, 21.708909988403398 ], [ -104.700416564940994, 21.7340927124025 ], [ -104.733596801757997, 21.795680999755898 ], [ -104.762939453125, 21.8066005706787 ], [ -104.832283020019005, 21.7895011901857 ], [ -104.856597900390994, 21.769121170043899 ], [ -104.848968505859006, 21.751270294189499 ], [ -104.863586425780994, 21.735790252685501 ], [ -104.899726867675994, 21.7365207672119 ], [ -104.92000579834, 21.753950119018601 ] ] ] } },
{ "type": "Feature", "properties": { "NAME_1": "Nayarit", "NAME_2": "Huajicori" }, "geometry": { "type": "Polygon", "coordinates": [ [ [ -105.035713195800994, 22.5933227539063 ], [ -105.111190795897997, 22.557931900024499 ], [ -105.165046691895, 22.517839431762798 ], [ -105.176567077637003, 22.519840240478601 ], [ -105.188751220702997, 22.536939620971701 ], [ -105.23380279541, 22.5506801605225 ], [ -105.257843017577997, 22.579200744628999 ], [ -105.28150177002, 22.546449661254901 ], [ -105.32341003418, 22.522920608520501 ], [ -105.343696594237997, 22.5578594207763 ], [ -105.384368896484006, 22.594762802124102 ], [ -105.437927246094006, 22.6834411621094 ], [ -105.450958251952997, 22.696149826049702 ], [ -105.469696044922003, 22.6938781738282 ], [ -105.488426208495994, 22.709489822387798 ], [ -105.515731811522997, 22.7329196929932 ], [ -105.531372070312003, 22.7624702453613 ], [ -105.532508850097997, 22.786670684814599 ], [ -105.515975952147997, 22.826780319213999 ], [ -105.448402404785, 22.903150558471701 ], [ -105.446990966797003, 22.965541839599702 ], [ -105.430892944335994, 23.022630691528299 ], [ -105.397262573242003, 23.0453109741212 ], [ -105.313949584960994, 22.9486408233643 ], [ -105.24250793457, 22.960861206054702 ], [ -105.208656311035, 23.006780624389702 ], [ -105.194671630859006, 23.010690689086999 ], [ -105.180107116699006, 23.0054016113281 ], [ -105.159896850585994, 22.9727783203125 ], [ -105.117279052734006, 22.940040588378999 ], [ -105.064758300780994, 22.919521331787202 ], [ -104.999298095702997, 22.920991897583001 ], [ -104.986976623535, 22.915311813354499 ], [ -104.971176147460994, 22.884719848632901 ], [ -104.96354675293, 22.823991775512798 ], [ -104.936126708984006, 22.8093280792237 ], [ -104.897109985352003, 22.811571121215898 ], [ -104.889228820800994, 22.775720596313601 ], [ -104.915733337402003, 22.732700347900501 ], [ -104.984100341797003, 22.700139999389801 ], [ -105.048843383789006, 22.643238067627099 ], [ -105.048652648925994, 22.616998672485401 ], [ -105.035713195800994, 22.5933227539063 ] ] ] } },
{ "type": "Feature", "properties": { "NAME_1": "Nayarit", "NAME_2": "Ixtlán del Río" }, "geometry": { "type": "Polygon", "coordinates": [ [ [ -104.263221740722997, 20.924320220947401 ], [ -104.277946472167997, 20.8573608398438 ], [ -104.339012145995994, 20.930231094360298 ], [ -104.352416992187997, 20.929801940917901 ], [ -104.364929199219006, 20.905807495117202 ], [ -104.384872436522997, 20.903379440307699 ], [ -104.395866394042997, 20.8903903961182 ], [ -104.401550292969006, 20.9092502593994 ], [ -104.41739654541, 20.923639297485401 ], [ -104.419136047362997, 20.940250396728501 ], [ -104.408546447754006, 20.962659835815501 ], [ -104.413757324219006, 20.9963302612306 ], [ -104.408561706542997, 21.029251098632901 ], [ -104.398872375487997, 21.0234394073487 ], [ -104.353668212890994, 21.0348205566407 ], [ -104.331207275390994, 21.063762664795 ], [ -104.308242797852003, 21.061740875244102 ], [ -104.289428710937003, 21.092058181762798 ], [ -104.290626525879006, 21.1059799194337 ], [ -104.319358825684006, 21.128889083862301 ], [ -104.362701416015994, 21.121280670166101 ], [ -104.321243286132997, 21.1690998077393 ], [ -104.274948120117003, 21.147331237793001 ], [ -104.254928588867003, 21.163761138916001 ], [ -104.243316650390994, 21.1410808563232 ], [ -104.230987548827997, 21.1345310211182 ], [ -104.239639282227003, 21.041732788086101 ], [ -104.263221740722997, 20.924320220947401 ] ] ] } },
{ "type": "Feature", "properties": { "NAME_1": "Nayarit", "NAME_2": "Jala" }, "geometry": { "type": "Polygon", "coordinates": [ [ [ -104.536056518555, 21.12068939209 ], [ -104.525718688965, 21.1556701660156 ], [ -104.536987304687003, 21.197050094604499 ], [ -104.493522644042997, 21.1973094940187 ], [ -104.472747802734006, 21.2105026245118 ], [ -104.431800842285, 21.2168903350831 ], [ -104.407928466797003, 21.248979568481399 ], [ -104.407920837402003, 21.304069519043001 ], [ -104.394493103027003, 21.305179595947301 ], [ -104.374252319335994, 21.281539916992202 ], [ -104.361526489257997, 21.224411010742202 ], [ -104.310485839844006, 21.2129306793213 ], [ -104.264770507812003, 21.183080673217798 ], [ -104.254928588867003, 21.163761138916001 ], [ -104.274948120117003, 21.147331237793001 ], [ -104.31559753418, 21.167760848999102 ], [ -104.328025817870994, 21.1655082702637 ], [ -104.362701416015994, 21.121280670166101 ], [ -104.319358825684006, 21.128889083862301 ], [ -104.290626525879006, 21.1059799194337 ], [ -104.294631958007997, 21.081499099731399 ], [ -104.308242797852003, 21.061740875244102 ], [ -104.331207275390994, 21.063762664795 ], [ -104.353668212890994, 21.0348205566407 ], [ -104.398872375487997, 21.0234394073487 ], [ -104.409523010254006, 21.032899856567401 ], [ -104.413276672362997, 21.080720901489201 ], [ -104.423667907715, 21.074459075927798 ], [ -104.4287109375, 21.0560607910156 ], [ -104.45036315918, 21.051639556884801 ], [ -104.477256774902003, 21.095960617065501 ], [ -104.505416870117003, 21.101230621337901 ], [ -104.536056518555, 21.12068939209 ] ] ] } },
{ "type": "Feature", "properties": { "NAME_1": "Nayarit", "NAME_2": "La Yesca" }, "geometry": { "type": "Polygon", "coordinates": [ [ [ -104.072578430175994, 21.146749496460099 ], [ -104.095626831055, 21.152210235595799 ], [ -104.23908996582, 21.137050628662099 ], [ -104.268478393555, 21.186220169067401 ], [ -104.315406799315994, 21.2156295776368 ], [ -104.361526489257997, 21.224411010742202 ], [ -104.374252319335994, 21.281539916992202 ], [ -104.394493103027003, 21.305179595947301 ], [ -104.407920837402003, 21.304069519043001 ], [ -104.439529418945, 21.320341110229599 ], [ -104.437683105469006, 21.366912841796999 ], [ -104.44938659668, 21.377740859985401 ], [ -104.47859954834, 21.382770538330099 ], [ -104.490989685059006, 21.430320739746101 ], [ -104.505737304687003, 21.433521270751999 ], [ -104.53205871582, 21.4144802093506 ], [ -104.554145812987997, 21.429660797119102 ], [ -104.540863037109006, 21.464950561523601 ], [ -104.512046813965, 21.507432937622099 ], [ -104.475456237792997, 21.5300807952881 ], [ -104.454376220702997, 21.622970581054702 ], [ -104.423957824707003, 21.676000595092798 ], [ -104.433967590332003, 21.7128200531006 ], [ -104.413970947265994, 21.721189498901399 ], [ -104.395477294922003, 21.770481109619102 ], [ -104.419036865234006, 21.796020507812599 ], [ -104.422958374022997, 21.821580886840799 ], [ -104.403495788574006, 21.8467311859131 ], [ -104.419807434082003, 21.863920211792099 ], [ -104.353942871094006, 21.894838333129901 ], [ -104.327507019042997, 21.934299468994102 ], [ -104.275062561035, 21.954219818115298 ], [ -104.256477355957003, 21.950588226318398 ], [ -104.225196838379006, 21.9144001007081 ], [ -104.158042907715, 21.900550842285199 ], [ -104.149307250977003, 21.7899703979493 ], [ -104.125549316405994, 21.735710144043001 ], [ -104.097457885742003, 21.724809646606602 ], [ -104.025291442870994, 21.723739624023501 ], [ -103.935508728027003, 21.707309722900501 ], [ -103.919448852539006, 21.6838607788087 ], [ -103.903846740722997, 21.614259719848601 ], [ -103.876571655272997, 21.560569763183601 ], [ -103.832817077637003, 21.5283107757568 ], [ -103.804336547852003, 21.4846706390381 ], [ -103.801048278809006, 21.4452304840088 ], [ -103.814628601074006, 21.355768203735401 ], [ -103.814651489257997, 21.298259735107401 ], [ -103.832901000977003, 21.256380081176701 ], [ -103.911598205565994, 21.211290359497099 ], [ -103.991172790527003, 21.197921752929801 ], [ -104.033851623535, 21.15851020813 ], [ -104.072578430175994, 21.146749496460099 ] ] ] } },
{ "type": "Feature", "properties": { "NAME_1": "Nayarit", "NAME_2": "NA" }, "geometry": { "type": "GeometryCollection", "geometries": [ { "type": "Polygon", "coordinates": [ [ [ -106.672637939452997, 21.775417327880799 ], [ -106.658195495605, 21.739860534668001 ], [ -106.676803588867003, 21.729028701782202 ], [ -106.688468933105, 21.7595825195313 ], [ -106.672637939452997, 21.775417327880799 ] ] ] }, { "type": "Polygon", "coordinates": [ [ [ -106.70263671875, 21.741247177124102 ], [ -106.700416564940994, 21.739585876464901 ], [ -106.700691223144005, 21.738471984863398 ], [ -106.703193664550994, 21.739585876464901 ], [ -106.70263671875, 21.741247177124102 ] ] ] }, { "type": "Polygon", "coordinates": [ [ [ -106.537086486815994, 21.633472442627099 ], [ -106.50569152832, 21.604028701782301 ], [ -106.515419006347997, 21.58736038208 ], [ -106.51180267334, 21.569860458373999 ], [ -106.528747558594006, 21.557083129882901 ], [ -106.532081604004006, 21.540971755981399 ], [ -106.541809082030994, 21.544305801391701 ], [ -106.53791809082, 21.5568046569825 ], [ -106.547080993652003, 21.564584732055799 ], [ -106.552360534667997, 21.560417175293001 ], [ -106.630142211914006, 21.598472595215 ], [ -106.63069152832, 21.621528625488299 ], [ -106.656806945800994, 21.6570854187012 ], [ -106.647918701172003, 21.6620826721193 ], [ -106.648193359375, 21.678749084472699 ], [ -106.661247253417997, 21.694026947021499 ], [ -106.597915649414006, 21.691249847412202 ], [ -106.573753356934006, 21.682638168335 ], [ -106.534858703612997, 21.657363891601602 ], [ -106.537086486815994, 21.633472442627099 ] ] ] }, { "type": "Polygon", "coordinates": [ [ [ -106.38069152832, 21.4468078613282 ], [ -106.384864807129006, 21.420417785644499 ], [ -106.398193359375, 21.417917251586999 ], [ -106.462913513184006, 21.449306488037099 ], [ -106.481246948242003, 21.448472976684599 ], [ -106.49764251709, 21.4659729003906 ], [ -106.461524963379006, 21.4948616027832 ], [ -106.438751220702997, 21.4987506866456 ], [ -106.422637939452997, 21.488193511962901 ], [ -106.372085571289006, 21.480972290039201 ], [ -106.358192443847997, 21.4554157257081 ], [ -106.38069152832, 21.4468078613282 ] ] ] }, { "type": "Polygon", "coordinates": [ [ [ -106.23152923584, 21.3362503051757 ], [ -106.221527099609006, 21.321804046631001 ], [ -106.226806640625, 21.322082519531399 ], [ -106.22875213623, 21.290971755981399 ], [ -106.234580993652003, 21.299028396606499 ], [ -106.242080688477003, 21.291805267333999 ], [ -106.256805419922003, 21.291805267333999 ], [ -106.265975952147997, 21.3009719848632 ], [ -106.272087097167997, 21.2965278625488 ], [ -106.269027709960994, 21.3029174804688 ], [ -106.279586791992003, 21.314306259155298 ], [ -106.273750305175994, 21.322639465332099 ], [ -106.258193969727003, 21.335693359375 ], [ -106.23152923584, 21.3362503051757 ] ] ] }, { "type": "Polygon", "coordinates": [ [ [ -106.287361145019005, 21.323192596435501 ], [ -106.285415649414006, 21.319583892822301 ], [ -106.288749694824006, 21.315416336059599 ], [ -106.29069519043, 21.3184719085693 ], [ -106.287361145019005, 21.323192596435501 ] ] ] } ] } },
{ "type": "Feature", "properties": { "NAME_1": "Nayarit", "NAME_2": "Rosamorada" }, "geometry": { "type": "GeometryCollection", "geometries": [ { "type": "Polygon", "coordinates": [ [ [ -105.45930480957, 22.0229187011719 ], [ -105.449584960937003, 22.026527404785099 ], [ -105.466804504395, 22.036247253417901 ], [ -105.464859008789006, 22.0493068695069 ], [ -105.481246948242003, 22.070417404174901 ], [ -105.490974426269005, 22.0765285491944 ], [ -105.473747253417997, 22.0865268707275 ], [ -105.481246948242003, 22.0993041992188 ], [ -105.469024658202997, 22.127639770507798 ], [ -105.508193969727003, 22.1534729003907 ], [ -105.519584655762003, 22.1443061828613 ], [ -105.530693054199006, 22.160139083862401 ], [ -105.519859313965, 22.167638778686499 ], [ -105.534027099609006, 22.177639007568501 ], [ -105.549308776855, 22.174028396606399 ], [ -105.559097290039006, 22.185422897338899 ], [ -105.552856445312003, 22.213930130004901 ], [ -105.52513885498, 22.228370666503899 ], [ -105.493865966797003, 22.219869613647599 ], [ -105.473426818847997, 22.226261138916101 ], [ -105.447486877440994, 22.199390411377099 ], [ -105.425926208495994, 22.194189071655298 ], [ -105.381271362305, 22.232040405273501 ], [ -105.326866149902003, 22.222980499267599 ], [ -105.294158935547003, 22.233089447021499 ], [ -105.241638183594006, 22.278118133545 ], [ -105.183662414550994, 22.28058052063 ], [ -105.148780822754006, 22.269870758056602 ], [ -105.121170043945, 22.276140213012798 ], [ -105.091918945312003, 22.341199874877901 ], [ -105.055671691895, 22.370420455932599 ], [ -105.020202636719006, 22.363380432128899 ], [ -105.018737792969006, 22.3497219085694 ], [ -105.038963317870994, 22.3058280944825 ], [ -105.016410827637003, 22.2765808105468 ], [ -105.004737854004006, 22.2292404174806 ], [ -105.007469177245994, 22.2076301574706 ], [ -104.98503112793, 22.180759429931602 ], [ -104.978507995605, 22.136102676391602 ], [ -104.953758239745994, 22.093328475952202 ], [ -104.94522857666, 22.0304794311525 ], [ -104.927940368652003, 22.015611648559599 ], [ -104.941513061522997, 21.990169525146602 ], [ -104.964050292969006, 21.9715881347656 ], [ -104.955223083495994, 21.9533195495607 ], [ -104.976669311522997, 21.9163112640381 ], [ -105.027732849120994, 21.909521102905401 ], [ -105.060546875, 21.936582565307699 ], [ -105.076278686522997, 21.917581558227599 ], [ -105.099662780762003, 21.914230346679702 ], [ -105.106163024902003, 21.936862945556701 ], [ -105.118659973144005, 21.9451599121094 ], [ -105.154319763184006, 21.941169738769599 ], [ -105.187881469727003, 21.9150695800782 ], [ -105.226547241210994, 21.928699493408299 ], [ -105.241676330565994, 21.946399688720799 ], [ -105.25813293457, 21.921228408813601 ], [ -105.316970825195, 21.9304904937744 ], [ -105.323318481445, 21.9475002288819 ], [ -105.339469909667997, 21.958391189575298 ], [ -105.41414642334, 21.9652004241944 ], [ -105.425086975097997, 21.986049652099599 ], [ -105.449806213379006, 21.998670578002901 ], [ -105.505630493164006, 22.066881179809599 ], [ -105.510940551757997, 22.055320739746001 ], [ -105.492950439452997, 22.0435886383057 ], [ -105.507652282715, 22.043237686157301 ], [ -105.520141601562003, 22.0648612976075 ], [ -105.50846862793, 22.0659713745118 ], [ -105.50569152832, 22.070138931274499 ], [ -105.534301757812003, 22.0768051147462 ], [ -105.532913208007997, 22.089582443237401 ], [ -105.514579772949006, 22.090694427490298 ], [ -105.492637634277003, 22.080694198608398 ], [ -105.492919921875, 22.074583053588899 ], [ -105.477363586425994, 22.050693511962901 ], [ -105.467636108397997, 22.0440273284912 ], [ -105.468475341797003, 22.036806106567401 ], [ -105.45930480957, 22.0229187011719 ] ] ] }, { "type": "Polygon", "coordinates": [ [ [ -105.569046020507997, 22.186746597290199 ], [ -105.542083740234006, 22.154304504394599 ], [ -105.530975341797003, 22.1254158020019 ], [ -105.544860839844006, 22.1326408386232 ], [ -105.549308776855, 22.1534729003907 ], [ -105.57430267334, 22.159860610961999 ], [ -105.581802368164006, 22.180973052978501 ], [ -105.569046020507997, 22.186746597290199 ] ] ] } ] } },
{ "type": "Feature", "properties": { "NAME_1": "Nayarit", "NAME_2": "Ruíz" }, "geometry": { "type": "Polygon", "coordinates": [ [ [ -104.926460266112997, 21.840600967407202 ], [ -105.015602111815994, 21.824890136718899 ], [ -105.059677124022997, 21.826410293579201 ], [ -105.072692871094006, 21.835069656371999 ], [ -105.095909118652003, 21.817790985107401 ], [ -105.13468170166, 21.818241119384801 ], [ -105.146469116210994, 21.825941085815501 ], [ -105.168006896972997, 21.881160736083999 ], [ -105.186210632324006, 21.892581939697301 ], [ -105.201187133789006, 21.916500091552798 ], [ -105.183486938477003, 21.916130065918001 ], [ -105.154319763184006, 21.941169738769599 ], [ -105.120857238769005, 21.9452228546143 ], [ -105.106163024902003, 21.936862945556701 ], [ -105.099662780762003, 21.914230346679702 ], [ -105.076278686522997, 21.917581558227599 ], [ -105.060546875, 21.936582565307699 ], [ -105.027732849120994, 21.909521102905401 ], [ -104.976669311522997, 21.9163112640381 ], [ -104.955223083495994, 21.9533195495607 ], [ -104.964050292969006, 21.9715881347656 ], [ -104.928428649902003, 22.0111598968507 ], [ -104.947662353515994, 22.039270401001001 ], [ -104.941352844237997, 22.058429718017699 ], [ -104.84105682373, 21.965129852295 ], [ -104.857856750487997, 21.924608230590898 ], [ -104.880798339844006, 21.902900695800898 ], [ -104.914031982422003, 21.89328956604 ], [ -104.926460266112997, 21.840600967407202 ] ] ] } },
{ "type": "Feature", "properties": { "NAME_1": "Nayarit", "NAME_2": "San Blas" }, "geometry": { "type": "Polygon", "coordinates": [ [ [ -105.126686096190994, 21.61967086792 ], [ -105.092277526855, 21.593240737915 ], [ -105.075790405272997, 21.539430618286101 ], [ -105.04899597168, 21.5100803375244 ], [ -105.058586120605, 21.481849670410199 ], [ -105.08846282959, 21.442369461059599 ], [ -105.087387084960994, 21.428211212158299 ], [ -105.046440124512003, 21.400129318237301 ], [ -105.072021484375, 21.366460800171001 ], [ -105.085968017577997, 21.325721740722798 ], [ -105.239028930664006, 21.331384658813501 ], [ -105.24430847168, 21.3456935882569 ], [ -105.237915039062003, 21.347639083862401 ], [ -105.24430847168, 21.346805572509901 ], [ -105.247917175292997, 21.347639083862401 ], [ -105.239585876465, 21.3529167175294 ], [ -105.238746643065994, 21.372638702392599 ], [ -105.229026794434006, 21.376527786255 ], [ -105.230140686035, 21.387081146240199 ], [ -105.220413208007997, 21.385971069336001 ], [ -105.217918395995994, 21.410417556762798 ], [ -105.188751220702997, 21.445417404174901 ], [ -105.189582824707003, 21.4643058776857 ], [ -105.201530456542997, 21.480972290039201 ], [ -105.198196411132997, 21.494581222534201 ], [ -105.232086181640994, 21.526807785034201 ], [ -105.246803283690994, 21.524585723877099 ], [ -105.247917175292997, 21.5123615264893 ], [ -105.265693664550994, 21.512083053588899 ], [ -105.266250610352003, 21.535417556762798 ], [ -105.267639160155994, 21.5165214538575 ], [ -105.410972595215, 21.598194122314599 ], [ -105.433715820312003, 21.618000030517599 ], [ -105.431587219237997, 21.647029876709102 ], [ -105.421188354492003, 21.652040481567401 ], [ -105.408943176269005, 21.642139434814499 ], [ -105.388290405272997, 21.656690597534201 ], [ -105.371917724609006, 21.651750564575298 ], [ -105.369247436522997, 21.679981231689499 ], [ -105.338417053222997, 21.684299468994102 ], [ -105.316535949707003, 21.708330154418999 ], [ -105.304428100585994, 21.701890945434702 ], [ -105.314346313477003, 21.6808891296387 ], [ -105.304077148437997, 21.681169509887699 ], [ -105.290252685547003, 21.718441009521499 ], [ -105.277893066405994, 21.7265129089356 ], [ -105.267730712890994, 21.718009948730501 ], [ -105.250633239745994, 21.673540115356399 ], [ -105.23314666748, 21.680099487304801 ], [ -105.15592956543, 21.660551071166999 ], [ -105.146713256835994, 21.634822845459102 ], [ -105.126686096190994, 21.61967086792 ] ] ] } },
{ "type": "Feature", "properties": { "NAME_1": "Nayarit", "NAME_2": "San Pedro Lagunillas" }, "geometry": { "type": "Polygon", "coordinates": [ [ [ -104.744422912597997, 20.9768295288087 ], [ -104.801292419434006, 21.00345993042 ], [ -104.847633361815994, 21.120790481567401 ], [ -104.837181091309006, 21.157068252563501 ], [ -104.818168640137003, 21.1804904937744 ], [ -104.786750793457003, 21.2765808105469 ], [ -104.742340087890994, 21.267259597778299 ], [ -104.716316223144005, 21.201259613037202 ], [ -104.702445983887003, 21.2038593292237 ], [ -104.674819946289006, 21.238040924072301 ], [ -104.657272338867003, 21.240411758422901 ], [ -104.654289245605, 21.200630187988398 ], [ -104.664962768555, 21.172399520873999 ], [ -104.637969970702997, 21.127559661865199 ], [ -104.634300231932997, 21.0772609710694 ], [ -104.698066711425994, 21.033670425415 ], [ -104.744422912597997, 20.9768295288087 ] ] ] } },
{ "type": "Feature", "properties": { "NAME_1": "Nayarit", "NAME_2": "Santa María del Oro" }, "geometry": { "type": "Polygon", "coordinates": [ [ [ -104.786750793457003, 21.2765808105469 ], [ -104.816566467285, 21.312549591064499 ], [ -104.78311920166, 21.325090408325199 ], [ -104.72403717041, 21.327350616455199 ], [ -104.723236083984006, 21.3356609344482 ], [ -104.75634765625, 21.365110397338899 ], [ -104.694160461425994, 21.3961601257325 ], [ -104.681747436522997, 21.411149978637798 ], [ -104.693557739257997, 21.450370788574201 ], [ -104.685180664062003, 21.471019744873001 ], [ -104.687576293945, 21.504341125488299 ], [ -104.661956787109006, 21.5206394195557 ], [ -104.625389099120994, 21.5170707702637 ], [ -104.611045837402003, 21.535030364990298 ], [ -104.586387634277003, 21.5385227203369 ], [ -104.578247070312003, 21.4860229492188 ], [ -104.540863037109006, 21.464950561523601 ], [ -104.554267883300994, 21.4364128112794 ], [ -104.550331115722997, 21.422441482543999 ], [ -104.527671813965, 21.4151401519775 ], [ -104.508636474609006, 21.431949615478501 ], [ -104.494956970215, 21.433710098266701 ], [ -104.48494720459, 21.421960830688501 ], [ -104.47859954834, 21.382770538330099 ], [ -104.438949584960994, 21.369390487670799 ], [ -104.442558288574006, 21.325969696045 ], [ -104.407920837402003, 21.304069519043001 ], [ -104.406860351562003, 21.257749557495199 ], [ -104.431800842285, 21.2168903350831 ], [ -104.472747802734006, 21.2105026245118 ], [ -104.493522644042997, 21.1973094940187 ], [ -104.53483581543, 21.1990680694581 ], [ -104.536903381347997, 21.178630828857401 ], [ -104.525718688965, 21.1556701660156 ], [ -104.532981872559006, 21.1262817382812 ], [ -104.538688659667997, 21.118230819702099 ], [ -104.560646057129006, 21.118118286132798 ], [ -104.580825805664006, 21.100490570068398 ], [ -104.606872558594006, 21.1356716156006 ], [ -104.637969970702997, 21.127559661865199 ], [ -104.648376464844006, 21.1361484527588 ], [ -104.664962768555, 21.172399520873999 ], [ -104.654289245605, 21.200630187988398 ], [ -104.657272338867003, 21.240411758422901 ], [ -104.674819946289006, 21.238040924072301 ], [ -104.702445983887003, 21.2038593292237 ], [ -104.716316223144005, 21.201259613037202 ], [ -104.742340087890994, 21.267259597778299 ], [ -104.786750793457003, 21.2765808105469 ] ] ] } },
{ "type": "Feature", "properties": { "NAME_1": "Nayarit", "NAME_2": "Santiago Ixcuintla" }, "geometry": { "type": "GeometryCollection", "geometries": [ { "type": "Polygon", "coordinates": [ [ [ -104.92000579834, 21.753950119018601 ], [ -104.929008483887003, 21.7529697418213 ], [ -104.938720703125, 21.705049514770501 ], [ -104.969596862792997, 21.700069427490298 ], [ -105.009986877440994, 21.7105808258057 ], [ -105.01872253418, 21.692260742187599 ], [ -105.038986206055, 21.694450378417901 ], [ -105.055671691895, 21.686540603637699 ], [ -105.091537475585994, 21.7050590515137 ], [ -105.095420837402003, 21.687749862670898 ], [ -105.113327026367003, 21.695421218872202 ], [ -105.130058288574006, 21.6886501312257 ], [ -105.135696411132997, 21.675479888916001 ], [ -105.119979858397997, 21.640050888061499 ], [ -105.126686096190994, 21.61967086792 ], [ -105.146713256835994, 21.634822845459102 ], [ -105.15592956543, 21.660551071166999 ], [ -105.23314666748, 21.680099487304801 ], [ -105.250633239745994, 21.673540115356399 ], [ -105.267730712890994, 21.718009948730501 ], [ -105.277893066405994, 21.7265129089356 ], [ -105.290252685547003, 21.718441009521499 ], [ -105.304077148437997, 21.681169509887699 ], [ -105.314346313477003, 21.6808891296387 ], [ -105.304428100585994, 21.701890945434702 ], [ -105.316535949707003, 21.708330154418999 ], [ -105.338417053222997, 21.684299468994102 ], [ -105.369247436522997, 21.679981231689499 ], [ -105.371917724609006, 21.651750564575298 ], [ -105.388290405272997, 21.656690597534201 ], [ -105.408943176269005, 21.642139434814499 ], [ -105.427856445312003, 21.650819778442301 ], [ -105.432357788085994, 21.613193511962901 ], [ -105.449584960937003, 21.6301383972168 ], [ -105.453475952147997, 21.656528472900401 ], [ -105.488471984862997, 21.722082138061499 ], [ -105.484024047850994, 21.733194351196399 ], [ -105.495697021484006, 21.7595825195313 ], [ -105.498748779297003, 21.749305725097699 ], [ -105.488471984862997, 21.733194351196399 ], [ -105.496246337890994, 21.7379169464112 ], [ -105.529304504394005, 21.803749084472599 ], [ -105.517639160155994, 21.809028625488398 ], [ -105.532363891602003, 21.827917098998999 ], [ -105.524307250977003, 21.808750152588001 ], [ -105.533752441405994, 21.811250686645501 ], [ -105.637359619140994, 21.975139617919901 ], [ -105.655136108397997, 22.0468044281006 ], [ -105.646530151367003, 22.172082901001101 ], [ -105.635414123535, 22.1826362609863 ], [ -105.615135192870994, 22.1851406097413 ], [ -105.596801757812003, 22.140415191650401 ], [ -105.580139160155994, 22.134305953979499 ], [ -105.57763671875, 22.125139236450298 ], [ -105.572364807129006, 22.136249542236399 ], [ -105.56014251709, 22.106805801391701 ], [ -105.536247253417997, 22.094583511352599 ], [ -105.538192749022997, 22.077083587646499 ], [ -105.507652282715, 22.043237686157301 ], [ -105.492950439452997, 22.0435886383057 ], [ -105.510940551757997, 22.055320739746001 ], [ -105.505630493164006, 22.066881179809599 ], [ -105.449806213379006, 21.998670578002901 ], [ -105.425086975097997, 21.986049652099599 ], [ -105.41414642334, 21.9652004241944 ], [ -105.432907104492003, 21.927999496460099 ], [ -105.412483215332003, 21.9356594085694 ], [ -105.418876647949006, 21.918260574340799 ], [ -105.36791229248, 21.9249496459962 ], [ -105.339057922362997, 21.904239654541101 ], [ -105.342971801757997, 21.881280899047901 ], [ -105.376197814940994, 21.861961364746101 ], [ -105.356628417969006, 21.8385009765625 ], [ -105.304916381835994, 21.850509643554702 ], [ -105.233932495117003, 21.844949722290199 ], [ -105.212951660155994, 21.8072910308838 ], [ -105.202247619629006, 21.812149047851602 ], [ -105.165168762207003, 21.863840103149499 ], [ -105.146469116210994, 21.825941085815501 ], [ -105.129302978515994, 21.8174228668213 ], [ -105.095909118652003, 21.817790985107401 ], [ -105.072692871094006, 21.835069656371999 ], [ -105.059677124022997, 21.826410293579201 ], [ -105.015602111815994, 21.824890136718899 ], [ -104.926460266112997, 21.840600967407202 ], [ -104.912040710449006, 21.812891006469801 ], [ -104.92000579834, 21.753950119018601 ] ] ] }, { "type": "Polygon", "coordinates": [ [ [ -105.999862670897997, 21.999860763549901 ], [ -106.000137329102003, 21.999860763549901 ], [ -106.000137329102003, 22.000139236450298 ], [ -105.999862670897997, 22.000139236450298 ], [ -105.999862670897997, 21.999860763549901 ] ] ] }, { "type": "Polygon", "coordinates": [ [ [ -105.892639160155994, 21.856250762939599 ], [ -105.880973815917997, 21.85013961792 ], [ -105.880416870117003, 21.842081069946399 ], [ -105.888191223144005, 21.8409729003906 ], [ -105.892639160155994, 21.856250762939599 ] ] ] }, { "type": "Polygon", "coordinates": [ [ [ -105.431007385254006, 21.6126384735107 ], [ -105.431251525879006, 21.6126384735107 ], [ -105.431167602539006, 21.612958908081001 ], [ -105.431007385254006, 21.6126384735107 ] ] ] } ] } },
{ "type": "Feature", "properties": { "NAME_1": "Nayarit", "NAME_2": "Tecuala" }, "geometry": { "type": "GeometryCollection", "geometries": [ { "type": "Polygon", "coordinates": [ [ [ -105.639305114745994, 22.4115295410157 ], [ -105.649864196777003, 22.4218063354493 ], [ -105.640975952147997, 22.434860229492301 ], [ -105.641807556152003, 22.4559726715088 ], [ -105.667083740234006, 22.474861145019599 ], [ -105.654861450195, 22.487638473510899 ], [ -105.658470153809006, 22.499305725097798 ], [ -105.668746948242003, 22.502361297607401 ], [ -105.656806945800994, 22.518194198608299 ], [ -105.671524047852003, 22.536806106567401 ], [ -105.671524047852003, 22.557916641235501 ], [ -105.680137634277003, 22.5723590850831 ], [ -105.667083740234006, 22.5801391601563 ], [ -105.632392883300994, 22.463180541992202 ], [ -105.620010375977003, 22.4450798034669 ], [ -105.58715057373, 22.4299926757812 ], [ -105.464576721190994, 22.435052871704201 ], [ -105.408760070800994, 22.385829925537099 ], [ -105.350273132324006, 22.3677291870118 ], [ -105.340217590332003, 22.345478057861399 ], [ -105.292526245117003, 22.299301147460898 ], [ -105.252700805664006, 22.295841217041101 ], [ -105.241638183594006, 22.278118133545 ], [ -105.294158935547003, 22.233089447021499 ], [ -105.326866149902003, 22.222980499267599 ], [ -105.381271362305, 22.232040405273501 ], [ -105.425926208495994, 22.194189071655298 ], [ -105.447486877440994, 22.199390411377099 ], [ -105.473426818847997, 22.226261138916101 ], [ -105.493865966797003, 22.219869613647599 ], [ -105.521118164062003, 22.2287998199463 ], [ -105.552856445312003, 22.213930130004901 ], [ -105.56014251709, 22.1837482452393 ], [ -105.569305419922003, 22.187084197998001 ], [ -105.567916870117003, 22.214582443237301 ], [ -105.580139160155994, 22.219303131103501 ], [ -105.595970153809006, 22.212083816528398 ], [ -105.60375213623, 22.1926383972169 ], [ -105.614028930664006, 22.213193893432699 ], [ -105.608474731445, 22.240972518921001 ], [ -105.629028320312003, 22.274583816528299 ], [ -105.63346862793, 22.363193511962901 ], [ -105.644027709960994, 22.388750076294102 ], [ -105.637084960937003, 22.404584884643601 ], [ -105.639305114745994, 22.4115295410157 ] ] ] }, { "type": "Polygon", "coordinates": [ [ [ -105.638473510742003, 22.187915802001999 ], [ -105.648475646972997, 22.2034721374512 ], [ -105.66625213623, 22.314861297607401 ], [ -105.689308166504006, 22.391527175903398 ], [ -105.75902557373, 22.530971527099599 ], [ -105.754302978515994, 22.539861679077202 ], [ -105.74764251709, 22.536249160766602 ], [ -105.71541595459, 22.4754161834718 ], [ -105.677917480469006, 22.468194961547901 ], [ -105.671249389647997, 22.480140686035199 ], [ -105.675140380859006, 22.507358551025401 ], [ -105.700973510742003, 22.560693740844702 ], [ -105.687362670897997, 22.5720825195312 ], [ -105.674308776855, 22.5556945800782 ], [ -105.675971984862997, 22.537082672119102 ], [ -105.661529541015994, 22.517360687256001 ], [ -105.670974731445, 22.5051383972169 ], [ -105.660140991210994, 22.490137100219801 ], [ -105.668472290039006, 22.478195190429702 ], [ -105.668746948242003, 22.468751907348601 ], [ -105.642913818359006, 22.4473609924318 ], [ -105.652359008789006, 22.421249389648501 ], [ -105.638748168945, 22.408750534057599 ], [ -105.645416259765994, 22.385972976684599 ], [ -105.635414123535, 22.2704162597657 ], [ -105.620140075684006, 22.2404174804688 ], [ -105.615417480469006, 22.192361831665 ], [ -105.638473510742003, 22.187915802001999 ] ] ] }, { "type": "Polygon", "coordinates": [ [ [ -105.718475341797003, 22.484584808349599 ], [ -105.713752746582003, 22.480417251586999 ], [ -105.713195800780994, 22.477636337280298 ], [ -105.71541595459, 22.478471755981399 ], [ -105.718475341797003, 22.484584808349599 ] ] ] } ] } },
{ "type": "Feature", "properties": { "NAME_1": "Nayarit", "NAME_2": "Tepic" }, "geometry": { "type": "Polygon", "coordinates": [ [ [ -104.75634765625, 21.365110397338899 ], [ -104.786148071289006, 21.36376953125 ], [ -104.818367004395, 21.373460769653398 ], [ -104.891700744629006, 21.4186096191407 ], [ -104.935417175292997, 21.406650543212901 ], [ -104.983383178710994, 21.4201583862306 ], [ -105.046440124512003, 21.400129318237301 ], [ -105.087387084960994, 21.428211212158299 ], [ -105.086471557617003, 21.451339721679702 ], [ -105.062118530272997, 21.4758110046387 ], [ -105.04899597168, 21.5100803375244 ], [ -105.075790405272997, 21.539430618286101 ], [ -105.092277526855, 21.593240737915 ], [ -105.126686096190994, 21.61967086792 ], [ -105.120590209960994, 21.6473503112794 ], [ -105.135696411132997, 21.675479888916001 ], [ -105.133422851562003, 21.6861896514893 ], [ -105.113327026367003, 21.695421218872202 ], [ -105.095420837402003, 21.687749862670898 ], [ -105.091537475585994, 21.7050590515137 ], [ -105.055671691895, 21.686540603637699 ], [ -105.038986206055, 21.694450378417901 ], [ -105.01872253418, 21.692260742187599 ], [ -105.009986877440994, 21.7105808258057 ], [ -104.969596862792997, 21.700069427490298 ], [ -104.938720703125, 21.705049514770501 ], [ -104.929008483887003, 21.7529697418213 ], [ -104.91584777832, 21.7529602050782 ], [ -104.899726867675994, 21.7365207672119 ], [ -104.863586425780994, 21.735790252685501 ], [ -104.848968505859006, 21.751270294189499 ], [ -104.856597900390994, 21.769121170043899 ], [ -104.832283020019005, 21.7895011901857 ], [ -104.762939453125, 21.8066005706787 ], [ -104.731109619140994, 21.793859481811602 ], [ -104.700416564940994, 21.7340927124025 ], [ -104.675628662109006, 21.708909988403398 ], [ -104.676361083984006, 21.6850109100343 ], [ -104.654396057129006, 21.6664028167725 ], [ -104.658309936522997, 21.6537895202637 ], [ -104.617362976074006, 21.592960357666101 ], [ -104.612953186035, 21.568149566650401 ], [ -104.586387634277003, 21.5385227203369 ], [ -104.611045837402003, 21.535030364990298 ], [ -104.625389099120994, 21.5170707702637 ], [ -104.661956787109006, 21.5206394195557 ], [ -104.687576293945, 21.504341125488299 ], [ -104.685180664062003, 21.471019744873001 ], [ -104.693557739257997, 21.450370788574201 ], [ -104.681747436522997, 21.411149978637798 ], [ -104.694160461425994, 21.3961601257325 ], [ -104.75634765625, 21.365110397338899 ] ] ] } },
{ "type": "Feature", "properties": { "NAME_1": "Nayarit", "NAME_2": "Tuxpan" }, "geometry": { "type": "Polygon", "coordinates": [ [ [ -105.41414642334, 21.9652004241944 ], [ -105.339469909667997, 21.958391189575298 ], [ -105.323318481445, 21.9475002288819 ], [ -105.316970825195, 21.9304904937744 ], [ -105.289840698242003, 21.924051284790099 ], [ -105.25520324707, 21.9223308563232 ], [ -105.248512268065994, 21.942340850830099 ], [ -105.239456176757997, 21.945880889892699 ], [ -105.168006896972997, 21.881160736083999 ], [ -105.165168762207003, 21.863840103149499 ], [ -105.202247619629006, 21.812149047851602 ], [ -105.212951660155994, 21.8072910308838 ], [ -105.233932495117003, 21.844949722290199 ], [ -105.313026428222997, 21.849979400634901 ], [ -105.353157043457003, 21.836570739746101 ], [ -105.376197814940994, 21.861961364746101 ], [ -105.342971801757997, 21.881280899047901 ], [ -105.339057922362997, 21.904239654541101 ], [ -105.36791229248, 21.9249496459962 ], [ -105.418876647949006, 21.918260574340799 ], [ -105.412483215332003, 21.9356594085694 ], [ -105.432907104492003, 21.927999496460099 ], [ -105.41414642334, 21.9652004241944 ] ] ] } },
{ "type": "Feature", "properties": { "NAME_1": "Nayarit", "NAME_2": "Xalisco" }, "geometry": { "type": "Polygon", "coordinates": [ [ [ -104.816566467285, 21.312549591064499 ], [ -104.830986022949006, 21.323900222778299 ], [ -104.852226257324006, 21.323410034179702 ], [ -104.899429321289006, 21.281600952148501 ], [ -104.930679321289006, 21.270441055298001 ], [ -104.970252990722997, 21.2825107574462 ], [ -105.008499145507997, 21.3114318847657 ], [ -105.036521911620994, 21.319810867309599 ], [ -105.047012329102003, 21.340360641479599 ], [ -105.064491271972997, 21.3254909515382 ], [ -105.085968017577997, 21.325721740722798 ], [ -105.072021484375, 21.366460800171001 ], [ -105.044006347655994, 21.40145111084 ], [ -104.983383178710994, 21.4201583862306 ], [ -104.935417175292997, 21.406650543212901 ], [ -104.899276733397997, 21.419130325317401 ], [ -104.86157989502, 21.404850006103501 ], [ -104.818367004395, 21.373460769653398 ], [ -104.786148071289006, 21.36376953125 ], [ -104.75634765625, 21.365110397338899 ], [ -104.720191955565994, 21.3302402496338 ], [ -104.73664855957, 21.322940826416101 ], [ -104.78311920166, 21.325090408325199 ], [ -104.816566467285, 21.312549591064499 ] ] ] } }
]
}
