{
"type": "FeatureCollection",
"name": "nuevo-leon",
"crs": { "type": "name", "properties": { "name": "urn:ogc:def:crs:OGC:1.3:CRS84" } },
"features": [
{ "type": "Feature", "properties": { "NAME_1": "Nuevo León", "NAME_2": "Abasolo" }, "geometry": { "type": "Polygon", "coordinates": [ [ [ -100.43815612793, 25.918300628662202 ], [ -100.475067138672003, 25.921760559081999 ], [ -100.471061706542997, 25.9582405090331 ], [ -100.451026916504006, 25.969230651855501 ], [ -100.434211730957003, 25.998798370361399 ], [ -100.389442443847997, 25.994421005249102 ], [ -100.389892578125, 25.951759338378999 ], [ -100.43815612793, 25.918300628662202 ] ] ] } },
{ "type": "Feature", "properties": { "NAME_1": "Nuevo León", "NAME_2": "Agualeguas" }, "geometry": { "type": "Polygon", "coordinates": [ [ [ -99.939590454101605, 26.1969108581543 ], [ -99.934288024902301, 26.236000061035298 ], [ -99.909072875976605, 26.271631240844702 ], [ -99.926521301269503, 26.3178005218507 ], [ -99.950042724609304, 26.345680236816499 ], [ -99.925903320312401, 26.379899978637599 ], [ -99.9256591796875, 26.396320343017699 ], [ -99.933700561523395, 26.405231475830099 ], [ -99.928436279296903, 26.417610168457099 ], [ -99.893226623535199, 26.391279220581101 ], [ -99.874389648437401, 26.3878097534181 ], [ -99.859169006347699, 26.4108905792237 ], [ -99.824378967285199, 26.417230606079201 ], [ -99.810302734374901, 26.441232681274499 ], [ -99.770301818847699, 26.447259902954102 ], [ -99.724449157714801, 26.4097003936768 ], [ -99.702941894531193, 26.4050006866456 ], [ -99.662300109863196, 26.444660186767599 ], [ -99.610466003417997, 26.430498123168899 ], [ -99.599899291992202, 26.468460083007901 ], [ -99.554878234863295, 26.450031280517599 ], [ -99.556365966796804, 26.428150177002099 ], [ -99.548286437988295, 26.422510147094801 ], [ -99.421951293945298, 26.394861221313501 ], [ -99.368247985839801, 26.328109741211101 ], [ -99.445632934570298, 26.3346881866456 ], [ -99.432792663574205, 26.3159294128418 ], [ -99.470420837402301, 26.3159999847413 ], [ -99.530860900878906, 26.302640914916999 ], [ -99.551300048828097, 26.288511276245099 ], [ -99.556411743164105, 26.267259597778398 ], [ -99.628242492675696, 26.222339630126999 ], [ -99.686943054199205, 26.2105407714844 ], [ -99.716346740722699, 26.179700851440501 ], [ -99.751792907714801, 26.177230834961001 ], [ -99.793006896972699, 26.143201828003001 ], [ -99.836135864257798, 26.135700225830099 ], [ -99.879310607910199, 26.142160415649499 ], [ -99.922218322753906, 26.1662311553956 ], [ -99.939590454101605, 26.1969108581543 ] ] ] } },
{ "type": "Feature", "properties": { "NAME_1": "Nuevo León", "NAME_2": "Allende" }, "geometry": { "type": "Polygon", "coordinates": [ [ [ -100.052917480469006, 25.222589492797901 ], [ -100.062255859375, 25.247400283813501 ], [ -100.095176696777003, 25.233892440795898 ], [ -100.114585876465, 25.309080123901399 ], [ -100.0693359375, 25.336460113525401 ], [ -100.046180725097997, 25.3773403167725 ], [ -100.038330078125, 25.4186611175538 ], [ -99.965339660644503, 25.4174900054932 ], [ -99.947402954101605, 25.4285583496094 ], [ -99.930999755859403, 25.377571105956999 ], [ -99.945236206054702, 25.351800918579201 ], [ -99.930557250976506, 25.3218898773194 ], [ -99.966476440429702, 25.2647399902344 ], [ -99.976417541503906, 25.218330383300799 ], [ -100.052917480469006, 25.222589492797901 ] ] ] } },
{ "type": "Feature", "properties": { "NAME_1": "Nuevo León", "NAME_2": "Anáhuac" }, "geometry": { "type": "Polygon", "coordinates": [ [ [ -99.760246276855398, 27.242200851440501 ], [ -99.747695922851605, 27.193660736083999 ], [ -99.706398010253906, 27.1615905761719 ], [ -99.7071533203125, 27.110532760620099 ], [ -99.690002441406193, 27.0825099945068 ], [ -99.686782836914105, 27.0506496429443 ], [ -99.755027770996094, 26.997970581054801 ], [ -99.784591674804702, 26.9203395843507 ], [ -99.845863342285199, 26.9286098480225 ], [ -99.899436950683594, 26.852331161499102 ], [ -99.914772033691406, 26.85959815979 ], [ -99.930656433105398, 26.847620010376001 ], [ -99.956108093261705, 26.8632907867432 ], [ -99.984260559082003, 26.838640213012699 ], [ -100.021392822265994, 26.8362007141113 ], [ -100.041809082030994, 26.825361251831001 ], [ -100.0625, 26.847368240356602 ], [ -100.06844329834, 26.873439788818398 ], [ -100.051490783690994, 26.895612716674801 ], [ -100.04564666748, 26.9327201843262 ], [ -100.027008056640994, 26.939020156860401 ], [ -100.02571105957, 26.9498805999757 ], [ -100.061492919922003, 26.975742340087901 ], [ -100.08748626709, 26.967420578003001 ], [ -100.102210998535, 26.9762783050537 ], [ -100.132087707519005, 26.9546203613282 ], [ -100.166023254394005, 26.996110916137798 ], [ -100.159187316895, 27.010339736938501 ], [ -100.169761657715, 27.041580200195298 ], [ -100.180946350097997, 27.049070358276499 ], [ -100.175872802734006, 27.0773105621338 ], [ -100.239776611327997, 27.0858592987062 ], [ -100.233383178710994, 27.116580963134801 ], [ -100.263603210449006, 27.159620285034201 ], [ -100.263252258300994, 27.1704711914062 ], [ -100.233901977539006, 27.19388961792 ], [ -100.247802734375, 27.238668441772599 ], [ -100.324882507324006, 27.261529922485401 ], [ -100.352439880370994, 27.253271102905298 ], [ -100.368232727050994, 27.265541076660199 ], [ -100.420761108397997, 27.256950378418001 ], [ -100.467567443847997, 27.293100357055799 ], [ -100.469947814940994, 27.305320739746101 ], [ -100.451469421387003, 27.332790374755898 ], [ -100.521827697754006, 27.3785705566406 ], [ -100.515106201172003, 27.4002494812012 ], [ -100.525177001952997, 27.4640502929688 ], [ -100.513603210449006, 27.492242813110501 ], [ -100.446449279785, 27.584989547729499 ], [ -100.423866271972997, 27.667890548706101 ], [ -100.40225982666, 27.6828708648682 ], [ -100.379257202147997, 27.690670013427798 ], [ -100.232086181640994, 27.699670791626001 ], [ -100.180763244629006, 27.684320449829201 ], [ -100.089813232422003, 27.6821594238282 ], [ -100.039001464844006, 27.666641235351602 ], [ -100.01180267334, 27.6669101715088 ], [ -99.935173034667997, 27.7133903503418 ], [ -99.878982543945298, 27.722110748291101 ], [ -99.853767395019503, 27.743291854858501 ], [ -99.843360900878906, 27.7648410797119 ], [ -99.817100524902202, 27.7742404937744 ], [ -99.799232482910099, 27.731849670410199 ], [ -99.769493103027301, 27.727191925048899 ], [ -99.726409912109403, 27.668109893798899 ], [ -99.748725891113295, 27.655981063842901 ], [ -99.782623291015597, 27.664630889892599 ], [ -99.771026611328097, 27.637720108032301 ], [ -99.794570922851506, 27.599279403686602 ], [ -99.841056823730497, 27.5896110534668 ], [ -99.870613098144503, 27.5706291198731 ], [ -99.923492431640597, 27.561491012573299 ], [ -99.939453124999901, 27.541450500488299 ], [ -99.928802490234403, 27.513250350952202 ], [ -99.942787170410099, 27.475389480590898 ], [ -99.929443359374901, 27.4631881713868 ], [ -99.898010253906193, 27.4559307098388 ], [ -99.758842468261705, 27.452642440796001 ], [ -99.7569580078125, 27.421091079711999 ], [ -99.806503295898395, 27.3744411468507 ], [ -99.753120422363295, 27.3396911621094 ], [ -99.749443054199205, 27.320739746093899 ], [ -99.760246276855398, 27.242200851440501 ] ] ] } },
{ "type": "Feature", "properties": { "NAME_1": "Nuevo León", "NAME_2": "Apodaca" }, "geometry": { "type": "Polygon", "coordinates": [ [ [ -100.16877746582, 25.746200561523601 ], [ -100.209861755370994, 25.814409255981399 ], [ -100.238822937012003, 25.844272613525401 ], [ -100.31266784668, 25.865430831909201 ], [ -100.30517578125, 25.9078903198243 ], [ -100.259017944335994, 25.938600540161101 ], [ -100.257347106934006, 25.8991394042969 ], [ -100.244201660155994, 25.8796195983888 ], [ -100.216583251952997, 25.892230987548899 ], [ -100.14079284668, 25.903192520141701 ], [ -100.132865905762003, 25.8873481750488 ], [ -100.131523132324006, 25.847650527954201 ], [ -100.112892150879006, 25.852460861206101 ], [ -100.086135864257997, 25.8379802703857 ], [ -100.071983337402003, 25.822599411010799 ], [ -100.079696655272997, 25.812049865722699 ], [ -100.04630279541, 25.790460586547901 ], [ -100.054077148437003, 25.776691436767599 ], [ -100.103317260742003, 25.767311096191499 ], [ -100.133422851562003, 25.743669509887699 ], [ -100.16877746582, 25.746200561523601 ] ] ] } },
{ "type": "Feature", "properties": { "NAME_1": "Nuevo León", "NAME_2": "Aramberri" }, "geometry": { "type": "Polygon", "coordinates": [ [ [ -99.641456604003906, 24.388490676879901 ], [ -99.640388488769503, 24.345769882202301 ], [ -99.675666809082003, 24.206501007080199 ], [ -99.678611755370994, 24.150180816650401 ], [ -99.666587829589801, 24.125608444213899 ], [ -99.605056762695298, 24.0636806488038 ], [ -99.554367065429702, 23.9523601531982 ], [ -99.810623168945298, 23.949659347534102 ], [ -99.843597412109304, 23.945341110229499 ], [ -99.844879150390597, 23.931959152221701 ], [ -99.859710693359304, 23.924430847168001 ], [ -99.921150207519503, 23.927352905273601 ], [ -99.955581665039105, 23.943639755249102 ], [ -99.977127075195199, 23.926410675048899 ], [ -100.032127380370994, 23.924869537353501 ], [ -100.055908203125, 23.907260894775298 ], [ -100.090431213379006, 23.9539699554444 ], [ -100.108489990234006, 24.009477615356399 ], [ -100.104553222655994, 24.031499862670898 ], [ -100.185646057129006, 24.1391506195069 ], [ -100.169898986815994, 24.208660125732401 ], [ -100.175720214844006, 24.2670803070068 ], [ -100.19507598877, 24.296831130981602 ], [ -100.168617248535, 24.3285217285156 ], [ -100.142051696777003, 24.354681015014702 ], [ -100.10774230957, 24.363531112671001 ], [ -100.075386047362997, 24.3828010559082 ], [ -100.064437866210994, 24.4042701721193 ], [ -100.07633972168, 24.4255695343018 ], [ -100.06608581543, 24.447559356689599 ], [ -100.010589599609006, 24.466751098632901 ], [ -99.944557189941406, 24.460058212280199 ], [ -99.831993103027301, 24.4062519073487 ], [ -99.805526733398395, 24.413330078125099 ], [ -99.768028259277301, 24.482770919799801 ], [ -99.691467285156193, 24.4844493865968 ], [ -99.675537109375, 24.472040176391602 ], [ -99.641456604003906, 24.388490676879901 ] ] ] } },
{ "type": "Feature", "properties": { "NAME_1": "Nuevo León", "NAME_2": "Bustamante" }, "geometry": { "type": "Polygon", "coordinates": [ [ [ -100.511276245117003, 26.683189392089801 ], [ -100.50163269043, 26.5843906402588 ], [ -100.473793029785, 26.558151245117301 ], [ -100.470016479492003, 26.542881011962901 ], [ -100.493576049805, 26.525600433349702 ], [ -100.53337097168, 26.515649795532301 ], [ -100.523559570312003, 26.4752712249756 ], [ -100.569610595702997, 26.466228485107401 ], [ -100.600288391112997, 26.4717617034912 ], [ -100.629592895507997, 26.4569911956788 ], [ -100.676795959472997, 26.485370635986399 ], [ -100.658157348632997, 26.535049438476602 ], [ -100.66382598877, 26.546228408813398 ], [ -100.682373046875, 26.553340911865199 ], [ -100.679573059082003, 26.5936603546144 ], [ -100.712051391602003, 26.621530532836999 ], [ -100.771865844727003, 26.702722549438501 ], [ -100.701881408690994, 26.702550888061499 ], [ -100.692558288574006, 26.736881256103501 ], [ -100.675628662109006, 26.748449325561602 ], [ -100.580696105957003, 26.675609588623001 ], [ -100.511276245117003, 26.683189392089801 ] ] ] } },
{ "type": "Feature", "properties": { "NAME_1": "Nuevo León", "NAME_2": "Cadereyta Jiménez" }, "geometry": { "type": "Polygon", "coordinates": [ [ [ -100.038330078125, 25.4186611175538 ], [ -100.087242126465, 25.467830657959102 ], [ -100.072189331055, 25.504590988159201 ], [ -100.089477539062003, 25.5245780944825 ], [ -100.095497131347997, 25.5924911499025 ], [ -100.026618957519005, 25.62965965271 ], [ -100.04328918457, 25.6431808471681 ], [ -100.00186920166, 25.671850204467798 ], [ -99.977249145507798, 25.679410934448399 ], [ -99.942672729492102, 25.661069869995199 ], [ -99.805976867675795, 25.633661270141701 ], [ -99.729682922363295, 25.646829605102599 ], [ -99.717987060546804, 25.635299682617202 ], [ -99.721305847167997, 25.606769561767599 ], [ -99.710670471191307, 25.587360382080099 ], [ -99.649726867675696, 25.5611896514893 ], [ -99.672386169433594, 25.532850265503001 ], [ -99.703552246093807, 25.538589477539102 ], [ -99.702735900878807, 25.515439987182599 ], [ -99.715530395507798, 25.5039291381837 ], [ -99.715415954589801, 25.476802825927798 ], [ -99.697837829589801, 25.4699306488038 ], [ -99.706886291503906, 25.4481506347656 ], [ -99.679542541503906, 25.4481506347656 ], [ -99.688438415527301, 25.431921005248999 ], [ -99.679412841796903, 25.4192504882813 ], [ -99.685722351074205, 25.3796005249025 ], [ -99.747070312499901, 25.382810592651499 ], [ -99.799942016601605, 25.361600875854499 ], [ -99.815216064453097, 25.340509414672901 ], [ -99.826416015624901, 25.343650817871101 ], [ -99.835548400878906, 25.37380027771 ], [ -99.886878967285099, 25.366039276123001 ], [ -99.890571594238295, 25.386051177978501 ], [ -99.874015808105398, 25.417509078979599 ], [ -99.9063720703125, 25.425090789795 ], [ -99.926437377929702, 25.4753303527832 ], [ -99.945632934570298, 25.465471267700298 ], [ -99.94384765625, 25.435901641845799 ], [ -99.956192016601605, 25.420459747314499 ], [ -100.038330078125, 25.4186611175538 ] ] ] } },
{ "type": "Feature", "properties": { "NAME_1": "Nuevo León", "NAME_2": "Carmen" }, "geometry": { "type": "Polygon", "coordinates": [ [ [ -100.31266784668, 25.865430831909201 ], [ -100.401679992675994, 25.8973903656007 ], [ -100.43815612793, 25.918300628662202 ], [ -100.389892578125, 25.951759338378999 ], [ -100.389442443847997, 25.994421005249102 ], [ -100.371170043945, 26.011592864990298 ], [ -100.313827514647997, 25.958602905273501 ], [ -100.332427978515994, 25.933599472046001 ], [ -100.30517578125, 25.9078903198243 ], [ -100.31266784668, 25.865430831909201 ] ] ] } },
{ "type": "Feature", "properties": { "NAME_1": "Nuevo León", "NAME_2": "Cerralvo" }, "geometry": { "type": "Polygon", "coordinates": [ [ [ -99.697456359863295, 25.917640686035199 ], [ -99.730796813964801, 25.923639297485501 ], [ -99.7530517578125, 25.9663105010987 ], [ -99.794296264648395, 25.972562789917099 ], [ -99.826141357421804, 26.042951583862401 ], [ -99.810829162597699, 26.098131179809702 ], [ -99.825126647949205, 26.136369705200199 ], [ -99.786689758300795, 26.145709991455199 ], [ -99.751792907714801, 26.177230834961001 ], [ -99.720062255859403, 26.1774196624757 ], [ -99.686943054199205, 26.2105407714844 ], [ -99.633529663085895, 26.2193698883057 ], [ -99.565757751464801, 26.260419845581101 ], [ -99.551910400390597, 26.2292995452882 ], [ -99.528762817382798, 26.239770889282202 ], [ -99.515830993652301, 26.2322006225587 ], [ -99.511566162109403, 26.203599929809599 ], [ -99.485282897949205, 26.178380966186602 ], [ -99.476058959960895, 26.143569946289102 ], [ -99.562438964843693, 26.126350402832099 ], [ -99.588111877441307, 26.084501266479599 ], [ -99.546440124511705, 26.045932769775501 ], [ -99.499778747558494, 26.024419784546001 ], [ -99.519203186035199, 26.008310317993299 ], [ -99.582862854003807, 25.9905605316162 ], [ -99.524887084960895, 25.900180816650401 ], [ -99.564056396484304, 25.8885612487794 ], [ -99.622146606445298, 25.8943805694581 ], [ -99.643737792968807, 25.912290573120199 ], [ -99.635696411132798, 25.948261260986399 ], [ -99.662628173828097, 25.962049484253001 ], [ -99.676368713378906, 25.955419540405199 ], [ -99.697456359863295, 25.917640686035199 ] ] ] } },
{ "type": "Feature", "properties": { "NAME_1": "Nuevo León", "NAME_2": "China" }, "geometry": { "type": "Polygon", "coordinates": [ [ [ -99.039779663085895, 25.1290302276612 ], [ -99.025543212890597, 25.141679763793899 ], [ -99.020393371582003, 25.1615200042725 ], [ -99.048652648925795, 25.196060180664102 ], [ -99.032211303710895, 25.2121696472169 ], [ -99.004608154296903, 25.2099113464356 ], [ -98.996940612792898, 25.217382431030298 ], [ -98.988662719726605, 25.254880905151399 ], [ -98.997131347656094, 25.282262802124102 ], [ -99.051010131835895, 25.272520065307699 ], [ -99.071907043457003, 25.280532836914102 ], [ -99.079238891601506, 25.300859451294102 ], [ -99.093376159667997, 25.308418273925799 ], [ -99.088462829589801, 25.330528259277401 ], [ -99.095703125, 25.342660903930799 ], [ -99.145149230957003, 25.3541584014893 ], [ -99.200736999511705, 25.4262599945069 ], [ -99.227287292480497, 25.430120468139801 ], [ -99.248641967773395, 25.444730758666999 ], [ -99.281646728515597, 25.519279479980501 ], [ -99.309379577636705, 25.519239425659201 ], [ -99.342018127441406, 25.5347003936769 ], [ -99.373497009277301, 25.510778427124102 ], [ -99.3975830078125, 25.523740768432699 ], [ -99.394180297851605, 25.536560058593899 ], [ -99.414497375488295, 25.5489406585694 ], [ -99.394493103027301, 25.570640563964901 ], [ -99.392059326171903, 25.585750579833999 ], [ -99.402496337890597, 25.595640182495199 ], [ -99.421012878417898, 25.591640472412099 ], [ -99.433288574218807, 25.6012783050537 ], [ -99.420227050781193, 25.625320434570298 ], [ -99.431701660156193, 25.659490585327202 ], [ -99.432685852050795, 25.692340850830199 ], [ -99.461486816406193, 25.701509475708001 ], [ -99.495635986328097, 25.734409332275401 ], [ -99.4932861328125, 25.744060516357401 ], [ -99.4658203125, 25.758911132812599 ], [ -99.366249084472699, 25.793212890625 ], [ -99.365592956542997, 25.836460113525401 ], [ -99.324966430664105, 25.855140686035099 ], [ -99.247642517089801, 25.862590789795 ], [ -99.245498657226605, 25.912239074706999 ], [ -99.195861816406193, 25.967741012573299 ], [ -99.170158386230497, 25.861192703247099 ], [ -99.197441101074205, 25.8450012207032 ], [ -99.215560913085895, 25.847650527954201 ], [ -99.221817016601406, 25.806619644165 ], [ -99.217697143554602, 25.790180206298899 ], [ -99.197959899902301, 25.7763595581056 ], [ -99.185821533203097, 25.754461288452202 ], [ -99.138908386230398, 25.7435207366943 ], [ -99.068031311035199, 25.706489562988299 ], [ -98.988517761230398, 25.676649093628001 ], [ -98.919670104980398, 25.660781860351499 ], [ -98.903236389160199, 25.666339874267599 ], [ -98.877456665039105, 25.6568508148194 ], [ -98.866271972656193, 25.6740608215332 ], [ -98.835006713867102, 25.667730331421001 ], [ -98.790512084960895, 25.681619644165 ], [ -98.795448303222699, 25.656440734863299 ], [ -98.788726806640597, 25.649410247802798 ], [ -98.712417602539105, 25.7050895690919 ], [ -98.686111450195298, 25.695409774780401 ], [ -98.678413391113196, 25.7234191894532 ], [ -98.650756835937401, 25.746320724487401 ], [ -98.626296997070298, 25.752239227294901 ], [ -98.610366821289105, 25.741411209106499 ], [ -98.556747436523395, 25.736549377441399 ], [ -98.547439575195298, 25.7303695678712 ], [ -98.557312011718807, 25.7092208862306 ], [ -98.554412841796804, 25.6722011566162 ], [ -98.561378479003807, 25.647399902343899 ], [ -98.533805847167898, 25.590019226074201 ], [ -98.549240112304702, 25.5677928924562 ], [ -98.546928405761705, 25.553180694580099 ], [ -98.510681152343807, 25.53125 ], [ -98.414970397949205, 25.4987697601319 ], [ -98.418586730957003, 25.4650802612306 ], [ -98.469711303710895, 25.4314403533937 ], [ -98.494003295898395, 25.378641128540099 ], [ -98.548690795898395, 25.3506793975831 ], [ -98.594100952148395, 25.3040676116943 ], [ -98.634368896484403, 25.295312881469801 ], [ -98.681297302246094, 25.251590728759801 ], [ -98.826210021972599, 25.233600616455199 ], [ -98.862068176269503, 25.214492797851602 ], [ -98.888175964355497, 25.181810379028398 ], [ -98.899627685546903, 25.137559890747099 ], [ -98.918426513671804, 25.108240127563601 ], [ -99.009506225585895, 25.110290527343899 ], [ -99.030220031738196, 25.116210937500099 ], [ -99.039779663085895, 25.1290302276612 ] ] ] } },
{ "type": "Feature", "properties": { "NAME_1": "Nuevo León", "NAME_2": "Ciénega de Flores" }, "geometry": { "type": "Polygon", "coordinates": [ [ [ -100.082817077637003, 25.993040084838899 ], [ -100.129257202147997, 25.967861175537202 ], [ -100.141532897949006, 25.949750900268601 ], [ -100.156997680664006, 25.949310302734499 ], [ -100.226516723632997, 25.9855880737306 ], [ -100.222557067870994, 26.0094299316407 ], [ -100.266181945800994, 26.022520065307699 ], [ -100.24201965332, 26.048160552978601 ], [ -100.191223144530994, 26.042631149291999 ], [ -100.163848876952997, 26.070550918579102 ], [ -100.143836975097997, 26.075799942016701 ], [ -100.134231567382997, 26.069379806518601 ], [ -100.147766113280994, 26.037782669067401 ], [ -100.097969055175994, 26.016889572143601 ], [ -100.082817077637003, 25.993040084838899 ] ] ] } },
{ "type": "Feature", "properties": { "NAME_1": "Nuevo León", "NAME_2": "Doctor Arroyo" }, "geometry": { "type": "Polygon", "coordinates": [ [ [ -100.435676574707003, 23.208032608032202 ], [ -100.468650817870994, 23.239990234375 ], [ -100.495040893555, 23.303659439086999 ], [ -100.498260498047003, 23.3843994140625 ], [ -100.511177062987997, 23.421369552612301 ], [ -100.508003234862997, 23.464420318603501 ], [ -100.528541564940994, 23.511299133300799 ], [ -100.522872924805, 23.569789886474702 ], [ -100.498710632324006, 23.624139785766701 ], [ -100.482376098632997, 23.7175903320312 ], [ -100.487106323242003, 23.7506427764893 ], [ -100.525489807129006, 23.803989410400401 ], [ -100.517112731934006, 23.964759826660298 ], [ -100.552536010742003, 24.047082901001001 ], [ -100.651557922362997, 24.162340164184599 ], [ -100.645317077637003, 24.209020614624102 ], [ -100.650680541992003, 24.221410751342901 ], [ -100.712013244629006, 24.270982742309599 ], [ -100.729156494140994, 24.306789398193398 ], [ -100.678031921387003, 24.3720798492432 ], [ -100.622550964355, 24.4138793945313 ], [ -100.588920593262003, 24.4244995117188 ], [ -100.522537231445, 24.4805297851562 ], [ -100.508186340332003, 24.5016994476318 ], [ -100.424476623535, 24.480279922485401 ], [ -100.378761291504006, 24.451900482177798 ], [ -100.371147155762003, 24.4304428100587 ], [ -100.373382568359006, 24.401702880859499 ], [ -100.364051818847997, 24.3862400054932 ], [ -100.375549316405994, 24.337909698486399 ], [ -100.371040344237997, 24.331270217895501 ], [ -100.323516845702997, 24.313510894775501 ], [ -100.267417907715, 24.272199630737301 ], [ -100.215782165527003, 24.2987384796144 ], [ -100.186157226562003, 24.292100906372202 ], [ -100.175720214844006, 24.2670803070068 ], [ -100.169898986815994, 24.208660125732401 ], [ -100.185646057129006, 24.1391506195069 ], [ -100.104553222655994, 24.031499862670898 ], [ -100.108489990234006, 24.009477615356399 ], [ -100.090431213379006, 23.9539699554444 ], [ -100.055908203125, 23.907260894775298 ], [ -100.03734588623, 23.834720611572301 ], [ -99.960472106933594, 23.7887592315675 ], [ -99.963882446289105, 23.761400222778398 ], [ -99.954086303710895, 23.7404003143312 ], [ -99.911567687988295, 23.744188308715799 ], [ -99.858711242675795, 23.717710494995199 ], [ -99.883056640625, 23.7004299163818 ], [ -99.901283264160099, 23.608190536499102 ], [ -99.964942932128906, 23.533740997314499 ], [ -99.976486206054702, 23.480800628662099 ], [ -99.963577270507798, 23.440620422363398 ], [ -99.997245788574205, 23.449470520019499 ], [ -100.092147827147997, 23.4344997406006 ], [ -100.160263061522997, 23.4664306640625 ], [ -100.199089050292997, 23.458839416503999 ], [ -100.232292175292997, 23.480239868164102 ], [ -100.285285949707003, 23.464719772338899 ], [ -100.336853027344006, 23.466449737548899 ], [ -100.397399902344006, 23.398759841918899 ], [ -100.406776428222997, 23.372770309448299 ], [ -100.39453125, 23.352239608764801 ], [ -100.397895812987997, 23.3054904937744 ], [ -100.385871887207003, 23.2617206573487 ], [ -100.352966308594006, 23.233810424804702 ], [ -100.333946228027003, 23.202922821044901 ], [ -100.351119995117003, 23.1756610870362 ], [ -100.361541748047003, 23.1721591949463 ], [ -100.435676574707003, 23.208032608032202 ] ] ] } },
{ "type": "Feature", "properties": { "NAME_1": "Nuevo León", "NAME_2": "Doctor Coss" }, "geometry": { "type": "Polygon", "coordinates": [ [ [ -99.195861816406193, 25.967741012573299 ], [ -99.153472900390597, 26.028200149536101 ], [ -99.153068542480497, 26.051570892333999 ], [ -99.167053222656193, 26.070619583129901 ], [ -99.162948608398395, 26.100400924682599 ], [ -99.099403381347699, 26.093980789184702 ], [ -99.069541931152301, 26.081909179687599 ], [ -99.006370544433494, 26.0824508666993 ], [ -98.974067687988295, 26.054531097412202 ], [ -98.932769775390597, 25.976480484008899 ], [ -98.906593322753807, 25.959091186523398 ], [ -98.863861083984403, 25.964969635009801 ], [ -98.796707153320298, 26.004600524902401 ], [ -98.764831542968807, 25.904581069946399 ], [ -98.786300659179702, 25.897182464599702 ], [ -98.934532165527301, 25.911779403686499 ], [ -99.069892883300696, 25.883050918579102 ], [ -99.096168518066406, 25.895029067993299 ], [ -99.133247375488295, 25.863000869751101 ], [ -99.139358520507798, 25.866968154907301 ], [ -99.138076782226506, 25.8948707580568 ], [ -99.148162841796804, 25.905990600586001 ], [ -99.162361145019503, 25.908369064331101 ], [ -99.180023193359304, 25.897659301757901 ], [ -99.195861816406193, 25.967741012573299 ] ] ] } },
{ "type": "Feature", "properties": { "NAME_1": "Nuevo León", "NAME_2": "Doctor González" }, "geometry": { "type": "Polygon", "coordinates": [ [ [ -99.768539428710895, 25.7162303924562 ], [ -99.830528259277301, 25.745620727539201 ], [ -99.889251708984403, 25.7564296722413 ], [ -99.913497924804602, 25.785560607910199 ], [ -99.918167114257798, 25.8172206878663 ], [ -99.970191955566406, 25.847770690918001 ], [ -99.980445861816307, 25.8615417480469 ], [ -99.987960815429702, 25.902379989624102 ], [ -99.980346679687401, 25.9220905303956 ], [ -99.9573974609375, 25.9351406097413 ], [ -99.926986694335895, 25.939010620117301 ], [ -99.889640808105398, 25.985282897949201 ], [ -99.869720458984304, 25.9864006042481 ], [ -99.854042053222699, 26.001279830932699 ], [ -99.814109802245994, 25.9927501678468 ], [ -99.796707153320298, 25.983789443969702 ], [ -99.787567138671903, 25.967729568481399 ], [ -99.7530517578125, 25.9663105010987 ], [ -99.730796813964801, 25.923639297485501 ], [ -99.697456359863295, 25.917640686035199 ], [ -99.717399597167997, 25.845922470092901 ], [ -99.698059082031193, 25.834659576416001 ], [ -99.700653076171804, 25.822980880737401 ], [ -99.686622619628807, 25.806457519531399 ], [ -99.685241699218807, 25.7723102569581 ], [ -99.724845886230398, 25.736589431762699 ], [ -99.734169006347699, 25.7145900726318 ], [ -99.749916076660199, 25.721490859985298 ], [ -99.768539428710895, 25.7162303924562 ] ] ] } },
{ "type": "Feature", "properties": { "NAME_1": "Nuevo León", "NAME_2": "Galeana" }, "geometry": { "type": "Polygon", "coordinates": [ [ [ -100.678031921387003, 24.3720798492432 ], [ -100.707099914550994, 24.3857326507568 ], [ -100.687408447265994, 24.425880432128999 ], [ -100.687683105469006, 24.443250656128001 ], [ -100.740371704102003, 24.4616203308106 ], [ -100.776351928710994, 24.453161239624102 ], [ -100.792869567870994, 24.457790374755898 ], [ -100.812088012695, 24.474969863891701 ], [ -100.854110717772997, 24.5394210815431 ], [ -100.827529907227003, 24.562192916870199 ], [ -100.823051452637003, 24.604841232299801 ], [ -100.79239654541, 24.6805305480957 ], [ -100.818206787109006, 24.7187099456787 ], [ -100.826637268065994, 24.7758483886719 ], [ -100.875778198242003, 24.8195705413819 ], [ -100.864128112792997, 24.862060546875099 ], [ -100.876441955565994, 24.905429840087901 ], [ -100.854827880859006, 24.917240142822301 ], [ -100.78434753418, 24.914241790771499 ], [ -100.767196655272997, 24.921398162841701 ], [ -100.776016235352003, 24.982370376586999 ], [ -100.770500183105, 25.017829895019499 ], [ -100.804969787597997, 25.115470886230401 ], [ -100.799766540527003, 25.132972717285298 ], [ -100.761016845702997, 25.1804504394532 ], [ -100.74382019043, 25.223699569702202 ], [ -100.736968994140994, 25.232219696045 ], [ -100.661766052245994, 25.255172729492202 ], [ -100.677192687987997, 25.282680511474599 ], [ -100.670356750487997, 25.2882194519043 ], [ -100.586326599120994, 25.290969848632798 ], [ -100.564163208007997, 25.282751083373999 ], [ -100.527160644530994, 25.234960556030401 ], [ -100.450508117675994, 25.214910507202202 ], [ -100.414627075195, 25.213260650634801 ], [ -100.381660461425994, 25.199790954589801 ], [ -100.348358154297003, 25.200630187988299 ], [ -100.339118957519005, 25.185941696167099 ], [ -100.259727478027003, 25.143400192260799 ], [ -100.189270019530994, 25.041429519653398 ], [ -100.148307800292997, 24.9333305358887 ], [ -100.130249023437997, 24.9051609039307 ], [ -100.095252990722997, 24.889722824096701 ], [ -100.070449829102003, 24.908840179443398 ], [ -100.039093017577997, 24.881689071655298 ], [ -100.013526916504006, 24.871110916137798 ], [ -99.959899902343807, 24.907850265503001 ], [ -99.933502197265597, 24.822019577026499 ], [ -99.940528869628906, 24.805810928344702 ], [ -99.987136840820298, 24.802789688110401 ], [ -99.998992919921903, 24.789342880249102 ], [ -100.003089904785, 24.754978179931701 ], [ -99.987426757812401, 24.716480255126999 ], [ -99.981369018554702, 24.672121047973601 ], [ -99.911987304687401, 24.597089767456101 ], [ -99.878746032714801, 24.542049407958999 ], [ -99.831031799316406, 24.513290405273601 ], [ -99.827850341796804, 24.496311187744102 ], [ -99.867622375488196, 24.511550903320401 ], [ -99.924858093261705, 24.483730316162099 ], [ -99.948120117187401, 24.461139678955199 ], [ -100.010589599609006, 24.466751098632901 ], [ -100.061080932617003, 24.450580596923899 ], [ -100.07633972168, 24.4255695343018 ], [ -100.064437866210994, 24.4042701721193 ], [ -100.08080291748, 24.377620697021399 ], [ -100.142051696777003, 24.354681015014702 ], [ -100.19507598877, 24.296831130981602 ], [ -100.227569580077997, 24.2954006195069 ], [ -100.267417907715, 24.272199630737301 ], [ -100.323516845702997, 24.313510894775501 ], [ -100.374298095702997, 24.334489822387699 ], [ -100.364051818847997, 24.3862400054932 ], [ -100.374237060547003, 24.4067993164063 ], [ -100.373237609862997, 24.442340850830099 ], [ -100.384956359862997, 24.459299087524499 ], [ -100.467346191405994, 24.4940490722657 ], [ -100.512298583984006, 24.500339508056701 ], [ -100.522537231445, 24.4805297851562 ], [ -100.588920593262003, 24.4244995117188 ], [ -100.622550964355, 24.4138793945313 ], [ -100.678031921387003, 24.3720798492432 ] ] ] } },
{ "type": "Feature", "properties": { "NAME_1": "Nuevo León", "NAME_2": "García" }, "geometry": { "type": "Polygon", "coordinates": [ [ [ -100.517707824707003, 25.791151046753001 ], [ -100.586372375487997, 25.740789413452301 ], [ -100.642143249512003, 25.732061386108501 ], [ -100.767646789550994, 25.678789138793899 ], [ -100.798782348632997, 25.676019668579201 ], [ -100.811576843262003, 25.684070587158299 ], [ -100.842552185059006, 25.739070892334102 ], [ -100.854469299315994, 25.844659805298001 ], [ -100.839233398437003, 25.9016399383544 ], [ -100.814338684082003, 25.9527606964112 ], [ -100.790138244629006, 25.965589523315401 ], [ -100.703018188477003, 25.981580734252901 ], [ -100.665641784667997, 25.970991134643601 ], [ -100.636756896972997, 25.9776210784913 ], [ -100.56778717041, 25.954860687255898 ], [ -100.543586730957003, 25.965171813965 ], [ -100.531631469727003, 25.924779891967798 ], [ -100.518280029297003, 25.923389434814499 ], [ -100.512901306152003, 25.908931732177798 ], [ -100.489181518555, 25.895139694213999 ], [ -100.482048034667997, 25.869649887085 ], [ -100.461158752440994, 25.8639011383057 ], [ -100.452156066895, 25.8443794250488 ], [ -100.46752166748, 25.821640014648398 ], [ -100.517707824707003, 25.791151046753001 ] ] ] } },
{ "type": "Feature", "properties": { "NAME_1": "Nuevo León", "NAME_2": "General Bravo" }, "geometry": { "type": "Polygon", "coordinates": [ [ [ -98.592262268066307, 26.027692794799901 ], [ -98.583030700683494, 26.015659332275401 ], [ -98.573883056640597, 25.951839447021499 ], [ -98.546669006347699, 25.933500289916999 ], [ -98.558097839355497, 25.804990768432599 ], [ -98.533142089843693, 25.754400253295898 ], [ -98.547439575195298, 25.7303695678712 ], [ -98.561920166015597, 25.7382507324219 ], [ -98.610366821289105, 25.741411209106499 ], [ -98.629287719726506, 25.752201080322401 ], [ -98.670593261718594, 25.733119964599702 ], [ -98.686111450195298, 25.695409774780401 ], [ -98.712417602539105, 25.7050895690919 ], [ -98.727043151855398, 25.689590454101499 ], [ -98.747779846191406, 25.684410095215 ], [ -98.783668518066307, 25.649288177490199 ], [ -98.795448303222699, 25.656440734863299 ], [ -98.790512084960895, 25.681619644165 ], [ -98.835006713867102, 25.667730331421001 ], [ -98.866271972656193, 25.6740608215332 ], [ -98.877456665039105, 25.6568508148194 ], [ -98.903236389160199, 25.666339874267599 ], [ -98.919670104980398, 25.660781860351499 ], [ -98.988517761230398, 25.676649093628001 ], [ -99.068031311035199, 25.706489562988299 ], [ -99.138908386230398, 25.7435207366943 ], [ -99.185821533203097, 25.754461288452202 ], [ -99.197959899902301, 25.7763595581056 ], [ -99.219902038574205, 25.7941303253175 ], [ -99.217185974121094, 25.8455905914307 ], [ -99.197441101074205, 25.8450012207032 ], [ -99.170776367187401, 25.858198165893601 ], [ -99.180023193359304, 25.897659301757901 ], [ -99.162361145019503, 25.908369064331101 ], [ -99.139312744140597, 25.897182464599702 ], [ -99.139358520507798, 25.866968154907301 ], [ -99.133247375488295, 25.863000869751101 ], [ -99.100585937499901, 25.893909454345799 ], [ -99.065498352050696, 25.8832397460938 ], [ -98.945213317871094, 25.9107894897462 ], [ -98.778442382812401, 25.898120880127099 ], [ -98.76513671875, 25.909009933471701 ], [ -98.799263000488295, 26.006019592285099 ], [ -98.773490905761705, 26.016109466552798 ], [ -98.745719909667898, 26.007240295410199 ], [ -98.647163391113295, 26.0289916992188 ], [ -98.592262268066307, 26.027692794799901 ] ] ] } },
{ "type": "Feature", "properties": { "NAME_1": "Nuevo León", "NAME_2": "General Escobedo" }, "geometry": { "type": "Polygon", "coordinates": [ [ [ -100.515762329100994, 25.912599563598601 ], [ -100.445732116699006, 25.9210605621338 ], [ -100.358619689940994, 25.8799228668213 ], [ -100.289436340332003, 25.859220504760799 ], [ -100.285606384277003, 25.849582672119102 ], [ -100.303131103515994, 25.824792861938501 ], [ -100.316741943359006, 25.825019836425799 ], [ -100.337142944335994, 25.799310684203999 ], [ -100.420745849609006, 25.810369491577202 ], [ -100.440353393555, 25.7523899078369 ], [ -100.454811096190994, 25.7723197937012 ], [ -100.498817443847997, 25.771778106689499 ], [ -100.517707824707003, 25.791151046753001 ], [ -100.451927185059006, 25.838859558105501 ], [ -100.458045959472997, 25.860679626464801 ], [ -100.482048034667997, 25.869649887085 ], [ -100.487106323242003, 25.892620086669901 ], [ -100.515762329100994, 25.912599563598601 ] ] ] } },
{ "type": "Feature", "properties": { "NAME_1": "Nuevo León", "NAME_2": "General Terán" }, "geometry": { "type": "Polygon", "coordinates": [ [ [ -99.386848449707003, 25.145219802856602 ], [ -99.438423156738295, 25.146480560302699 ], [ -99.478118896484403, 25.162239074706999 ], [ -99.587646484374901, 25.122631072998001 ], [ -99.585182189941406, 25.151929855346701 ], [ -99.6065673828125, 25.1549892425538 ], [ -99.6575927734375, 25.201610565185501 ], [ -99.689720153808594, 25.2511196136475 ], [ -99.716377258300696, 25.254590988159201 ], [ -99.716011047363196, 25.271551132202202 ], [ -99.751899719238295, 25.2758083343507 ], [ -99.743263244628807, 25.295200347900501 ], [ -99.754142761230398, 25.320209503173899 ], [ -99.766242980957003, 25.319879531860401 ], [ -99.771827697753906, 25.298610687255898 ], [ -99.787460327148395, 25.304418563842901 ], [ -99.780296325683594, 25.3700485229493 ], [ -99.742912292480497, 25.383928298950199 ], [ -99.683296203613196, 25.381679534912099 ], [ -99.686271667480497, 25.4027404785156 ], [ -99.679412841796903, 25.4192504882813 ], [ -99.688438415527301, 25.431921005248999 ], [ -99.679542541503906, 25.4481506347656 ], [ -99.706886291503906, 25.4481506347656 ], [ -99.697837829589801, 25.4699306488038 ], [ -99.648307800292997, 25.475570678711101 ], [ -99.590377807617102, 25.505542755126999 ], [ -99.554557800292997, 25.510791778564499 ], [ -99.541709899902301, 25.5225429534913 ], [ -99.506813049316406, 25.517999649047901 ], [ -99.488136291503906, 25.4963302612306 ], [ -99.402969360351605, 25.524051666259801 ], [ -99.373497009277301, 25.510778427124102 ], [ -99.342018127441406, 25.5347003936769 ], [ -99.309379577636705, 25.519239425659201 ], [ -99.281646728515597, 25.519279479980501 ], [ -99.248641967773395, 25.444730758666999 ], [ -99.227287292480497, 25.430120468139801 ], [ -99.200736999511705, 25.4262599945069 ], [ -99.145149230957003, 25.3541584014893 ], [ -99.095703125, 25.342660903930799 ], [ -99.088462829589801, 25.330528259277401 ], [ -99.093376159667997, 25.308418273925799 ], [ -99.079238891601506, 25.300859451294102 ], [ -99.071907043457003, 25.280532836914102 ], [ -99.051010131835895, 25.272520065307699 ], [ -99.000556945800696, 25.283800125122099 ], [ -98.988708496093693, 25.257522583007901 ], [ -99.000633239745994, 25.212440490722699 ], [ -99.029869079589801, 25.213060379028398 ], [ -99.048652648925795, 25.196060180664102 ], [ -99.020393371582003, 25.1615200042725 ], [ -99.028877258300696, 25.137680053711001 ], [ -99.039779663085895, 25.1290302276612 ], [ -99.049346923828097, 25.154130935668999 ], [ -99.074867248535199, 25.160171508789102 ], [ -99.117736816406193, 25.100700378418001 ], [ -99.133331298828097, 25.088850021362401 ], [ -99.183479309081903, 25.073900222778398 ], [ -99.193710327148395, 25.0591716766357 ], [ -99.199676513671804, 25.0694599151612 ], [ -99.190368652343807, 25.087989807128999 ], [ -99.245422363281193, 25.103532791137699 ], [ -99.251518249511705, 25.128709793090799 ], [ -99.272636413574205, 25.1268825531006 ], [ -99.264106750488295, 25.182130813598601 ], [ -99.372467041015597, 25.179122924804801 ], [ -99.386848449707003, 25.145219802856602 ] ] ] } },
{ "type": "Feature", "properties": { "NAME_1": "Nuevo León", "NAME_2": "General Treviño" }, "geometry": { "type": "Polygon", "coordinates": [ [ [ -99.39111328125, 26.1674098968506 ], [ -99.476058959960895, 26.143569946289102 ], [ -99.485282897949205, 26.178380966186602 ], [ -99.511566162109403, 26.203599929809599 ], [ -99.515830993652301, 26.2322006225587 ], [ -99.528762817382798, 26.239770889282202 ], [ -99.551910400390597, 26.2292995452882 ], [ -99.565757751464801, 26.260419845581101 ], [ -99.556411743164105, 26.267259597778398 ], [ -99.551300048828097, 26.288511276245099 ], [ -99.505912780761705, 26.309680938720799 ], [ -99.432792663574205, 26.3159294128418 ], [ -99.445632934570298, 26.3346881866456 ], [ -99.368247985839801, 26.328109741211101 ], [ -99.353607177734304, 26.314580917358299 ], [ -99.352439880370994, 26.2941703796387 ], [ -99.341377258300696, 26.286891937255898 ], [ -99.356826782226506, 26.272520065307699 ], [ -99.321876525878906, 26.242719650268601 ], [ -99.3109130859375, 26.219560623168899 ], [ -99.311073303222599, 26.198551177978601 ], [ -99.330390930175795, 26.181209564208899 ], [ -99.381690979003906, 26.188890457153398 ], [ -99.39111328125, 26.1674098968506 ] ] ] } },
{ "type": "Feature", "properties": { "NAME_1": "Nuevo León", "NAME_2": "General Zaragoza" }, "geometry": { "type": "Polygon", "coordinates": [ [ [ -99.464256286621094, 23.815631866455099 ], [ -99.47110748291, 23.811351776123001 ], [ -99.560928344726506, 23.831689834594702 ], [ -99.568550109863196, 23.828161239623999 ], [ -99.569923400878906, 23.792680740356499 ], [ -99.582000732421804, 23.772970199585 ], [ -99.652107238769503, 23.7370910644531 ], [ -99.686141967773395, 23.7316608428956 ], [ -99.782371520995994, 23.7571105957031 ], [ -99.809837341308494, 23.750810623168899 ], [ -99.858711242675795, 23.717710494995199 ], [ -99.911567687988295, 23.744188308715799 ], [ -99.954086303710895, 23.7404003143312 ], [ -99.963882446289105, 23.761400222778398 ], [ -99.960472106933594, 23.7887592315675 ], [ -100.03734588623, 23.834720611572301 ], [ -100.055908203125, 23.907260894775298 ], [ -100.032127380370994, 23.924869537353501 ], [ -99.977127075195199, 23.926410675048899 ], [ -99.955581665039105, 23.943639755249102 ], [ -99.921150207519503, 23.927352905273601 ], [ -99.859710693359304, 23.924430847168001 ], [ -99.844879150390597, 23.931959152221701 ], [ -99.843597412109304, 23.945341110229499 ], [ -99.810623168945298, 23.949659347534102 ], [ -99.554367065429702, 23.9523601531982 ], [ -99.538223266601506, 23.9173316955568 ], [ -99.506576538085895, 23.9115104675293 ], [ -99.494720458984403, 23.9015998840332 ], [ -99.464256286621094, 23.815631866455099 ] ] ] } },
{ "type": "Feature", "properties": { "NAME_1": "Nuevo León", "NAME_2": "General Zuazua" }, "geometry": { "type": "Polygon", "coordinates": [ [ [ -100.036529541015994, 25.9309616088868 ], [ -100.064346313477003, 25.923091888427798 ], [ -100.071022033690994, 25.913692474365298 ], [ -100.067649841309006, 25.8918895721437 ], [ -100.082786560059006, 25.874010086059599 ], [ -100.106071472167997, 25.8542919158937 ], [ -100.129188537597997, 25.846500396728501 ], [ -100.14079284668, 25.903192520141701 ], [ -100.247062683105, 25.881921768188501 ], [ -100.257347106934006, 25.8991394042969 ], [ -100.254676818847997, 25.9266681671144 ], [ -100.267883300780994, 25.966590881347699 ], [ -100.25463104248, 25.9787311553956 ], [ -100.226516723632997, 25.9855880737306 ], [ -100.16690826416, 25.952529907226602 ], [ -100.144172668457003, 25.948379516601701 ], [ -100.129257202147997, 25.967861175537202 ], [ -100.082817077637003, 25.993040084838899 ], [ -100.05020904541, 25.9632091522218 ], [ -100.011299133300994, 25.955379486083899 ], [ -100.036529541015994, 25.9309616088868 ] ] ] } },
{ "type": "Feature", "properties": { "NAME_1": "Nuevo León", "NAME_2": "Guadalupe" }, "geometry": { "type": "Polygon", "coordinates": [ [ [ -100.109962463379006, 25.706031799316399 ], [ -100.111831665039006, 25.686300277709901 ], [ -100.155586242675994, 25.689741134643601 ], [ -100.172721862792997, 25.643150329589901 ], [ -100.244522094727003, 25.616268157958999 ], [ -100.266822814940994, 25.641519546508899 ], [ -100.281272888184006, 25.695480346679801 ], [ -100.276222229004006, 25.703060150146499 ], [ -100.255065917969006, 25.703060150146499 ], [ -100.211486816405994, 25.6840000152588 ], [ -100.209197998047003, 25.698921203613398 ], [ -100.19465637207, 25.7122402191162 ], [ -100.204116821289006, 25.748060226440501 ], [ -100.133422851562003, 25.743669509887699 ], [ -100.143539428710994, 25.728759765625099 ], [ -100.139053344727003, 25.714990615844801 ], [ -100.109962463379006, 25.706031799316399 ] ] ] } },
{ "type": "Feature", "properties": { "NAME_1": "Nuevo León", "NAME_2": "Hidalgo" }, "geometry": { "type": "Polygon", "coordinates": [ [ [ -100.475067138672003, 25.921760559081999 ], [ -100.515762329100994, 25.912599563598601 ], [ -100.518280029297003, 25.923389434814499 ], [ -100.531631469727003, 25.924779891967798 ], [ -100.543586730957003, 25.965171813965 ], [ -100.543907165527003, 25.985120773315501 ], [ -100.50895690918, 26.046760559082099 ], [ -100.487815856934006, 26.037811279296999 ], [ -100.433219909667997, 26.0434875488282 ], [ -100.392646789550994, 26.0123004913331 ], [ -100.371170043945, 26.011592864990298 ], [ -100.393646240234006, 25.9934997558594 ], [ -100.437118530272997, 25.997198104858299 ], [ -100.451026916504006, 25.969230651855501 ], [ -100.471061706542997, 25.9582405090331 ], [ -100.475067138672003, 25.921760559081999 ] ] ] } },
{ "type": "Feature", "properties": { "NAME_1": "Nuevo León", "NAME_2": "Higueras" }, "geometry": { "type": "Polygon", "coordinates": [ [ [ -100.082817077637003, 25.993040084838899 ], [ -100.097969055175994, 26.016889572143601 ], [ -100.122009277344006, 26.023099899292099 ], [ -100.075698852539006, 26.055360794067401 ], [ -100.070808410645, 26.0670394897462 ], [ -100.10684967041, 26.096380233764599 ], [ -100.139038085937003, 26.1019001007081 ], [ -100.134971618652003, 26.152019500732401 ], [ -100.124557495117003, 26.165290832519499 ], [ -100.092742919922003, 26.168920516967798 ], [ -100.070365905762003, 26.193599700927699 ], [ -100.047073364257997, 26.188320159912099 ], [ -100.017402648925994, 26.2081909179687 ], [ -99.9921875, 26.208620071411101 ], [ -99.939590454101605, 26.1969108581543 ], [ -99.922218322753906, 26.1662311553956 ], [ -99.885826110839801, 26.144910812378001 ], [ -99.822570800781193, 26.131788253784201 ], [ -99.810890197753807, 26.094009399414102 ], [ -99.826141357421804, 26.042951583862401 ], [ -99.796707153320298, 25.983789443969702 ], [ -99.854042053222699, 26.001279830932699 ], [ -99.869720458984304, 25.9864006042481 ], [ -99.889640808105398, 25.985282897949201 ], [ -99.926986694335895, 25.939010620117301 ], [ -99.9771728515625, 25.925069808960099 ], [ -100.036529541015994, 25.9309616088868 ], [ -100.011299133300994, 25.955379486083899 ], [ -100.05020904541, 25.9632091522218 ], [ -100.082817077637003, 25.993040084838899 ] ] ] } },
{ "type": "Feature", "properties": { "NAME_1": "Nuevo León", "NAME_2": "Iturbide" }, "geometry": { "type": "Polygon", "coordinates": [ [ [ -99.959899902343807, 24.907850265503001 ], [ -99.933273315429702, 24.919748306274499 ], [ -99.911987304687401, 24.949480056762798 ], [ -99.883392333984403, 24.9567775726318 ], [ -99.892799377441307, 24.912660598754901 ], [ -99.888481140136705, 24.850580215454201 ], [ -99.836585998535199, 24.781589508056602 ], [ -99.820549011230497, 24.723930358886701 ], [ -99.817756652832003, 24.677658081054702 ], [ -99.799636840820298, 24.6346111297607 ], [ -99.801567077636705, 24.610700607299901 ], [ -99.757637023925795, 24.5497512817382 ], [ -99.773811340332003, 24.4909896850587 ], [ -99.769332885742202, 24.478942871093899 ], [ -99.813987731933594, 24.408000946044901 ], [ -99.836509704589801, 24.406351089477699 ], [ -99.898681640625, 24.442529678344801 ], [ -99.948120117187401, 24.461139678955199 ], [ -99.924858093261705, 24.483730316162099 ], [ -99.867622375488196, 24.511550903320401 ], [ -99.832077026367202, 24.493749618530298 ], [ -99.827423095703097, 24.504989624023398 ], [ -99.839530944824205, 24.520269393921001 ], [ -99.878746032714801, 24.542049407958999 ], [ -99.911987304687401, 24.597089767456101 ], [ -99.981369018554702, 24.672121047973601 ], [ -99.987426757812401, 24.716480255126999 ], [ -100.003089904785, 24.754978179931701 ], [ -99.998992919921903, 24.789342880249102 ], [ -99.987136840820298, 24.802789688110401 ], [ -99.940528869628906, 24.805810928344702 ], [ -99.933502197265597, 24.822019577026499 ], [ -99.959899902343807, 24.907850265503001 ] ] ] } },
{ "type": "Feature", "properties": { "NAME_1": "Nuevo León", "NAME_2": "Juárez" }, "geometry": { "type": "Polygon", "coordinates": [ [ [ -100.089477539062003, 25.5245780944825 ], [ -100.152687072754006, 25.53763961792 ], [ -100.180290222167997, 25.551389694213999 ], [ -100.216201782227003, 25.580490112304599 ], [ -100.244522094727003, 25.616268157958999 ], [ -100.172721862792997, 25.643150329589901 ], [ -100.155586242675994, 25.689741134643601 ], [ -100.111831665039006, 25.686300277709901 ], [ -100.109962463379006, 25.706031799316399 ], [ -100.083358764647997, 25.705570220947301 ], [ -100.067176818847997, 25.690429687500099 ], [ -100.025291442870994, 25.6869812011719 ], [ -99.979476928710895, 25.698898315429801 ], [ -99.977249145507798, 25.679410934448399 ], [ -100.00186920166, 25.671850204467798 ], [ -100.04328918457, 25.6431808471681 ], [ -100.026618957519005, 25.62965965271 ], [ -100.094917297362997, 25.5954704284668 ], [ -100.089477539062003, 25.5245780944825 ] ] ] } },
{ "type": "Feature", "properties": { "NAME_1": "Nuevo León", "NAME_2": "Lampazos de Naranjo" }, "geometry": { "type": "Polygon", "coordinates": [ [ [ -100.875137329102003, 27.0872516632081 ], [ -100.885070800780994, 27.1344699859619 ], [ -100.885513305664006, 27.206569671631001 ], [ -100.844131469727003, 27.275499343872099 ], [ -100.802375793457003, 27.322389602661101 ], [ -100.764488220215, 27.350009918213001 ], [ -100.716926574707003, 27.336381912231602 ], [ -100.633331298827997, 27.369190216064499 ], [ -100.539596557617003, 27.3651008605956 ], [ -100.521827697754006, 27.3785705566406 ], [ -100.474792480469006, 27.342399597168001 ], [ -100.45304107666, 27.3359699249268 ], [ -100.451995849609006, 27.3242092132569 ], [ -100.470970153809006, 27.299900054931602 ], [ -100.424026489257997, 27.258550643920898 ], [ -100.368232727050994, 27.265541076660199 ], [ -100.352439880370994, 27.253271102905298 ], [ -100.324882507324006, 27.261529922485401 ], [ -100.244361877440994, 27.2357196807862 ], [ -100.235191345215, 27.188238143921001 ], [ -100.263740539550994, 27.163459777831999 ], [ -100.256416320800994, 27.1415195465088 ], [ -100.233383178710994, 27.116580963134801 ], [ -100.239776611327997, 27.0858592987062 ], [ -100.175872802734006, 27.0773105621338 ], [ -100.180946350097997, 27.049070358276499 ], [ -100.169761657715, 27.041580200195298 ], [ -100.159187316895, 27.010339736938501 ], [ -100.166023254394005, 26.996110916137798 ], [ -100.132087707519005, 26.9546203613282 ], [ -100.102210998535, 26.9762783050537 ], [ -100.08748626709, 26.967420578003001 ], [ -100.061492919922003, 26.975742340087901 ], [ -100.02571105957, 26.9498805999757 ], [ -100.027008056640994, 26.939020156860401 ], [ -100.04564666748, 26.9327201843262 ], [ -100.051490783690994, 26.895612716674801 ], [ -100.06844329834, 26.873439788818398 ], [ -100.0625, 26.847368240356602 ], [ -100.041809082030994, 26.825361251831001 ], [ -100.096199035645, 26.841791152954201 ], [ -100.083282470702997, 26.823820114135899 ], [ -100.117546081542997, 26.829151153564499 ], [ -100.120407104492003, 26.8182697296143 ], [ -100.100250244140994, 26.7830810546875 ], [ -100.110870361327997, 26.771980285644599 ], [ -100.162651062012003, 26.812900543213001 ], [ -100.179779052734006, 26.8455924987793 ], [ -100.19393157959, 26.841529846191499 ], [ -100.243606567382997, 26.886520385742202 ], [ -100.242889404297003, 26.9150695800781 ], [ -100.261680603027003, 26.920780181884801 ], [ -100.278587341309006, 26.9498100280763 ], [ -100.302070617675994, 26.951459884643601 ], [ -100.298767089844006, 26.902511596679702 ], [ -100.333488464355, 26.875379562377901 ], [ -100.304077148437997, 26.8537712097168 ], [ -100.298896789550994, 26.835161209106602 ], [ -100.327369689940994, 26.830909729003999 ], [ -100.338569641112997, 26.8214015960693 ], [ -100.340942382812003, 26.815509796142599 ], [ -100.327667236327997, 26.804580688476701 ], [ -100.343338012695, 26.785549163818398 ], [ -100.336982727050994, 26.766920089721701 ], [ -100.428703308105, 26.752111434936602 ], [ -100.492561340332003, 26.6886005401612 ], [ -100.580696105957003, 26.675609588623001 ], [ -100.675628662109006, 26.748449325561602 ], [ -100.662933349609006, 26.779342651367202 ], [ -100.620613098145, 26.8071899414063 ], [ -100.613822937012003, 26.845111846923899 ], [ -100.585876464844006, 26.893400192260899 ], [ -100.604766845702997, 26.998729705810501 ], [ -100.603897094727003, 27.0708103179932 ], [ -100.618896484375, 27.085140228271499 ], [ -100.655197143555, 27.097730636596602 ], [ -100.693328857422003, 27.128919601440501 ], [ -100.711128234862997, 27.126501083374102 ], [ -100.724800109862997, 27.097080230713001 ], [ -100.738845825195, 27.015037536621101 ], [ -100.750419616699006, 27.0107727050782 ], [ -100.875137329102003, 27.0872516632081 ] ] ] } },
{ "type": "Feature", "properties": { "NAME_1": "Nuevo León", "NAME_2": "Linares" }, "geometry": { "type": "Polygon", "coordinates": [ [ [ -99.249046325683594, 24.8178310394288 ], [ -99.294326782226605, 24.8005294799806 ], [ -99.305938720703097, 24.849420547485501 ], [ -99.311088562011705, 24.857301712036101 ], [ -99.320686340332003, 24.853940963745099 ], [ -99.338851928710895, 24.8136100769044 ], [ -99.384902954101605, 24.795780181884801 ], [ -99.429702758789006, 24.737529754638601 ], [ -99.449371337890597, 24.7341995239257 ], [ -99.494247436523395, 24.745790481567401 ], [ -99.559806823730497, 24.657592773437599 ], [ -99.600601196289006, 24.635440826416101 ], [ -99.666748046875, 24.617080688476499 ], [ -99.693649291992202, 24.592138290405298 ], [ -99.746116638183494, 24.568069458007798 ], [ -99.757637023925795, 24.5497512817382 ], [ -99.801567077636705, 24.610700607299901 ], [ -99.799636840820298, 24.6346111297607 ], [ -99.817756652832003, 24.677658081054702 ], [ -99.820549011230497, 24.723930358886701 ], [ -99.836585998535199, 24.781589508056602 ], [ -99.888481140136705, 24.850580215454201 ], [ -99.892799377441307, 24.912660598754901 ], [ -99.882461547851605, 24.9816398620607 ], [ -99.850120544433594, 24.984079360961999 ], [ -99.815933227539006, 24.998920440673899 ], [ -99.778923034667898, 25.0325717926025 ], [ -99.729682922363295, 25.022680282592901 ], [ -99.705787658691307, 25.002508163452099 ], [ -99.677825927734403, 24.997310638427699 ], [ -99.585296630859403, 25.0210285186768 ], [ -99.524665832519503, 25.001012802123999 ], [ -99.463531494140597, 25.014352798461999 ], [ -99.354393005371094, 25.022012710571399 ], [ -99.336959838867202, 25.047550201416101 ], [ -99.379821777343693, 25.110498428344801 ], [ -99.386848449707003, 25.145219802856602 ], [ -99.377937316894503, 25.173509597778299 ], [ -99.305618286132798, 25.1855907440187 ], [ -99.264106750488295, 25.182130813598601 ], [ -99.272636413574205, 25.1268825531006 ], [ -99.251518249511705, 25.128709793090799 ], [ -99.245422363281193, 25.103532791137699 ], [ -99.190368652343807, 25.087989807128999 ], [ -99.199462890625, 25.066089630126999 ], [ -99.175338745117102, 24.985109329223601 ], [ -99.142768859863295, 24.964361190795799 ], [ -99.1578369140625, 24.903930664062599 ], [ -99.200576782226605, 24.898870468139702 ], [ -99.222602844238295, 24.8854885101319 ], [ -99.249046325683594, 24.8178310394288 ] ] ] } },
{ "type": "Feature", "properties": { "NAME_1": "Nuevo León", "NAME_2": "Los Aldamas" }, "geometry": { "type": "Polygon", "coordinates": [ [ [ -99.195861816406193, 25.967741012573299 ], [ -99.242073059082003, 25.9138412475587 ], [ -99.277442932128906, 25.9073181152344 ], [ -99.314682006835895, 25.943241119384801 ], [ -99.312080383300795, 25.976921081543001 ], [ -99.319740295410099, 25.997789382934599 ], [ -99.364242553710895, 26.029270172119201 ], [ -99.355812072753906, 26.121078491210898 ], [ -99.391639709472599, 26.175880432128999 ], [ -99.379371643066406, 26.189580917358501 ], [ -99.330390930175795, 26.181209564208899 ], [ -99.310417175292997, 26.20334815979 ], [ -99.321876525878906, 26.242719650268601 ], [ -99.356826782226506, 26.272520065307699 ], [ -99.341377258300696, 26.286891937255898 ], [ -99.353370666503906, 26.296100616455099 ], [ -99.353607177734304, 26.314580917358299 ], [ -99.299430847167898, 26.319932937622099 ], [ -99.299301147460895, 26.2784729003907 ], [ -99.250411987304602, 26.223890304565501 ], [ -99.227226257324205, 26.222560882568501 ], [ -99.205497741699205, 26.247158050537202 ], [ -99.172317504882798, 26.247299194335898 ], [ -99.165367126464801, 26.225320816040099 ], [ -99.179397583007798, 26.1992797851562 ], [ -99.147277832031193, 26.154790878295898 ], [ -99.186401367187401, 26.134750366211101 ], [ -99.152008056640497, 26.122390747070298 ], [ -99.144256591796804, 26.102159500122202 ], [ -99.163673400878906, 26.099260330200298 ], [ -99.167053222656193, 26.070619583129901 ], [ -99.153068542480497, 26.051570892333999 ], [ -99.155006408691406, 26.023849487304702 ], [ -99.195861816406193, 25.967741012573299 ] ] ] } },
{ "type": "Feature", "properties": { "NAME_1": "Nuevo León", "NAME_2": "Los Herreras" }, "geometry": { "type": "Polygon", "coordinates": [ [ [ -99.474792480468693, 25.7545680999757 ], [ -99.490562438964702, 25.811620712280298 ], [ -99.512252807617202, 25.810071945190501 ], [ -99.548812866210895, 25.832160949707099 ], [ -99.575202941894503, 25.8312911987306 ], [ -99.569137573242102, 25.845951080322301 ], [ -99.513130187988196, 25.876329421997202 ], [ -99.582862854003807, 25.9905605316162 ], [ -99.519203186035199, 26.008310317993299 ], [ -99.499778747558494, 26.024419784546001 ], [ -99.404083251953097, 25.999820709228501 ], [ -99.370857238769503, 26.000890731811602 ], [ -99.353523254394503, 26.0177898406982 ], [ -99.332008361816406, 26.0106410980225 ], [ -99.313980102539105, 25.986091613769599 ], [ -99.312927246093807, 25.939798355102599 ], [ -99.295631408691307, 25.9317207336425 ], [ -99.277442932128906, 25.9073181152344 ], [ -99.245498657226605, 25.912239074706999 ], [ -99.244667053222699, 25.8662509918212 ], [ -99.324966430664105, 25.855140686035099 ], [ -99.365592956542997, 25.836460113525401 ], [ -99.366249084472699, 25.793212890625 ], [ -99.474792480468693, 25.7545680999757 ] ] ] } },
{ "type": "Feature", "properties": { "NAME_1": "Nuevo León", "NAME_2": "Los Ramones" }, "geometry": { "type": "Polygon", "coordinates": [ [ [ -99.3975830078125, 25.523740768432699 ], [ -99.488136291503906, 25.4963302612306 ], [ -99.506813049316406, 25.517999649047901 ], [ -99.541709899902301, 25.5225429534913 ], [ -99.554557800292997, 25.510791778564499 ], [ -99.590377807617102, 25.505542755126999 ], [ -99.648307800292997, 25.475570678711101 ], [ -99.697837829589801, 25.4699306488038 ], [ -99.715415954589801, 25.476802825927798 ], [ -99.715530395507798, 25.5039291381837 ], [ -99.702735900878807, 25.515439987182599 ], [ -99.703552246093807, 25.538589477539102 ], [ -99.672386169433594, 25.532850265503001 ], [ -99.649726867675696, 25.5611896514893 ], [ -99.710670471191307, 25.587360382080099 ], [ -99.721305847167997, 25.606769561767599 ], [ -99.717987060546804, 25.635299682617202 ], [ -99.727355957031193, 25.645908355712901 ], [ -99.809082031249901, 25.6343498229982 ], [ -99.796348571777301, 25.657531738281399 ], [ -99.817253112792997, 25.679121017456101 ], [ -99.788108825683494, 25.6898803710938 ], [ -99.761428833007798, 25.719432830810501 ], [ -99.734169006347699, 25.7145900726318 ], [ -99.724845886230398, 25.736589431762699 ], [ -99.686882019042997, 25.769109725952099 ], [ -99.686622619628807, 25.806457519531399 ], [ -99.700653076171804, 25.822980880737401 ], [ -99.698059082031193, 25.834659576416001 ], [ -99.715408325195298, 25.841100692749102 ], [ -99.717323303222599, 25.8491306304932 ], [ -99.698806762695298, 25.9144306182862 ], [ -99.673156738281193, 25.958402633666999 ], [ -99.653770446777301, 25.9604301452637 ], [ -99.635696411132798, 25.948261260986399 ], [ -99.643737792968807, 25.912290573120199 ], [ -99.622146606445298, 25.8943805694581 ], [ -99.564056396484304, 25.8885612487794 ], [ -99.524887084960895, 25.900180816650401 ], [ -99.517059326171804, 25.8880310058594 ], [ -99.513977050781193, 25.873121261596701 ], [ -99.569137573242102, 25.845951080322301 ], [ -99.575202941894503, 25.8312911987306 ], [ -99.548812866210895, 25.832160949707099 ], [ -99.512252807617202, 25.810071945190501 ], [ -99.489036560058494, 25.8095512390137 ], [ -99.474792480468693, 25.7545680999757 ], [ -99.4932861328125, 25.744060516357401 ], [ -99.495635986328097, 25.734409332275401 ], [ -99.461486816406193, 25.701509475708001 ], [ -99.432685852050795, 25.692340850830199 ], [ -99.431701660156193, 25.659490585327202 ], [ -99.420227050781193, 25.625320434570298 ], [ -99.433288574218807, 25.6012783050537 ], [ -99.421012878417898, 25.591640472412099 ], [ -99.402496337890597, 25.595640182495199 ], [ -99.392059326171903, 25.585750579833999 ], [ -99.394493103027301, 25.570640563964901 ], [ -99.414497375488295, 25.5489406585694 ], [ -99.394180297851605, 25.536560058593899 ], [ -99.3975830078125, 25.523740768432699 ] ] ] } },
{ "type": "Feature", "properties": { "NAME_1": "Nuevo León", "NAME_2": "Marín" }, "geometry": { "type": "Polygon", "coordinates": [ [ [ -99.913902282714801, 25.792671203613299 ], [ -100.018821716309006, 25.811780929565501 ], [ -100.028022766112997, 25.845060348510799 ], [ -100.060111999512003, 25.868259429931602 ], [ -100.071678161620994, 25.904050827026399 ], [ -100.069129943847997, 25.918270111083999 ], [ -100.036529541015994, 25.9309616088868 ], [ -99.9771728515625, 25.925069808960099 ], [ -99.987960815429702, 25.902379989624102 ], [ -99.979187011718807, 25.8583297729493 ], [ -99.918167114257798, 25.8172206878663 ], [ -99.913902282714801, 25.792671203613299 ] ] ] } },
{ "type": "Feature", "properties": { "NAME_1": "Nuevo León", "NAME_2": "Melchor Ocampo" }, "geometry": { "type": "Polygon", "coordinates": [ [ [ -99.353523254394503, 26.0177898406982 ], [ -99.376640319824205, 25.999530792236399 ], [ -99.446022033691307, 26.006780624389599 ], [ -99.541023254394503, 26.042259216308501 ], [ -99.588111877441307, 26.084501266479599 ], [ -99.562438964843693, 26.126350402832099 ], [ -99.488693237304702, 26.136499404907301 ], [ -99.39111328125, 26.1674098968506 ], [ -99.364021301269503, 26.142391204833999 ], [ -99.355812072753906, 26.121078491210898 ], [ -99.366416931152301, 26.0382099151612 ], [ -99.353523254394503, 26.0177898406982 ] ] ] } },
{ "type": "Feature", "properties": { "NAME_1": "Nuevo León", "NAME_2": "Mier y Noriega" }, "geometry": { "type": "Polygon", "coordinates": [ [ [ -100.116676330565994, 23.2482604980469 ], [ -100.272972106934006, 23.2757892608643 ], [ -100.333946228027003, 23.202922821044901 ], [ -100.352966308594006, 23.233810424804702 ], [ -100.387870788574006, 23.2664508819581 ], [ -100.398666381835994, 23.314071655273501 ], [ -100.39453125, 23.352239608764801 ], [ -100.406776428222997, 23.372770309448299 ], [ -100.399879455565994, 23.3944702148437 ], [ -100.336853027344006, 23.466449737548899 ], [ -100.285285949707003, 23.464719772338899 ], [ -100.236030578612997, 23.480260848998999 ], [ -100.195343017577997, 23.457920074462901 ], [ -100.160263061522997, 23.4664306640625 ], [ -100.092147827147997, 23.4344997406006 ], [ -99.997245788574205, 23.449470520019499 ], [ -99.963577270507798, 23.440620422363398 ], [ -99.957946777343693, 23.402921676635799 ], [ -99.966140747070298, 23.337459564208999 ], [ -99.989677429199205, 23.3465805053712 ], [ -100.042747497559006, 23.3443508148194 ], [ -100.069313049315994, 23.356571197509901 ], [ -100.094383239745994, 23.348749160766499 ], [ -100.121536254882997, 23.326280593872099 ], [ -100.099792480469006, 23.276590347290199 ], [ -100.102378845215, 23.262199401855501 ], [ -100.116676330565994, 23.2482604980469 ] ] ] } },
{ "type": "Feature", "properties": { "NAME_1": "Nuevo León", "NAME_2": "Mina" }, "geometry": { "type": "Polygon", "coordinates": [ [ [ -100.543586730957003, 25.965171813965 ], [ -100.56778717041, 25.954860687255898 ], [ -100.636756896972997, 25.9776210784913 ], [ -100.665641784667997, 25.970991134643601 ], [ -100.725036621094006, 25.9811305999757 ], [ -100.814338684082003, 25.9527606964112 ], [ -100.824645996094006, 25.964319229126001 ], [ -100.864707946777003, 25.968471527099702 ], [ -100.921775817870994, 26.010059356689599 ], [ -100.963661193847997, 26.122049331665 ], [ -101.071487426757997, 26.195110321045 ], [ -101.149749755859006, 26.279792785644599 ], [ -101.256217956542997, 26.37068939209 ], [ -101.25366973877, 26.4139308929444 ], [ -101.157150268555, 26.500991821289102 ], [ -101.126739501952997, 26.578079223632798 ], [ -101.103561401367003, 26.614280700683601 ], [ -101.052825927734006, 26.640359878540099 ], [ -100.940406799315994, 26.641420364379901 ], [ -100.846542358397997, 26.7003993988038 ], [ -100.771865844727003, 26.702722549438501 ], [ -100.712051391602003, 26.621530532836999 ], [ -100.679573059082003, 26.5936603546144 ], [ -100.682373046875, 26.553340911865199 ], [ -100.66382598877, 26.546228408813398 ], [ -100.658157348632997, 26.535049438476602 ], [ -100.675621032715, 26.4981403350831 ], [ -100.674728393555, 26.483089447021602 ], [ -100.629592895507997, 26.4569911956788 ], [ -100.600288391112997, 26.4717617034912 ], [ -100.569610595702997, 26.466228485107401 ], [ -100.523559570312003, 26.4752712249756 ], [ -100.488548278809006, 26.404489517211999 ], [ -100.483459472655994, 26.338487625122202 ], [ -100.462951660155994, 26.261899948120199 ], [ -100.501457214355, 26.246170043945298 ], [ -100.513389587402003, 26.233600616455199 ], [ -100.539962768555, 26.228830337524499 ], [ -100.578109741210994, 26.164800643921001 ], [ -100.575813293457003, 26.158609390258899 ], [ -100.541999816895, 26.154462814331101 ], [ -100.500061035155994, 26.098081588745199 ], [ -100.500480651855, 26.082960128784201 ], [ -100.512138366699006, 26.071050643920898 ], [ -100.50789642334, 26.0488185882569 ], [ -100.543907165527003, 25.985120773315501 ], [ -100.543586730957003, 25.965171813965 ] ] ] } },
{ "type": "Feature", "properties": { "NAME_1": "Nuevo León", "NAME_2": "Montemorelos" }, "geometry": { "type": "Polygon", "coordinates": [ [ [ -99.882461547851605, 24.9816398620607 ], [ -99.899757385253807, 24.988431930541999 ], [ -99.937271118164105, 25.041530609131001 ], [ -99.986495971679702, 25.079790115356499 ], [ -99.982398986816406, 25.118019104003899 ], [ -100.052917480469006, 25.222589492797901 ], [ -99.976417541503906, 25.218330383300799 ], [ -99.966476440429702, 25.2647399902344 ], [ -99.930557250976506, 25.3218898773194 ], [ -99.945236206054702, 25.351800918579201 ], [ -99.930999755859403, 25.377571105956999 ], [ -99.947402954101605, 25.4285583496094 ], [ -99.945632934570298, 25.465471267700298 ], [ -99.926437377929702, 25.4753303527832 ], [ -99.9063720703125, 25.425090789795 ], [ -99.874015808105398, 25.417509078979599 ], [ -99.890571594238295, 25.386051177978501 ], [ -99.889671325683494, 25.3672199249268 ], [ -99.835548400878906, 25.37380027771 ], [ -99.826416015624901, 25.343650817871101 ], [ -99.815216064453097, 25.340509414672901 ], [ -99.799942016601605, 25.361600875854499 ], [ -99.780296325683594, 25.3700485229493 ], [ -99.787460327148395, 25.304418563842901 ], [ -99.771827697753906, 25.298610687255898 ], [ -99.766242980957003, 25.319879531860401 ], [ -99.754142761230398, 25.320209503173899 ], [ -99.743263244628807, 25.295200347900501 ], [ -99.751899719238295, 25.2758083343507 ], [ -99.716011047363196, 25.271551132202202 ], [ -99.716377258300696, 25.254590988159201 ], [ -99.689720153808594, 25.2511196136475 ], [ -99.6575927734375, 25.201610565185501 ], [ -99.6065673828125, 25.1549892425538 ], [ -99.585182189941406, 25.151929855346701 ], [ -99.589599609375, 25.1238708496093 ], [ -99.558601379394503, 25.128210067748999 ], [ -99.478118896484403, 25.162239074706999 ], [ -99.438423156738295, 25.146480560302699 ], [ -99.391510009765597, 25.147262573242202 ], [ -99.375740051269403, 25.101028442382798 ], [ -99.336959838867202, 25.047550201416101 ], [ -99.354393005371094, 25.022012710571399 ], [ -99.463531494140597, 25.014352798461999 ], [ -99.524665832519503, 25.001012802123999 ], [ -99.579719543457003, 25.021369934082099 ], [ -99.655197143554702, 24.998939514160099 ], [ -99.697906494140597, 24.999450683593899 ], [ -99.729682922363295, 25.022680282592901 ], [ -99.778923034667898, 25.0325717926025 ], [ -99.815933227539006, 24.998920440673899 ], [ -99.850120544433594, 24.984079360961999 ], [ -99.882461547851605, 24.9816398620607 ] ] ] } },
{ "type": "Feature", "properties": { "NAME_1": "Nuevo León", "NAME_2": "Monterrey" }, "geometry": { "type": "Polygon", "coordinates": [ [ [ -100.218742370605, 25.5837001800537 ], [ -100.241561889647997, 25.527250289916999 ], [ -100.288276672362997, 25.517570495605501 ], [ -100.307899475097997, 25.5253505706787 ], [ -100.371803283690994, 25.607950210571399 ], [ -100.371803283690994, 25.630010604858501 ], [ -100.350135803222997, 25.6773281097412 ], [ -100.352119445800994, 25.687669754028398 ], [ -100.386077880859006, 25.712249755859499 ], [ -100.420196533202997, 25.7228298187256 ], [ -100.438331604004006, 25.7430515289307 ], [ -100.42366027832, 25.807840347290199 ], [ -100.405822753905994, 25.8124294281006 ], [ -100.337142944335994, 25.799310684203999 ], [ -100.316741943359006, 25.825019836425799 ], [ -100.303131103515994, 25.824792861938501 ], [ -100.27725982666, 25.798139572143601 ], [ -100.278358459472997, 25.7687397003175 ], [ -100.271659851074006, 25.7593307495118 ], [ -100.204116821289006, 25.748060226440501 ], [ -100.19465637207, 25.7122402191162 ], [ -100.209197998047003, 25.698921203613398 ], [ -100.211486816405994, 25.6840000152588 ], [ -100.255065917969006, 25.703060150146499 ], [ -100.276222229004006, 25.703060150146499 ], [ -100.281272888184006, 25.695480346679801 ], [ -100.265312194824006, 25.638532638549901 ], [ -100.218742370605, 25.5837001800537 ] ] ] } },
{ "type": "Feature", "properties": { "NAME_1": "Nuevo León", "NAME_2": "Parás" }, "geometry": { "type": "Polygon", "coordinates": [ [ [ -99.466766357421903, 26.5395908355713 ], [ -99.421951293945298, 26.394861221313501 ], [ -99.548286437988295, 26.422510147094801 ], [ -99.556365966796804, 26.428150177002099 ], [ -99.554878234863295, 26.450031280517599 ], [ -99.599899291992202, 26.468460083007901 ], [ -99.610466003417997, 26.430498123168899 ], [ -99.662300109863196, 26.444660186767599 ], [ -99.702941894531193, 26.4050006866456 ], [ -99.724449157714801, 26.4097003936768 ], [ -99.769088745117202, 26.447071075439599 ], [ -99.740470886230497, 26.4704399108887 ], [ -99.714462280273395, 26.5513610839844 ], [ -99.726852416992102, 26.5694980621337 ], [ -99.713706970214801, 26.5742797851562 ], [ -99.75, 26.60445022583 ], [ -99.734901428222699, 26.617719650268601 ], [ -99.741546630859304, 26.6628112792969 ], [ -99.758247375488196, 26.6946411132813 ], [ -99.783515930175696, 26.7082004547119 ], [ -99.788246154785199, 26.727560043335 ], [ -99.770179748535, 26.7823905944825 ], [ -99.732292175292898, 26.8405990600587 ], [ -99.735939025878807, 26.8761711120606 ], [ -99.673522949218807, 26.850772857666101 ], [ -99.652786254882798, 26.830360412597798 ], [ -99.674842834472699, 26.759809494018601 ], [ -99.670860290527301, 26.725521087646602 ], [ -99.681442260742202, 26.670099258422901 ], [ -99.671485900878906, 26.64554977417 ], [ -99.648841857910099, 26.6314506530762 ], [ -99.622467041015597, 26.644161224365199 ], [ -99.602249145507798, 26.641651153564499 ], [ -99.586936950683594, 26.630500793456999 ], [ -99.568443298339801, 26.581800460815401 ], [ -99.553009033203097, 26.5619926452637 ], [ -99.524818420410199, 26.565380096435501 ], [ -99.503128051757798, 26.553749084472798 ], [ -99.477981567382798, 26.553951263427699 ], [ -99.466766357421903, 26.5395908355713 ] ] ] } },
{ "type": "Feature", "properties": { "NAME_1": "Nuevo León", "NAME_2": "Pesquería" }, "geometry": { "type": "Polygon", "coordinates": [ [ [ -100.109962463379006, 25.706031799316399 ], [ -100.139053344727003, 25.714990615844801 ], [ -100.139495849609006, 25.737480163574201 ], [ -100.107521057129006, 25.7652397155762 ], [ -100.054077148437003, 25.776691436767599 ], [ -100.045310974120994, 25.7870197296143 ], [ -100.079696655272997, 25.812049865722699 ], [ -100.073760986327997, 25.826271057128999 ], [ -100.112892150879006, 25.852460861206101 ], [ -100.067649841309006, 25.8918895721437 ], [ -100.056266784667997, 25.8625202178956 ], [ -100.028022766112997, 25.845060348510799 ], [ -100.014686584472997, 25.809249877929702 ], [ -99.913902282714801, 25.792671203613299 ], [ -99.884346008300795, 25.7534408569337 ], [ -99.830528259277301, 25.745620727539201 ], [ -99.768539428710895, 25.7162303924562 ], [ -99.788108825683494, 25.6898803710938 ], [ -99.816940307617202, 25.681419372558601 ], [ -99.796348571777301, 25.657531738281399 ], [ -99.809082031249901, 25.6343498229982 ], [ -99.942672729492102, 25.661069869995199 ], [ -99.977249145507798, 25.679410934448399 ], [ -99.984657287597599, 25.700740814208899 ], [ -100.025291442870994, 25.6869812011719 ], [ -100.067176818847997, 25.690429687500099 ], [ -100.083358764647997, 25.705570220947301 ], [ -100.109962463379006, 25.706031799316399 ] ] ] } },
{ "type": "Feature", "properties": { "NAME_1": "Nuevo León", "NAME_2": "Rayones" }, "geometry": { "type": "Polygon", "coordinates": [ [ [ -99.883392333984403, 24.9567775726318 ], [ -99.911987304687401, 24.949480056762798 ], [ -99.933273315429702, 24.919748306274499 ], [ -99.968566894531193, 24.9068298339844 ], [ -100.013526916504006, 24.871110916137798 ], [ -100.039093017577997, 24.881689071655298 ], [ -100.070449829102003, 24.908840179443398 ], [ -100.088500976562003, 24.892219543457099 ], [ -100.106552124022997, 24.891120910644599 ], [ -100.130249023437997, 24.9051609039307 ], [ -100.148307800292997, 24.9333305358887 ], [ -100.184837341307997, 25.033119201660199 ], [ -100.254013061522997, 25.137760162353501 ], [ -100.339118957519005, 25.185941696167099 ], [ -100.348358154297003, 25.200630187988299 ], [ -100.294456481934006, 25.2009181976318 ], [ -100.284370422362997, 25.2477207183838 ], [ -100.254318237305, 25.280290603637798 ], [ -100.206176757812003, 25.259170532226602 ], [ -100.155319213867003, 25.214500427246101 ], [ -100.062255859375, 25.247400283813501 ], [ -100.056121826172003, 25.226360321045 ], [ -99.982398986816406, 25.118019104003899 ], [ -99.986495971679702, 25.079790115356499 ], [ -99.937271118164105, 25.041530609131001 ], [ -99.899757385253807, 24.988431930541999 ], [ -99.882461547851605, 24.9816398620607 ], [ -99.883392333984403, 24.9567775726318 ] ] ] } },
{ "type": "Feature", "properties": { "NAME_1": "Nuevo León", "NAME_2": "Sabinas Hidalgo" }, "geometry": { "type": "Polygon", "coordinates": [ [ [ -99.931571960449205, 26.241939544677798 ], [ -99.964447021484403, 26.257289886474702 ], [ -99.976211547851605, 26.279239654541001 ], [ -100.018081665039006, 26.271972656250099 ], [ -100.033172607422003, 26.2829494476318 ], [ -100.061073303222997, 26.279100418090898 ], [ -100.121086120605, 26.375070571899499 ], [ -100.131599426269005, 26.375989913940401 ], [ -100.155006408690994, 26.3538703918457 ], [ -100.199058532715, 26.363740921020501 ], [ -100.199935913085994, 26.422838211059599 ], [ -100.217163085937003, 26.434719085693398 ], [ -100.236511230469006, 26.468481063842901 ], [ -100.229766845702997, 26.482612609863398 ], [ -100.213142395019005, 26.487371444702301 ], [ -100.22966003418, 26.5147418975831 ], [ -100.233741760254006, 26.5493602752687 ], [ -100.226707458495994, 26.566198348998999 ], [ -100.258583068847997, 26.586271286010799 ], [ -100.289306640625, 26.636602401733398 ], [ -100.282836914062003, 26.650699615478601 ], [ -100.302108764647997, 26.668462753296001 ], [ -100.305122375487997, 26.7259712219238 ], [ -100.319732666015994, 26.736219406128001 ], [ -100.343460083007997, 26.7757797241212 ], [ -100.341957092285, 26.790309906005898 ], [ -100.327667236327997, 26.804580688476701 ], [ -100.340942382812003, 26.815509796142599 ], [ -100.335693359375, 26.8254928588868 ], [ -100.298896789550994, 26.835161209106602 ], [ -100.304077148437997, 26.8537712097168 ], [ -100.333488464355, 26.875379562377901 ], [ -100.298767089844006, 26.902511596679702 ], [ -100.302070617675994, 26.951459884643601 ], [ -100.278587341309006, 26.9498100280763 ], [ -100.261680603027003, 26.920780181884801 ], [ -100.242889404297003, 26.9150695800781 ], [ -100.243606567382997, 26.886520385742202 ], [ -100.19393157959, 26.841529846191499 ], [ -100.179779052734006, 26.8455924987793 ], [ -100.162651062012003, 26.812900543213001 ], [ -100.111236572265994, 26.774930953979499 ], [ -100.120246887207003, 26.7493000030519 ], [ -100.114807128905994, 26.737480163574201 ], [ -100.078079223632997, 26.7217712402344 ], [ -100.057418823242003, 26.626750946045 ], [ -100.035217285155994, 26.598751068115199 ], [ -100.051345825195, 26.567367553710898 ], [ -100.035522460937997, 26.5470905303956 ], [ -100.032592773437997, 26.507909774780298 ], [ -100.013290405272997, 26.494449615478501 ], [ -100.000137329102003, 26.452959060668899 ], [ -99.977020263671804, 26.430360794067401 ], [ -99.971893310546903, 26.401620864868299 ], [ -99.955650329589801, 26.395900726318398 ], [ -99.936576843261705, 26.405918121337901 ], [ -99.9256591796875, 26.396320343017699 ], [ -99.925903320312401, 26.379899978637599 ], [ -99.950042724609304, 26.345680236816499 ], [ -99.926521301269503, 26.3178005218507 ], [ -99.909255981445298, 26.276660919189499 ], [ -99.913711547851605, 26.260442733764599 ], [ -99.931571960449205, 26.241939544677798 ] ] ] } },
{ "type": "Feature", "properties": { "NAME_1": "Nuevo León", "NAME_2": "Salinas Victoria" }, "geometry": { "type": "Polygon", "coordinates": [ [ [ -100.226516723632997, 25.9855880737306 ], [ -100.26651763916, 25.970720291137798 ], [ -100.259017944335994, 25.938600540161101 ], [ -100.300231933594006, 25.905361175537202 ], [ -100.331932067870994, 25.930850982666101 ], [ -100.313827514647997, 25.958602905273501 ], [ -100.359680175780994, 26.007690429687599 ], [ -100.392646789550994, 26.0123004913331 ], [ -100.42798614502, 26.042121887206999 ], [ -100.487815856934006, 26.037811279296999 ], [ -100.50895690918, 26.046760559082099 ], [ -100.512138366699006, 26.071050643920898 ], [ -100.49991607666, 26.086620330810501 ], [ -100.505439758300994, 26.11137008667 ], [ -100.541999816895, 26.154462814331101 ], [ -100.575813293457003, 26.158609390258899 ], [ -100.578109741210994, 26.164800643921001 ], [ -100.539962768555, 26.228830337524499 ], [ -100.513389587402003, 26.233600616455199 ], [ -100.501457214355, 26.246170043945298 ], [ -100.462951660155994, 26.261899948120199 ], [ -100.483459472655994, 26.338487625122202 ], [ -100.441436767577997, 26.336380004882798 ], [ -100.381042480469006, 26.3573207855225 ], [ -100.310935974120994, 26.3277797698975 ], [ -100.30451965332, 26.2912197113038 ], [ -100.285133361815994, 26.2859401702882 ], [ -100.261322021484006, 26.322240829467798 ], [ -100.239768981932997, 26.322219848632901 ], [ -100.205139160155994, 26.3390808105469 ], [ -100.199058532715, 26.363740921020501 ], [ -100.155006408690994, 26.3538703918457 ], [ -100.125541687012003, 26.376670837402301 ], [ -100.11067199707, 26.367530822753999 ], [ -100.109077453612997, 26.347660064697401 ], [ -100.061073303222997, 26.279100418090898 ], [ -100.033172607422003, 26.2829494476318 ], [ -100.018081665039006, 26.271972656250099 ], [ -99.976211547851605, 26.279239654541001 ], [ -99.964447021484403, 26.257289886474702 ], [ -99.931571960449205, 26.241939544677798 ], [ -99.939590454101605, 26.1969108581543 ], [ -100.014236450195, 26.208869934082099 ], [ -100.047073364257997, 26.188320159912099 ], [ -100.073791503905994, 26.192228317260799 ], [ -100.092742919922003, 26.168920516967798 ], [ -100.128517150879006, 26.1627712249756 ], [ -100.139038085937003, 26.1019001007081 ], [ -100.102951049805, 26.094089508056602 ], [ -100.072608947754006, 26.0707092285156 ], [ -100.073303222655994, 26.058111190796001 ], [ -100.122009277344006, 26.023099899292099 ], [ -100.149040222167997, 26.040309906005898 ], [ -100.134796142577997, 26.065719604492099 ], [ -100.140441894530994, 26.075109481811602 ], [ -100.163848876952997, 26.070550918579102 ], [ -100.191223144530994, 26.042631149291999 ], [ -100.24201965332, 26.048160552978601 ], [ -100.266181945800994, 26.022520065307699 ], [ -100.222557067870994, 26.0094299316407 ], [ -100.226516723632997, 25.9855880737306 ] ] ] } },
{ "type": "Feature", "properties": { "NAME_1": "Nuevo León", "NAME_2": "San Nicolás de los Garza" }, "geometry": { "type": "Polygon", "coordinates": [ [ [ -100.16877746582, 25.746200561523601 ], [ -100.271659851074006, 25.7593307495118 ], [ -100.278358459472997, 25.7687397003175 ], [ -100.27725982666, 25.798139572143601 ], [ -100.303131103515994, 25.824792861938501 ], [ -100.28581237793, 25.855308532715 ], [ -100.238822937012003, 25.844272613525401 ], [ -100.209861755370994, 25.814409255981399 ], [ -100.16877746582, 25.746200561523601 ] ] ] } },
{ "type": "Feature", "properties": { "NAME_1": "Nuevo León", "NAME_2": "San Pedro Garza García" }, "geometry": { "type": "Polygon", "coordinates": [ [ [ -100.371803283690994, 25.607950210571399 ], [ -100.392402648925994, 25.607481002807699 ], [ -100.440956115722997, 25.6279106140137 ], [ -100.452270507812003, 25.6440029144287 ], [ -100.442565917969006, 25.6775627136231 ], [ -100.446876525879006, 25.721450805664102 ], [ -100.436790466309006, 25.740068435668999 ], [ -100.420196533202997, 25.7228298187256 ], [ -100.386077880859006, 25.712249755859499 ], [ -100.349807739257997, 25.683530807495199 ], [ -100.371803283690994, 25.630010604858501 ], [ -100.371803283690994, 25.607950210571399 ] ] ] } },
{ "type": "Feature", "properties": { "NAME_1": "Nuevo León", "NAME_2": "Santa Catarina" }, "geometry": { "type": "Polygon", "coordinates": [ [ [ -100.241561889647997, 25.527250289916999 ], [ -100.221336364745994, 25.5089225769043 ], [ -100.218910217285, 25.484371185302798 ], [ -100.230537414550994, 25.445341110229599 ], [ -100.248458862305, 25.431089401245099 ], [ -100.33154296875, 25.433780670166001 ], [ -100.443771362305, 25.4818210601807 ], [ -100.480926513672003, 25.4650096893312 ], [ -100.508277893065994, 25.480131149291999 ], [ -100.552673339844006, 25.4722194671631 ], [ -100.590995788574006, 25.491910934448399 ], [ -100.612396240234006, 25.515560150146499 ], [ -100.638397216797003, 25.645730972290199 ], [ -100.648826599120994, 25.651931762695401 ], [ -100.733749389647997, 25.654870986938601 ], [ -100.767646789550994, 25.678789138793899 ], [ -100.642143249512003, 25.732061386108501 ], [ -100.586372375487997, 25.740789413452301 ], [ -100.517707824707003, 25.791151046753001 ], [ -100.498817443847997, 25.771778106689499 ], [ -100.460517883300994, 25.773780822753999 ], [ -100.445068359375, 25.764360427856602 ], [ -100.436790466309006, 25.740068435668999 ], [ -100.446876525879006, 25.721450805664102 ], [ -100.442565917969006, 25.6775627136231 ], [ -100.454566955565994, 25.650659561157301 ], [ -100.445350646972997, 25.631820678710898 ], [ -100.392402648925994, 25.607481002807699 ], [ -100.371803283690994, 25.607950210571399 ], [ -100.303298950195, 25.520999908447301 ], [ -100.284378051757997, 25.51780128479 ], [ -100.241561889647997, 25.527250289916999 ] ] ] } },
{ "type": "Feature", "properties": { "NAME_1": "Nuevo León", "NAME_2": "Santiago" }, "geometry": { "type": "Polygon", "coordinates": [ [ [ -100.552673339844006, 25.4722194671631 ], [ -100.508277893065994, 25.480131149291999 ], [ -100.480926513672003, 25.4650096893312 ], [ -100.443771362305, 25.4818210601807 ], [ -100.33154296875, 25.433780670166001 ], [ -100.24479675293, 25.432010650634801 ], [ -100.230537414550994, 25.445341110229599 ], [ -100.219856262207003, 25.475421905517599 ], [ -100.221336364745994, 25.5089225769043 ], [ -100.241561889647997, 25.527250289916999 ], [ -100.218742370605, 25.5837001800537 ], [ -100.160186767577997, 25.5406208038331 ], [ -100.079933166504006, 25.520679473877099 ], [ -100.072189331055, 25.504590988159201 ], [ -100.087242126465, 25.467830657959102 ], [ -100.039817810059006, 25.4214382171631 ], [ -100.040519714355, 25.394880294799801 ], [ -100.07283782959, 25.332069396972699 ], [ -100.11572265625, 25.305839538574201 ], [ -100.095176696777003, 25.233892440795898 ], [ -100.155319213867003, 25.214500427246101 ], [ -100.206176757812003, 25.259170532226602 ], [ -100.254318237305, 25.280290603637798 ], [ -100.270027160645, 25.314960479736399 ], [ -100.305000305175994, 25.326280593871999 ], [ -100.330017089844006, 25.358739852905298 ], [ -100.386306762695, 25.359130859375099 ], [ -100.466232299805, 25.375980377197301 ], [ -100.468406677245994, 25.385389328003001 ], [ -100.446250915527003, 25.408388137817401 ], [ -100.454086303710994, 25.4228210449219 ], [ -100.49755859375, 25.4509601593018 ], [ -100.552673339844006, 25.4722194671631 ] ] ] } },
{ "type": "Feature", "properties": { "NAME_1": "Nuevo León", "NAME_2": "Vallecillo" }, "geometry": { "type": "Polygon", "coordinates": [ [ [ -99.769088745117202, 26.447071075439599 ], [ -99.810302734374901, 26.441232681274499 ], [ -99.824378967285199, 26.417230606079201 ], [ -99.859169006347699, 26.4108905792237 ], [ -99.874389648437401, 26.3878097534181 ], [ -99.893226623535199, 26.391279220581101 ], [ -99.923187255859403, 26.417079925537202 ], [ -99.950370788574205, 26.397260665893601 ], [ -99.971893310546903, 26.401620864868299 ], [ -99.977020263671804, 26.430360794067401 ], [ -100.000137329102003, 26.452959060668899 ], [ -100.013290405272997, 26.494449615478501 ], [ -100.032592773437997, 26.507909774780298 ], [ -100.035522460937997, 26.5470905303956 ], [ -100.051345825195, 26.567367553710898 ], [ -100.035217285155994, 26.598751068115199 ], [ -100.057418823242003, 26.626750946045 ], [ -100.075653076172003, 26.7169895172119 ], [ -100.11824798584, 26.742031097412099 ], [ -100.119819641112997, 26.752252578735401 ], [ -100.100250244140994, 26.7830810546875 ], [ -100.120407104492003, 26.8182697296143 ], [ -100.117546081542997, 26.829151153564499 ], [ -100.083282470702997, 26.823820114135899 ], [ -100.096199035645, 26.841791152954201 ], [ -100.041809082030994, 26.825361251831001 ], [ -100.021392822265994, 26.8362007141113 ], [ -99.984260559082003, 26.838640213012699 ], [ -99.956108093261705, 26.8632907867432 ], [ -99.930656433105398, 26.847620010376001 ], [ -99.914772033691406, 26.85959815979 ], [ -99.899436950683594, 26.852331161499102 ], [ -99.845863342285199, 26.9286098480225 ], [ -99.784591674804702, 26.9203395843507 ], [ -99.787429809570298, 26.888179779052798 ], [ -99.777488708495994, 26.8684597015382 ], [ -99.735939025878807, 26.8761711120606 ], [ -99.732292175292898, 26.8405990600587 ], [ -99.770179748535, 26.7823905944825 ], [ -99.788246154785199, 26.727560043335 ], [ -99.783515930175696, 26.7082004547119 ], [ -99.758247375488196, 26.6946411132813 ], [ -99.741546630859304, 26.6628112792969 ], [ -99.734901428222699, 26.617719650268601 ], [ -99.75, 26.60445022583 ], [ -99.713706970214801, 26.5742797851562 ], [ -99.726852416992102, 26.5694980621337 ], [ -99.714462280273395, 26.5513610839844 ], [ -99.740470886230497, 26.4704399108887 ], [ -99.769088745117202, 26.447071075439599 ] ] ] } },
{ "type": "Feature", "properties": { "NAME_1": "Nuevo León", "NAME_2": "Villaldama" }, "geometry": { "type": "Polygon", "coordinates": [ [ [ -100.523559570312003, 26.4752712249756 ], [ -100.53337097168, 26.515649795532301 ], [ -100.489898681640994, 26.5271911621094 ], [ -100.468650817870994, 26.546979904174901 ], [ -100.50163269043, 26.5843906402588 ], [ -100.511276245117003, 26.683189392089801 ], [ -100.475875854492003, 26.699480056762798 ], [ -100.428703308105, 26.752111434936602 ], [ -100.336982727050994, 26.766920089721701 ], [ -100.319732666015994, 26.736219406128001 ], [ -100.305122375487997, 26.7259712219238 ], [ -100.302108764647997, 26.668462753296001 ], [ -100.282836914062003, 26.650699615478601 ], [ -100.289306640625, 26.636602401733398 ], [ -100.258583068847997, 26.586271286010799 ], [ -100.226707458495994, 26.566198348998999 ], [ -100.233741760254006, 26.5493602752687 ], [ -100.22966003418, 26.5147418975831 ], [ -100.213142395019005, 26.487371444702301 ], [ -100.229766845702997, 26.482612609863398 ], [ -100.236511230469006, 26.468481063842901 ], [ -100.217163085937003, 26.434719085693398 ], [ -100.199935913085994, 26.422838211059599 ], [ -100.201667785645, 26.342960357666001 ], [ -100.239768981932997, 26.322219848632901 ], [ -100.261322021484006, 26.322240829467798 ], [ -100.285133361815994, 26.2859401702882 ], [ -100.30451965332, 26.2912197113038 ], [ -100.310935974120994, 26.3277797698975 ], [ -100.381042480469006, 26.3573207855225 ], [ -100.441436767577997, 26.336380004882798 ], [ -100.483459472655994, 26.338487625122202 ], [ -100.488548278809006, 26.404489517211999 ], [ -100.523559570312003, 26.4752712249756 ] ] ] } }
]
}
