{
"type": "FeatureCollection",
"name": "oaxaca",
"crs": { "type": "name", "properties": { "name": "urn:ogc:def:crs:OGC:1.3:CRS84" } },
"features": [
{ "type": "Feature", "properties": { "NAME_1": "Oaxaca", "NAME_2": "Choapam" }, "geometry": { "type": "Polygon", "coordinates": [ [ [ -95.946662902832003, 17.8118705749512 ], [ -95.932861328124901, 17.7819328308106 ], [ -95.940048217773395, 17.739711761474599 ], [ -95.896125793457003, 17.6645393371582 ], [ -95.869361877441307, 17.590179443359499 ], [ -95.853240966796804, 17.569770812988398 ], [ -95.792831420898395, 17.550590515136701 ], [ -95.765083312988295, 17.5506095886232 ], [ -95.724533081054702, 17.572679519653398 ], [ -95.667358398437401, 17.567569732666101 ], [ -95.609878540039105, 17.579362869262798 ], [ -95.489952087402301, 17.6599311828613 ], [ -95.358810424804702, 17.686830520629901 ], [ -95.295120239257798, 17.7365398406982 ], [ -95.278152465820298, 17.7339801788331 ], [ -95.223846435546903, 17.701789855957099 ], [ -95.222640991210895, 17.6851406097413 ], [ -95.299476623535199, 17.641902923583999 ], [ -95.3023681640625, 17.6201190948487 ], [ -95.339401245117102, 17.584659576416001 ], [ -95.339126586913906, 17.5642318725587 ], [ -95.360443115234403, 17.557199478149499 ], [ -95.368217468261705, 17.567590713501001 ], [ -95.376686096191307, 17.565860748291101 ], [ -95.418777465820298, 17.524032592773398 ], [ -95.457977294921903, 17.509361267089801 ], [ -95.575798034667898, 17.5023708343506 ], [ -95.605506896972699, 17.481870651245099 ], [ -95.656723022460895, 17.464130401611399 ], [ -95.767227172851406, 17.3850402832031 ], [ -95.780441284179702, 17.3559799194337 ], [ -95.800720214843807, 17.343900680542099 ], [ -95.801422119140597, 17.3306198120118 ], [ -95.81494140625, 17.3348808288575 ], [ -95.827766418457003, 17.356941223144599 ], [ -95.845878601074205, 17.355199813842699 ], [ -95.856262207031193, 17.363700866699201 ], [ -95.874832153320298, 17.356351852416999 ], [ -95.929306030273395, 17.363639831542901 ], [ -95.957122802734403, 17.334577560424901 ], [ -95.972541809082003, 17.354740142822401 ], [ -95.998786926269503, 17.3684902191163 ], [ -96.049201965332003, 17.360639572143601 ], [ -96.061706542968693, 17.3725814819337 ], [ -96.084327697753807, 17.372299194336001 ], [ -96.094879150390597, 17.411849975586101 ], [ -96.151268005370994, 17.5122394561769 ], [ -96.162460327148395, 17.557191848754901 ], [ -96.192115783691406, 17.603120803833001 ], [ -96.210601806640597, 17.616991043090799 ], [ -96.204826354980497, 17.659540176391602 ], [ -96.167236328125, 17.720361709594702 ], [ -96.145217895507798, 17.7848510742188 ], [ -96.088188171386705, 17.831308364868299 ], [ -96.035430908203097, 17.858520507812599 ], [ -96.039779663085895, 17.855939865112301 ], [ -96.019729614257798, 17.835609436035199 ], [ -96.003883361816406, 17.838968276977699 ], [ -95.963226318359403, 17.8117904663087 ], [ -95.946662902832003, 17.8118705749512 ] ] ] } },
{ "type": "Feature", "properties": { "NAME_1": "Oaxaca", "NAME_2": "Coixtlahuaca" }, "geometry": { "type": "Polygon", "coordinates": [ [ [ -97.107856750488295, 18.170209884643501 ], [ -97.120086669921804, 18.141138076782202 ], [ -97.110122680664105, 18.056440353393601 ], [ -97.140762329101605, 18.026430130005 ], [ -97.138946533203097, 18.000669479370099 ], [ -97.152847290039105, 17.957260131835898 ], [ -97.152656555175795, 17.906999588012798 ], [ -97.181800842285099, 17.887660980224702 ], [ -97.176589965820298, 17.8725395202637 ], [ -97.207618713378906, 17.827381134033299 ], [ -97.208358764648395, 17.809450149536101 ], [ -97.234329223632798, 17.797901153564499 ], [ -97.224296569824205, 17.7871608734132 ], [ -97.204193115234304, 17.789140701293999 ], [ -97.204437255859403, 17.7335205078125 ], [ -97.178230285644503, 17.723630905151399 ], [ -97.170150756835895, 17.705020904541001 ], [ -97.173400878906193, 17.689832687378001 ], [ -97.190193176269503, 17.6790695190431 ], [ -97.294822692870994, 17.6664714813232 ], [ -97.348953247070298, 17.646919250488299 ], [ -97.392936706542898, 17.6663112640381 ], [ -97.412612915039105, 17.6839904785157 ], [ -97.435661315917898, 17.672250747680799 ], [ -97.428039550781193, 17.704597473144599 ], [ -97.4320068359375, 17.710649490356399 ], [ -97.434776306152301, 17.7003498077393 ], [ -97.445777893066307, 17.705839157104499 ], [ -97.452362060546804, 17.767110824585 ], [ -97.465568542480497, 17.7918796539306 ], [ -97.450706481933594, 17.800550460815401 ], [ -97.544906616210895, 17.898069381713899 ], [ -97.528518676757798, 17.929941177368299 ], [ -97.566322326660099, 17.948072433471701 ], [ -97.570129394531193, 17.958869934082099 ], [ -97.516410827636705, 17.960699081421001 ], [ -97.487731933593693, 17.948940277099599 ], [ -97.460739135742102, 17.948299407959102 ], [ -97.412528991699205, 17.950229644775298 ], [ -97.396362304687401, 17.971240997314499 ], [ -97.372543334960895, 17.962232589721701 ], [ -97.337677001953097, 17.994729995727599 ], [ -97.296768188476605, 18.073310852050898 ], [ -97.226318359374901, 18.1491794586182 ], [ -97.197662353515597, 18.1656303405762 ], [ -97.143630981445298, 18.176851272583001 ], [ -97.107856750488295, 18.170209884643501 ] ] ] } },
{ "type": "Feature", "properties": { "NAME_1": "Oaxaca", "NAME_2": "Cuicatlan" }, "geometry": { "type": "Polygon", "coordinates": [ [ [ -96.925453186035099, 17.5465202331543 ], [ -96.985969543457003, 17.6191101074219 ], [ -97.064712524414105, 17.646499633788999 ], [ -97.069419860839801, 17.658821105957099 ], [ -97.038223266601605, 17.6951408386231 ], [ -97.044662475585895, 17.722690582275298 ], [ -97.083442687988295, 17.7681999206544 ], [ -97.156005859375, 17.769620895385899 ], [ -97.154136657714801, 17.806150436401399 ], [ -97.072296142578097, 17.8200492858887 ], [ -97.059867858886705, 17.825708389282202 ], [ -97.060935974121094, 17.837890625000099 ], [ -97.037399291992102, 17.837530136108501 ], [ -97.034408569335895, 17.8489875793457 ], [ -97.006576538085895, 17.8636703491212 ], [ -96.967613220214801, 17.920890808105501 ], [ -96.935829162597599, 17.935222625732401 ], [ -96.927169799804602, 17.963100433349702 ], [ -96.890266418457003, 17.9816799163819 ], [ -96.881690979003807, 17.998500823974599 ], [ -96.856109619140597, 18.014310836791999 ], [ -96.801582336425696, 18.038459777831999 ], [ -96.707176208496094, 18.059909820556602 ], [ -96.675537109375, 18.057268142700298 ], [ -96.627487182617202, 18.0772304534913 ], [ -96.617012023925696, 18.0508728027344 ], [ -96.613082885742202, 17.987810134887699 ], [ -96.600791931152301, 17.9556694030762 ], [ -96.511520385742202, 17.872001647949201 ], [ -96.517738342285099, 17.831560134887599 ], [ -96.565032958984403, 17.822040557861399 ], [ -96.715759277343807, 17.859001159668001 ], [ -96.741706848144503, 17.844619750976701 ], [ -96.756759643554602, 17.811670303344801 ], [ -96.843681335449205, 17.769849777221602 ], [ -96.864311218261705, 17.7500095367432 ], [ -96.843460083007798, 17.7263298034668 ], [ -96.851486206054702, 17.694681167602599 ], [ -96.841300964355497, 17.657640457153299 ], [ -96.848251342773395, 17.635322570800799 ], [ -96.846138000488295, 17.533351898193398 ], [ -96.858917236328097, 17.5283298492432 ], [ -96.925453186035099, 17.5465202331543 ] ] ] } },
{ "type": "Feature", "properties": { "NAME_1": "Oaxaca", "NAME_2": "Del Centro" }, "geometry": { "type": "Polygon", "coordinates": [ [ [ -96.633132934570298, 17.1609897613525 ], [ -96.646232604980398, 17.1159896850587 ], [ -96.674057006835895, 17.090320587158299 ], [ -96.700187683105398, 17.028938293456999 ], [ -96.73046875, 17.012199401855501 ], [ -96.735443115234403, 16.99001121521 ], [ -96.788551330566406, 16.998439788818501 ], [ -96.824508666992202, 17.035671234130799 ], [ -96.870185852050795, 17.054508209228601 ], [ -96.926727294921903, 17.0570583343507 ], [ -96.938949584960895, 17.0782394409181 ], [ -96.937820434570298, 17.097730636596701 ], [ -96.901077270507798, 17.1555500030519 ], [ -96.901283264160199, 17.165960311889801 ], [ -96.879287719726506, 17.171552658081101 ], [ -96.837516784667898, 17.200580596923899 ], [ -96.756240844726605, 17.211820602416999 ], [ -96.722846984863295, 17.208610534668001 ], [ -96.688049316406193, 17.190399169921999 ], [ -96.684036254882798, 17.177459716796999 ], [ -96.656112670898395, 17.181140899658299 ], [ -96.645210266113295, 17.163169860839801 ], [ -96.633132934570298, 17.1609897613525 ] ] ] } },
{ "type": "Feature", "properties": { "NAME_1": "Oaxaca", "NAME_2": "Dist. Ejutla" }, "geometry": { "type": "Polygon", "coordinates": [ [ [ -97.047958374023395, 16.402570724487401 ], [ -97.089820861816406, 16.4298210144044 ], [ -97.078765869140597, 16.498130798339801 ], [ -97.098899841308594, 16.528440475463899 ], [ -97.090301513671903, 16.6095905303956 ], [ -97.054580688476506, 16.663539886474599 ], [ -97.067199707031193, 16.703109741210898 ], [ -97.022216796875, 16.7209205627443 ], [ -96.974441528320298, 16.724460601806701 ], [ -96.915016174316406, 16.7884826660157 ], [ -96.898971557617202, 16.7629928588868 ], [ -96.880355834960795, 16.7535400390625 ], [ -96.743049621582003, 16.724992752075298 ], [ -96.708976745605398, 16.688230514526399 ], [ -96.690261840820298, 16.707330703735501 ], [ -96.677116394042898, 16.7015705108643 ], [ -96.662498474121094, 16.708440780639599 ], [ -96.654350280761705, 16.6584701538087 ], [ -96.67569732666, 16.637081146240199 ], [ -96.734886169433494, 16.6178607940675 ], [ -96.790435791015597, 16.631242752075298 ], [ -96.824302673339801, 16.588199615478501 ], [ -96.885749816894503, 16.5948219299318 ], [ -96.932823181152301, 16.577110290527301 ], [ -96.946929931640597, 16.5577297210693 ], [ -96.987716674804602, 16.447851181030401 ], [ -96.992630004882798, 16.3985595703125 ], [ -97.023483276367102, 16.392990112304599 ], [ -97.047958374023395, 16.402570724487401 ] ] ] } },
{ "type": "Feature", "properties": { "NAME_1": "Oaxaca", "NAME_2": "Dist. Etla" }, "geometry": { "type": "Polygon", "coordinates": [ [ [ -97.189613342285099, 17.060430526733501 ], [ -97.200302124023395, 17.086032867431602 ], [ -97.173492431640597, 17.110700607299801 ], [ -97.038070678710895, 17.152870178222599 ], [ -96.990859985351506, 17.223850250244201 ], [ -97.000572204589801, 17.237329483032301 ], [ -96.987136840820298, 17.2718601226807 ], [ -96.974296569824105, 17.2706813812257 ], [ -96.958366394042898, 17.2822074890137 ], [ -96.950675964355497, 17.267639160156399 ], [ -96.914848327636705, 17.299341201782301 ], [ -96.901786804199205, 17.350669860839801 ], [ -96.975433349609304, 17.359991073608398 ], [ -97.007987976074205, 17.331520080566499 ], [ -97.054862976074205, 17.423019409179702 ], [ -97.019157409667997, 17.448940277099702 ], [ -96.987976074218807, 17.490919113159201 ], [ -96.940711975097599, 17.523551940918001 ], [ -96.928482055664006, 17.545270919799901 ], [ -96.848480224609304, 17.530227661132901 ], [ -96.842681884765597, 17.547792434692401 ], [ -96.848251342773395, 17.635322570800799 ], [ -96.841300964355497, 17.657640457153299 ], [ -96.851486206054702, 17.694681167602599 ], [ -96.843460083007798, 17.7263298034668 ], [ -96.864311218261705, 17.7500095367432 ], [ -96.843681335449205, 17.769849777221602 ], [ -96.766281127929602, 17.8048610687256 ], [ -96.709075927734304, 17.758470535278398 ], [ -96.699829101562401, 17.722150802612401 ], [ -96.704277038574205, 17.6980895996094 ], [ -96.683616638183494, 17.606218338012798 ], [ -96.702011108398395, 17.552709579467798 ], [ -96.727622985839801, 17.531879425048899 ], [ -96.756240844726605, 17.433851242065501 ], [ -96.736236572265597, 17.408800125122099 ], [ -96.735107421874901, 17.356399536132798 ], [ -96.725982666015597, 17.3444309234619 ], [ -96.721122741699205, 17.3029003143312 ], [ -96.701736450195199, 17.246730804443398 ], [ -96.683067321777301, 17.218549728393601 ], [ -96.688049316406193, 17.190399169921999 ], [ -96.741355895996094, 17.211420059204201 ], [ -96.837516784667898, 17.200580596923899 ], [ -96.879287719726506, 17.171552658081101 ], [ -96.922492980957003, 17.157577514648501 ], [ -96.964561462402301, 17.096071243286101 ], [ -96.978118896484403, 17.088571548461999 ], [ -97.064247131347699, 17.058401107788001 ], [ -97.189613342285099, 17.060430526733501 ] ] ] } },
{ "type": "Feature", "properties": { "NAME_1": "Oaxaca", "NAME_2": "Dist. Huajuapam" }, "geometry": { "type": "Polygon", "coordinates": [ [ [ -97.472526550292997, 18.139501571655199 ], [ -97.462471008300696, 18.112249374389599 ], [ -97.423973083496094, 18.060779571533299 ], [ -97.396362304687401, 17.971240997314499 ], [ -97.412528991699205, 17.950229644775298 ], [ -97.480148315429702, 17.948499679565501 ], [ -97.516410827636705, 17.960699081421001 ], [ -97.570129394531193, 17.958869934082099 ], [ -97.566322326660099, 17.948072433471701 ], [ -97.530181884765597, 17.933269500732401 ], [ -97.538017272949205, 17.904560089111399 ], [ -97.550613403320298, 17.896619796753001 ], [ -97.582496643066406, 17.904460906982401 ], [ -97.619262695312401, 17.865900039672901 ], [ -97.670997619628906, 17.8372802734375 ], [ -97.714736938476605, 17.781419754028299 ], [ -97.705307006835895, 17.767131805419901 ], [ -97.645736694335895, 17.744699478149499 ], [ -97.660461425781094, 17.724079132080099 ], [ -97.635658264160099, 17.713291168213001 ], [ -97.669441223144503, 17.6922912597656 ], [ -97.749496459960895, 17.7026691436768 ], [ -97.736312866210895, 17.646102905273398 ], [ -97.739967346191307, 17.6367111206056 ], [ -97.776359558105497, 17.6144104003907 ], [ -97.864852905273395, 17.630350112915 ], [ -97.872817993164006, 17.656641006469702 ], [ -97.870216369628906, 17.6795883178712 ], [ -97.891632080077997, 17.706319808960099 ], [ -97.861862182617102, 17.730070114135799 ], [ -97.874465942382699, 17.758571624755898 ], [ -97.886459350585895, 17.758771896362401 ], [ -97.947906494140597, 17.6961402893068 ], [ -97.990592956542898, 17.704860687255898 ], [ -98.020797729492202, 17.778121948242202 ], [ -98.035102844238295, 17.795560836792099 ], [ -98.026702880859403, 17.8402709960937 ], [ -98.034477233886705, 17.881940841674901 ], [ -98.046302795410099, 17.894269943237301 ], [ -98.067642211914105, 17.897172927856399 ], [ -98.065727233886705, 17.909370422363299 ], [ -98.052047729492202, 17.920030593872202 ], [ -98.048759460449205, 17.956569671630898 ], [ -98.059097290038906, 17.964452743530298 ], [ -98.0635986328125, 17.984840393066499 ], [ -98.107086181640597, 18.000970840454102 ], [ -98.120201110839801, 18.0152091979981 ], [ -98.057220458984403, 18.028800964355501 ], [ -97.910179138183594, 18.030429840087901 ], [ -97.854949951171903, 18.0522994995118 ], [ -97.773696899414105, 17.990409851074201 ], [ -97.726348876953097, 17.976610183715898 ], [ -97.698028564453097, 17.9846801757812 ], [ -97.636451721191406, 18.035221099853601 ], [ -97.626632690429702, 18.054479598998999 ], [ -97.638648986816406, 18.071718215942401 ], [ -97.719535827636705, 18.122270584106399 ], [ -97.741645812988295, 18.155458450317401 ], [ -97.660171508789006, 18.320869445800799 ], [ -97.597946166992202, 18.3467311859131 ], [ -97.5340576171875, 18.354511260986399 ], [ -97.515480041503807, 18.3412780761719 ], [ -97.507400512695298, 18.291110992431602 ], [ -97.5576171875, 18.258020401001101 ], [ -97.562866210937401, 18.241939544677699 ], [ -97.492507934570298, 18.186050415039201 ], [ -97.472526550292997, 18.139501571655199 ] ] ] } },
{ "type": "Feature", "properties": { "NAME_1": "Oaxaca", "NAME_2": "Dist. Ixtlan" }, "geometry": { "type": "Polygon", "coordinates": [ [ [ -96.306289672851605, 17.7169895172119 ], [ -96.341873168945298, 17.679580688476602 ], [ -96.346496582031193, 17.631160736083999 ], [ -96.334632873535099, 17.617279052734499 ], [ -96.29541015625, 17.602279663085898 ], [ -96.331222534179602, 17.5572910308838 ], [ -96.347839355468807, 17.548730850219702 ], [ -96.385528564453097, 17.460870742797901 ], [ -96.431388854980497, 17.404279708862301 ], [ -96.427238464355398, 17.382909774780298 ], [ -96.436943054199205, 17.329380035400501 ], [ -96.422500610351406, 17.299842834472699 ], [ -96.431587219238295, 17.2612609863281 ], [ -96.453987121582003, 17.247890472412202 ], [ -96.495910644531193, 17.259700775146499 ], [ -96.498107910156193, 17.233749389648398 ], [ -96.5361328125, 17.179729461669901 ], [ -96.564476013183494, 17.173000335693299 ], [ -96.586837768554702, 17.1773910522462 ], [ -96.633132934570298, 17.1609897613525 ], [ -96.645210266113295, 17.163169860839801 ], [ -96.656112670898395, 17.181140899658299 ], [ -96.684036254882798, 17.177459716796999 ], [ -96.683067321777301, 17.218549728393601 ], [ -96.701736450195199, 17.246730804443398 ], [ -96.721122741699205, 17.3029003143312 ], [ -96.725982666015597, 17.3444309234619 ], [ -96.734657287597699, 17.354190826416001 ], [ -96.736236572265597, 17.408800125122099 ], [ -96.756240844726605, 17.433851242065501 ], [ -96.727622985839801, 17.531879425048899 ], [ -96.702011108398395, 17.552709579467798 ], [ -96.683616638183494, 17.606218338012798 ], [ -96.704277038574205, 17.6980895996094 ], [ -96.699829101562401, 17.722150802612401 ], [ -96.709075927734304, 17.758470535278398 ], [ -96.766281127929602, 17.8048610687256 ], [ -96.753448486328097, 17.8154602050782 ], [ -96.741706848144503, 17.844619750976701 ], [ -96.715759277343807, 17.859001159668001 ], [ -96.565032958984403, 17.822040557861399 ], [ -96.536003112792997, 17.823978424072202 ], [ -96.521232604980497, 17.827610015869102 ], [ -96.513992309570298, 17.8383903503419 ], [ -96.511520385742202, 17.872001647949201 ], [ -96.478973388671903, 17.873180389404201 ], [ -96.465759277343693, 17.858341217041001 ], [ -96.450332641601506, 17.875959396362301 ], [ -96.442489624023395, 17.874702453613299 ], [ -96.384696960449205, 17.791000366211001 ], [ -96.371818542480497, 17.789211273193501 ], [ -96.345809936523395, 17.810928344726602 ], [ -96.323707580566406, 17.800582885742301 ], [ -96.322990417480497, 17.731630325317401 ], [ -96.306289672851605, 17.7169895172119 ] ] ] } },
{ "type": "Feature", "properties": { "NAME_1": "Oaxaca", "NAME_2": "Dist. Jamiltepec" }, "geometry": { "type": "Polygon", "coordinates": [ [ [ -98.045417785644503, 16.146804809570298 ], [ -98.186019897460895, 16.211814880371101 ], [ -98.216804504394503, 16.233749389648398 ], [ -98.286529541015597, 16.250972747802699 ], [ -98.424583435058594, 16.269861221313501 ], [ -98.555839538574205, 16.319026947021602 ], [ -98.376426696777301, 16.4491996765137 ], [ -98.365013122558494, 16.4659309387206 ], [ -98.345756530761705, 16.547460556030298 ], [ -98.268386840820298, 16.594060897827202 ], [ -98.221160888671903, 16.6355895996093 ], [ -98.187973022460895, 16.672050476074201 ], [ -98.180702209472699, 16.724292755126999 ], [ -98.165863037109403, 16.735509872436499 ], [ -98.104446411132798, 16.7170429229737 ], [ -98.080856323242202, 16.7011604309082 ], [ -98.047492980957003, 16.695398330688501 ], [ -98.029533386230398, 16.665260314941499 ], [ -97.946807861328097, 16.6503810882569 ], [ -97.8326416015625, 16.645811080932699 ], [ -97.711616516113295, 16.666461944580099 ], [ -97.684898376464801, 16.661291122436499 ], [ -97.622673034667898, 16.674749374389702 ], [ -97.556213378906193, 16.671890258789102 ], [ -97.598548889160099, 16.602371215820401 ], [ -97.687072753906193, 16.5311393737794 ], [ -97.735366821289105, 16.503170013427699 ], [ -97.740081787109304, 16.489500045776399 ], [ -97.763175964355497, 16.473102569580099 ], [ -97.809318542480398, 16.417352676391701 ], [ -97.811912536621094, 16.393079757690501 ], [ -97.827087402343807, 16.371402740478501 ], [ -97.809928894042997, 16.338750839233501 ], [ -97.784889221191307, 16.314580917358398 ], [ -97.820182800292898, 16.299160003662202 ], [ -97.828872680664006, 16.278560638427798 ], [ -97.863533020019503, 16.2924404144287 ], [ -97.912162780761705, 16.2640895843506 ], [ -97.924278259277301, 16.2246704101563 ], [ -97.912612915038906, 16.164579391479599 ], [ -97.933242797851605, 16.122329711913999 ], [ -97.964584350585895, 16.101331710815401 ], [ -98.045417785644503, 16.146804809570298 ] ] ] } },
{ "type": "Feature", "properties": { "NAME_1": "Oaxaca", "NAME_2": "Dist. Juchitan" }, "geometry": { "type": "GeometryCollection", "geometries": [ { "type": "Polygon", "coordinates": [ [ [ -94.108001708984304, 16.053415298461999 ], [ -94.238471984863196, 16.1148605346681 ], [ -94.414581298828097, 16.168472290039201 ], [ -94.5584716796875, 16.196250915527401 ], [ -94.725692749023395, 16.210971832275401 ], [ -94.720138549804702, 16.215694427490199 ], [ -94.730972290039105, 16.2295837402344 ], [ -94.626251220702997, 16.264305114746101 ], [ -94.596527099609403, 16.289304733276399 ], [ -94.584304809570298, 16.309860229492202 ], [ -94.580970764160199, 16.328193664550799 ], [ -94.586807250976605, 16.330694198608501 ], [ -94.580696105957003, 16.336526870727699 ], [ -94.591529846191307, 16.333751678466701 ], [ -94.617362976074205, 16.353471755981499 ], [ -94.614585876464801, 16.365972518921001 ], [ -94.620414733886705, 16.3545837402344 ], [ -94.677917480468693, 16.364305496215898 ], [ -94.727363586425795, 16.330137252807699 ], [ -94.734580993652301, 16.304027557373001 ], [ -94.777641296386705, 16.300693511962901 ], [ -94.790969848632798, 16.276527404785199 ], [ -94.801803588867102, 16.272638320923001 ], [ -94.816253662109403, 16.295972824096701 ], [ -94.787086486816406, 16.310417175293001 ], [ -94.771804809570298, 16.330694198608501 ], [ -94.798469543457003, 16.346248626708999 ], [ -94.805694580078097, 16.364305496215898 ], [ -94.816802978515597, 16.368473052978501 ], [ -94.822082519531193, 16.3784713745118 ], [ -94.812080383300795, 16.380695343017599 ], [ -94.806526184082003, 16.394861221313501 ], [ -94.823753356933494, 16.400693893432699 ], [ -94.824028015136705, 16.407915115356399 ], [ -94.838752746582003, 16.4081935882568 ], [ -94.844863891601605, 16.4306945800782 ], [ -94.881805419921804, 16.4245834350587 ], [ -94.882637023925795, 16.428749084472699 ], [ -94.879585266113295, 16.434583663940401 ], [ -94.880416870117202, 16.435693740844801 ], [ -94.883468627929702, 16.430139541626001 ], [ -94.883750915527301, 16.422082901001001 ], [ -94.926528930664006, 16.4170837402344 ], [ -94.955139160156193, 16.384027481079201 ], [ -94.971252441406193, 16.334863662719702 ], [ -95.030975341796804, 16.330137252807699 ], [ -95.054862976074205, 16.3004169464112 ], [ -95.119400024413906, 16.336570739746101 ], [ -95.177001953124901, 16.384872436523501 ], [ -95.216682434082003, 16.454732894897401 ], [ -95.204887390136705, 16.531410217285298 ], [ -95.212196350097699, 16.573329925537099 ], [ -95.203506469726506, 16.677350997924801 ], [ -95.218688964843807, 16.7075805664063 ], [ -95.265327453613295, 16.756748199462901 ], [ -95.296417236328097, 16.804450988769499 ], [ -95.351638793945298, 16.9166698455812 ], [ -95.371376037597699, 16.978532791137798 ], [ -95.312637329101605, 17.164302825927798 ], [ -95.230239868164105, 17.277322769165 ], [ -95.189659118652301, 17.288419723510899 ], [ -95.180839538574205, 17.344310760498001 ], [ -95.143013000488196, 17.366428375244102 ], [ -95.125511169433594, 17.403690338134801 ], [ -95.049049377441406, 17.355131149291999 ], [ -95.027603149414105, 17.331359863281399 ], [ -95.027961730957003, 17.2929992675782 ], [ -95.002571105956903, 17.2712802886963 ], [ -95.020271301269503, 17.233770370483501 ], [ -95.019386291503906, 17.2187309265138 ], [ -93.873916625976605, 17.1514282226563 ], [ -93.887252807617102, 17.115140914916999 ], [ -93.886543273925795, 17.038660049438398 ], [ -93.922126770019503, 16.993270874023398 ], [ -93.924392700195298, 16.9552898406982 ], [ -93.948905944824205, 16.865278244018601 ], [ -93.966262817382798, 16.842750549316399 ], [ -94.066192626953097, 16.764379501342798 ], [ -94.153411865234304, 16.5223102569581 ], [ -94.156951904296804, 16.489261627197301 ], [ -94.106506347656193, 16.3890895843507 ], [ -94.128166198730497, 16.320430755615199 ], [ -94.121749877929602, 16.2215251922607 ], [ -94.139862060546804, 16.222084045410099 ], [ -94.167915344238196, 16.199306488037099 ], [ -94.213195800781193, 16.187084197998001 ], [ -94.242080688476506, 16.207639694213899 ], [ -94.283470153808494, 16.208471298217901 ], [ -94.301246643066406, 16.237918853759801 ], [ -94.321250915527301, 16.244028091430799 ], [ -94.335975646972699, 16.237638473510899 ], [ -94.352081298828097, 16.277082443237401 ], [ -94.375968933105497, 16.2968063354493 ], [ -94.415695190429702, 16.281528472900401 ], [ -94.410140991210895, 16.2351379394532 ], [ -94.428474426269503, 16.246528625488299 ], [ -94.441802978515597, 16.240694046020501 ], [ -94.440696716308594, 16.227361679077301 ], [ -94.4093017578125, 16.223194122314499 ], [ -94.385971069335895, 16.212640762329102 ], [ -94.421806335449205, 16.224027633666999 ], [ -94.443191528320298, 16.2159748077394 ], [ -94.399024963378906, 16.187084197998001 ], [ -94.396247863769503, 16.177360534668001 ], [ -94.335418701171903, 16.1654167175294 ], [ -94.292083740234304, 16.1470832824707 ], [ -94.29736328125, 16.157640457153398 ], [ -94.352363586425795, 16.177639007568398 ], [ -94.253753662109403, 16.161249160766701 ], [ -94.234580993652202, 16.1662502288819 ], [ -94.222358703613196, 16.159862518310501 ], [ -94.221801757812401, 16.166805267333999 ], [ -94.186805725097699, 16.147361755371101 ], [ -94.188468933105497, 16.144306182861399 ], [ -94.161529541015497, 16.1309719085694 ], [ -94.156806945800795, 16.123193740844702 ], [ -94.170974731445298, 16.133472442627099 ], [ -94.161804199218693, 16.125415802001999 ], [ -94.164306640625, 16.116807937622202 ], [ -94.204582214355497, 16.1318054199219 ], [ -94.207084655761705, 16.1293048858643 ], [ -94.103469848632798, 16.081249237060501 ], [ -94.096527099609403, 16.060861587524499 ], [ -94.108001708984304, 16.053415298461999 ] ] ] }, { "type": "Polygon", "coordinates": [ [ [ -94.865417480468693, 16.384305953979599 ], [ -94.863746643066406, 16.380695343017599 ], [ -94.867637634277301, 16.377916336059702 ], [ -94.868469238281193, 16.379583358764599 ], [ -94.865417480468693, 16.384305953979599 ] ] ] }, { "type": "Polygon", "coordinates": [ [ [ -94.821807861328097, 16.367639541626101 ], [ -94.822082519531193, 16.3637504577637 ], [ -94.826805114745994, 16.365695953369201 ], [ -94.824028015136705, 16.365695953369201 ], [ -94.821807861328097, 16.367639541626101 ] ] ] }, { "type": "Polygon", "coordinates": [ [ [ -94.847915649414105, 16.360416412353601 ], [ -94.847640991210895, 16.358749389648501 ], [ -94.849304199218693, 16.357915878296001 ], [ -94.849304199218693, 16.359859466552798 ], [ -94.847915649414105, 16.360416412353601 ] ] ] }, { "type": "Polygon", "coordinates": [ [ [ -94.822364807128906, 16.3565273284912 ], [ -94.815139770507798, 16.344305038452099 ], [ -94.824028015136705, 16.3404140472413 ], [ -94.832916259765497, 16.3520832061768 ], [ -94.822364807128906, 16.3565273284912 ] ] ] }, { "type": "Polygon", "coordinates": [ [ [ -94.846252441406193, 16.3537502288819 ], [ -94.847084045410199, 16.350973129272401 ], [ -94.850692749023395, 16.351804733276399 ], [ -94.850135803222699, 16.353195190429702 ], [ -94.846252441406193, 16.3537502288819 ] ] ] }, { "type": "Polygon", "coordinates": [ [ [ -94.878471374511705, 16.353195190429702 ], [ -94.858474731445199, 16.350694656371999 ], [ -94.853195190429602, 16.3448600769043 ], [ -94.873970031738295, 16.348529815673899 ], [ -94.874031066894503, 16.3376388549806 ], [ -94.878471374511705, 16.353195190429702 ] ] ] }, { "type": "Polygon", "coordinates": [ [ [ -94.897918701171804, 16.346248626708999 ], [ -94.8951416015625, 16.3418064117432 ], [ -94.902641296386705, 16.335138320922901 ], [ -94.906524658203097, 16.339860916137699 ], [ -94.897918701171804, 16.346248626708999 ] ] ] }, { "type": "Polygon", "coordinates": [ [ [ -94.907638549804702, 16.3445835113525 ], [ -94.906806945800696, 16.342636108398398 ], [ -94.908470153808594, 16.3418064117432 ], [ -94.909301757812401, 16.344305038452099 ], [ -94.907638549804702, 16.3445835113525 ] ] ] }, { "type": "Polygon", "coordinates": [ [ [ -94.917915344238295, 16.342636108398398 ], [ -94.915695190429602, 16.3418064117432 ], [ -94.915969848632798, 16.3404140472413 ], [ -94.919586181640597, 16.341249465942401 ], [ -94.917915344238295, 16.342636108398398 ] ] ] }, { "type": "Polygon", "coordinates": [ [ [ -94.852912902832003, 16.3304157257081 ], [ -94.851524353027301, 16.3293056488038 ], [ -94.851524353027301, 16.3273620605468 ], [ -94.8548583984375, 16.329860687255898 ], [ -94.852912902832003, 16.3304157257081 ] ] ] }, { "type": "Polygon", "coordinates": [ [ [ -94.734306335449105, 16.2279167175293 ], [ -94.731803894042898, 16.223472595214801 ], [ -94.731246948242102, 16.219028472900401 ], [ -94.737640380859304, 16.222919464111399 ], [ -94.734306335449105, 16.2279167175293 ] ] ] }, { "type": "Polygon", "coordinates": [ [ [ -94.356803894042898, 16.223472595214801 ], [ -94.357360839843807, 16.221250534057699 ], [ -94.352081298828097, 16.222084045410099 ], [ -94.340972900390597, 16.2159748077394 ], [ -94.352081298828097, 16.221250534057699 ], [ -94.364585876464801, 16.220138549804801 ], [ -94.346252441406094, 16.212083816528299 ], [ -94.364860534667997, 16.2062492370606 ], [ -94.371528625488196, 16.217084884643501 ], [ -94.372360229492102, 16.212083816528299 ], [ -94.378196716308494, 16.2134723663331 ], [ -94.367362976074205, 16.221250534057699 ], [ -94.356803894042898, 16.223472595214801 ] ] ] }, { "type": "Polygon", "coordinates": [ [ [ -94.753471374511605, 16.21875 ], [ -94.753196716308594, 16.2134723663331 ], [ -94.754028320312401, 16.213193893432699 ], [ -94.754585266113196, 16.217638015747099 ], [ -94.753471374511605, 16.21875 ] ] ] }, { "type": "Polygon", "coordinates": [ [ [ -94.743751525878906, 16.2179164886475 ], [ -94.740417480468807, 16.2159748077394 ], [ -94.741806030273395, 16.2134723663331 ], [ -94.745697021484403, 16.2151393890382 ], [ -94.743751525878906, 16.2179164886475 ] ] ] }, { "type": "Polygon", "coordinates": [ [ [ -94.734306335449105, 16.212917327880898 ], [ -94.729026794433494, 16.210695266723601 ], [ -94.725418090820298, 16.206527709961001 ], [ -94.742637634277301, 16.210138320922901 ], [ -94.734306335449105, 16.212917327880898 ] ] ] }, { "type": "Polygon", "coordinates": [ [ [ -94.122566223144503, 16.208740234374901 ], [ -94.123474121093594, 16.2104167938232 ], [ -94.123191833495994, 16.211805343627901 ], [ -94.122207641601506, 16.211805343627901 ], [ -94.122566223144503, 16.208740234374901 ] ] ] }, { "type": "Polygon", "coordinates": [ [ [ -94.364028930664105, 16.199306488037099 ], [ -94.359306335449205, 16.194583892822301 ], [ -94.362915039062401, 16.189306259155298 ], [ -94.369308471679602, 16.195419311523398 ], [ -94.364028930664105, 16.199306488037099 ] ] ] }, { "type": "Polygon", "coordinates": [ [ [ -94.245140075683494, 16.188194274902301 ], [ -94.233474731445298, 16.187639236450199 ], [ -94.205696105957003, 16.164861679077099 ], [ -94.242637634277301, 16.182083129882798 ], [ -94.245140075683494, 16.188194274902301 ] ] ] }, { "type": "Polygon", "coordinates": [ [ [ -94.361808776855497, 16.185693740844702 ], [ -94.354026794433594, 16.183471679687599 ], [ -94.352363586425795, 16.179582595825298 ], [ -94.363746643066406, 16.177639007568398 ], [ -94.368751525878807, 16.184583663940501 ], [ -94.361808776855497, 16.185693740844702 ] ] ] }, { "type": "Polygon", "coordinates": [ [ [ -94.2620849609375, 16.172359466552798 ], [ -94.263748168945298, 16.1670837402344 ], [ -94.267913818359403, 16.1690273284912 ], [ -94.264305114745994, 16.1695842742919 ], [ -94.2620849609375, 16.172359466552798 ] ] ] }, { "type": "Polygon", "coordinates": [ [ [ -94.123474121093594, 16.128194808959901 ], [ -94.113471984863295, 16.126249313354599 ], [ -94.111251831054602, 16.117916107177699 ], [ -94.127357482910099, 16.1273612976075 ], [ -94.123474121093594, 16.128194808959901 ] ] ] }, { "type": "Polygon", "coordinates": [ [ [ -94.154304504394503, 16.122360229492202 ], [ -94.151527404785199, 16.119861602783299 ], [ -94.151802062988196, 16.117637634277401 ], [ -94.15625, 16.120695114135799 ], [ -94.154304504394503, 16.122360229492202 ] ] ] }, { "type": "Polygon", "coordinates": [ [ [ -94.134025573730398, 16.12180519104 ], [ -94.130691528320298, 16.121528625488398 ], [ -94.129302978515597, 16.120416641235501 ], [ -94.133468627929602, 16.120416641235501 ], [ -94.134025573730398, 16.12180519104 ] ] ] }, { "type": "Polygon", "coordinates": [ [ [ -94.102973937988196, 16.091806411743299 ], [ -94.116531372070298, 16.091806411743299 ], [ -94.138473510742202, 16.100694656372099 ], [ -94.131530761718807, 16.103195190429702 ], [ -94.102973937988196, 16.091806411743299 ] ] ] } ] } },
{ "type": "Feature", "properties": { "NAME_1": "Oaxaca", "NAME_2": "Dist. Juquila" }, "geometry": { "type": "Polygon", "coordinates": [ [ [ -97.318473815917898, 15.943750381469799 ], [ -97.348197937011705, 15.945972442627101 ], [ -97.367080688476506, 15.9362487792969 ], [ -97.42236328125, 15.940694808959901 ], [ -97.537086486816406, 15.9715280532837 ], [ -97.565696716308594, 15.9626388549806 ], [ -97.657913208007798, 15.9776401519775 ], [ -97.673751831054702, 15.9726400375366 ], [ -97.678192138671804, 15.9626388549806 ], [ -97.772361755371094, 15.977084159851101 ], [ -97.846527099609403, 16.0187492370606 ], [ -97.964584350585895, 16.1012496948243 ], [ -97.930526733398395, 16.1255607604981 ], [ -97.926567077636705, 16.146570205688601 ], [ -97.912612915038906, 16.164579391479599 ], [ -97.924278259277301, 16.2246704101563 ], [ -97.909439086914006, 16.267549514770501 ], [ -97.863533020019503, 16.2924404144287 ], [ -97.828872680664006, 16.278560638427798 ], [ -97.820182800292898, 16.299160003662202 ], [ -97.785949707031193, 16.312320709228601 ], [ -97.827087402343807, 16.371402740478501 ], [ -97.811912536621094, 16.393079757690501 ], [ -97.809318542480398, 16.417352676391701 ], [ -97.763175964355497, 16.473102569580099 ], [ -97.740081787109304, 16.489500045776399 ], [ -97.735366821289105, 16.503170013427699 ], [ -97.687072753906193, 16.5311393737794 ], [ -97.644531249999901, 16.569980621337901 ], [ -97.636650085449205, 16.5724105834962 ], [ -97.623069763183494, 16.559680938720799 ], [ -97.638488769531193, 16.514528274536101 ], [ -97.610809326171903, 16.515731811523501 ], [ -97.580757141113295, 16.5313510894775 ], [ -97.562698364257798, 16.4989318847657 ], [ -97.539848327636705, 16.493900299072301 ], [ -97.536819458007798, 16.484390258789102 ], [ -97.477706909179602, 16.483800888061602 ], [ -97.432792663574205, 16.469030380248999 ], [ -97.393608093261705, 16.471170425415099 ], [ -97.369003295898395, 16.4457111358643 ], [ -97.307502746582003, 16.431751251220799 ], [ -97.279159545898395, 16.4157619476319 ], [ -97.258987426757798, 16.432319641113299 ], [ -97.210639953613295, 16.412771224975501 ], [ -97.189979553222599, 16.349960327148501 ], [ -97.196739196777301, 16.313102722168001 ], [ -97.165390014648395, 16.249530792236399 ], [ -97.139495849609403, 16.223339080810501 ], [ -97.112075805664006, 16.171791076660199 ], [ -97.125549316406094, 16.119890213012599 ], [ -97.107498168945298, 16.076370239257798 ], [ -97.123336791992102, 16.0653095245362 ], [ -97.104736328124901, 15.9564514160156 ], [ -97.110702514648395, 15.892830848693899 ], [ -97.119834899902301, 15.8825731277466 ], [ -97.165412902831903, 15.9076385498047 ], [ -97.234306335449205, 15.9309730529785 ], [ -97.318473815917898, 15.943750381469799 ] ] ] } },
{ "type": "Feature", "properties": { "NAME_1": "Oaxaca", "NAME_2": "Dist. Juxtlahuaca" }, "geometry": { "type": "Polygon", "coordinates": [ [ [ -98.227691650390597, 17.2698707580568 ], [ -98.193717956542997, 17.29660987854 ], [ -98.21378326416, 17.4327106475831 ], [ -98.194168090820298, 17.433700561523398 ], [ -98.169807434082003, 17.420000076293899 ], [ -98.15274810791, 17.443601608276399 ], [ -98.103538513183494, 17.464740753173899 ], [ -98.059883117675795, 17.457300186157301 ], [ -98.021728515625, 17.468940734863299 ], [ -97.996482849121094, 17.4439201354981 ], [ -98.019081115722699, 17.4221496582032 ], [ -97.999122619628906, 17.423870086669901 ], [ -97.969429016113196, 17.451269149780401 ], [ -97.961357116699205, 17.397119522094702 ], [ -97.954719543457003, 17.397489547729599 ], [ -97.947853088378906, 17.405990600585898 ], [ -97.942802429199205, 17.4728317260743 ], [ -97.923820495605497, 17.4999008178712 ], [ -97.887176513671903, 17.525579452514599 ], [ -97.896423339843807, 17.546619415283299 ], [ -97.915992736816406, 17.562730789184599 ], [ -97.887840270996094, 17.5789394378662 ], [ -97.864852905273395, 17.630350112915 ], [ -97.768882751464801, 17.614812850952099 ], [ -97.773887634277301, 17.601070404052699 ], [ -97.767059326171804, 17.529832839965799 ], [ -97.773811340332003, 17.519260406494201 ], [ -97.727828979492202, 17.563909530639599 ], [ -97.708312988281193, 17.5677394866943 ], [ -97.705970764160199, 17.548509597778299 ], [ -97.735877990722599, 17.5203380584718 ], [ -97.750030517578097, 17.4876499176025 ], [ -97.744796752929702, 17.461790084838999 ], [ -97.757217407226605, 17.434211730956999 ], [ -97.709266662597599, 17.371250152587901 ], [ -97.717247009277301, 17.3565483093262 ], [ -97.707092285156193, 17.330680847168001 ], [ -97.715049743652301, 17.305730819702202 ], [ -97.751739501953097, 17.2535629272462 ], [ -97.768997192382798, 17.259799957275401 ], [ -97.794898986816307, 17.247970581054702 ], [ -97.807418823242102, 17.261480331421001 ], [ -97.847023010253906, 17.223939895629901 ], [ -97.852867126464801, 17.2110614776612 ], [ -97.847137451171903, 17.165210723876999 ], [ -97.865303039550696, 17.142749786376999 ], [ -97.873123168945298, 17.111610412597699 ], [ -97.934906005859304, 17.105922698974599 ], [ -97.940490722656193, 17.092029571533299 ], [ -97.925376892089801, 17.073440551757901 ], [ -97.930389404296903, 17.064559936523398 ], [ -97.985893249511705, 17.0513000488282 ], [ -98.011169433593807, 17.060960769653398 ], [ -98.034088134765597, 17.0452194213868 ], [ -98.065216064453097, 17.068109512329102 ], [ -98.107002258300795, 17.046760559082099 ], [ -98.105506896972599, 17.090791702270501 ], [ -98.123718261718807, 17.135889053344801 ], [ -98.215599060058594, 17.1655502319337 ], [ -98.237457275390597, 17.185390472412099 ], [ -98.227691650390597, 17.2698707580568 ] ] ] } },
{ "type": "Feature", "properties": { "NAME_1": "Oaxaca", "NAME_2": "Dist. Miahuatlan" }, "geometry": { "type": "Polygon", "coordinates": [ [ [ -97.210639953613295, 16.412771224975501 ], [ -97.164421081542898, 16.418190002441399 ], [ -97.054016113281193, 16.382789611816499 ], [ -97.047958374023395, 16.402570724487401 ], [ -97.023483276367102, 16.392990112304599 ], [ -96.994422912597699, 16.3968906402588 ], [ -96.987716674804602, 16.447851181030401 ], [ -96.946929931640597, 16.5577297210693 ], [ -96.932823181152301, 16.577110290527301 ], [ -96.885749816894503, 16.5948219299318 ], [ -96.824302673339801, 16.588199615478501 ], [ -96.790435791015597, 16.631242752075298 ], [ -96.734886169433494, 16.6178607940675 ], [ -96.670669555664105, 16.640699386596602 ], [ -96.674362182617102, 16.619050979614201 ], [ -96.6397705078125, 16.571271896362202 ], [ -96.622451782226506, 16.5683002471925 ], [ -96.598365783691406, 16.587030410766602 ], [ -96.562438964843807, 16.5815029144288 ], [ -96.522430419921804, 16.528110504150298 ], [ -96.446586608886705, 16.4604301452637 ], [ -96.474082946777301, 16.375669479370199 ], [ -96.418502807617202, 16.352809906006001 ], [ -96.402557373046804, 16.3087902069093 ], [ -96.371452331542898, 16.2684001922607 ], [ -96.259185791015597, 16.2023105621338 ], [ -96.175369262695298, 16.1768398284912 ], [ -96.164230346679602, 16.1538200378419 ], [ -96.175743103027301, 16.125719070434599 ], [ -96.175857543945298, 16.073169708252099 ], [ -96.197273254394503, 16.0507297515869 ], [ -96.259323120117102, 16.0512104034425 ], [ -96.2923583984375, 16.0596008300781 ], [ -96.347267150878906, 16.047349929809599 ], [ -96.412933349609304, 16.0577392578125 ], [ -96.430206298828097, 16.0506706237794 ], [ -96.444999694824205, 16.0642700195313 ], [ -96.565940856933594, 16.109371185302798 ], [ -96.620819091796903, 16.12087059021 ], [ -96.683586120605398, 16.166530609130898 ], [ -96.760581970214801, 16.152500152587901 ], [ -96.822448730468693, 16.1669101715088 ], [ -96.857307434082003, 16.154630661010799 ], [ -96.897109985351506, 16.178159713745099 ], [ -96.943489074706903, 16.186050415039102 ], [ -96.971488952636705, 16.182157516479599 ], [ -96.995162963867102, 16.1915512084962 ], [ -97.030700683593807, 16.1834602355956 ], [ -97.067352294921804, 16.1880207061768 ], [ -97.092903137207003, 16.1692905426025 ], [ -97.112075805664006, 16.171791076660199 ], [ -97.139495849609403, 16.223339080810501 ], [ -97.165390014648395, 16.249530792236399 ], [ -97.196739196777301, 16.313102722168001 ], [ -97.189979553222599, 16.349960327148501 ], [ -97.210639953613295, 16.412771224975501 ] ] ] } },
{ "type": "Feature", "properties": { "NAME_1": "Oaxaca", "NAME_2": "Dist. Mixe" }, "geometry": { "type": "Polygon", "coordinates": [ [ [ -95.368812561035199, 16.993450164795 ], [ -95.390480041503906, 16.990369796752901 ], [ -95.429527282714801, 16.9989204406738 ], [ -95.532180786132798, 16.9929504394532 ], [ -95.577499389648395, 16.999750137328999 ], [ -95.610862731933594, 16.989770889282301 ], [ -95.623252868652301, 16.966579437256001 ], [ -95.642669677734304, 16.950969696044901 ], [ -95.699142456054702, 16.923419952392599 ], [ -95.752647399902301, 16.909000396728601 ], [ -95.810386657714801, 16.911840438842798 ], [ -95.857048034667898, 16.8945217132569 ], [ -95.902030944824205, 16.889450073242301 ], [ -95.912956237792997, 16.893339157104499 ], [ -95.931526184082003, 16.919139862060501 ], [ -95.948371887207003, 16.881240844726701 ], [ -95.975196838378807, 16.873550415039102 ], [ -96.039199829101506, 16.9697494506837 ], [ -96.147605895996094, 16.996049880981499 ], [ -96.170951843261705, 16.993749618530199 ], [ -96.1953125, 17.00980758667 ], [ -96.244506835937401, 17.017772674560501 ], [ -96.2486572265625, 17.043119430542099 ], [ -96.214561462402301, 17.0735683441163 ], [ -96.205551147460895, 17.103321075439599 ], [ -96.216850280761705, 17.1263027191162 ], [ -96.206832885742202, 17.142541885376001 ], [ -96.205245971679602, 17.1669216156007 ], [ -96.178672790527301, 17.200950622558601 ], [ -96.106826782226506, 17.360221862793001 ], [ -96.102729797363196, 17.4221916198731 ], [ -96.081047058105398, 17.3690700531007 ], [ -96.061706542968693, 17.3725814819337 ], [ -96.049201965332003, 17.360639572143601 ], [ -95.998786926269503, 17.3684902191163 ], [ -95.951568603515597, 17.334140777588001 ], [ -95.929306030273395, 17.363639831542901 ], [ -95.874832153320298, 17.356351852416999 ], [ -95.856262207031193, 17.363700866699201 ], [ -95.845878601074205, 17.355199813842699 ], [ -95.827766418457003, 17.356941223144599 ], [ -95.81494140625, 17.3348808288575 ], [ -95.801422119140597, 17.3306198120118 ], [ -95.800720214843807, 17.343900680542099 ], [ -95.780441284179702, 17.3559799194337 ], [ -95.767227172851406, 17.3850402832031 ], [ -95.656723022460895, 17.464130401611399 ], [ -95.605506896972699, 17.481870651245099 ], [ -95.575798034667898, 17.5023708343506 ], [ -95.4688720703125, 17.506780624389801 ], [ -95.418777465820298, 17.524032592773398 ], [ -95.376686096191307, 17.565860748291101 ], [ -95.368217468261705, 17.567590713501001 ], [ -95.360443115234403, 17.557199478149499 ], [ -95.339126586913906, 17.5642318725587 ], [ -95.339401245117102, 17.584659576416001 ], [ -95.3023681640625, 17.6201190948487 ], [ -95.289230346679602, 17.591739654541101 ], [ -95.204826354980398, 17.4817504882812 ], [ -95.125511169433594, 17.403690338134801 ], [ -95.143013000488196, 17.366428375244102 ], [ -95.180839538574205, 17.344310760498001 ], [ -95.189659118652301, 17.288419723510899 ], [ -95.230239868164105, 17.277322769165 ], [ -95.312637329101605, 17.164302825927798 ], [ -95.368812561035199, 16.993450164795 ] ] ] } },
{ "type": "Feature", "properties": { "NAME_1": "Oaxaca", "NAME_2": "Dist. Nochixtlan" }, "geometry": { "type": "Polygon", "coordinates": [ [ [ -97.189613342285099, 17.060430526733501 ], [ -97.231117248535, 17.034299850463899 ], [ -97.289398193359403, 17.028240203857401 ], [ -97.358970642089801, 16.982749938964801 ], [ -97.372116088867202, 16.989759445190401 ], [ -97.388450622558494, 16.976730346679702 ], [ -97.423736572265597, 16.975589752197202 ], [ -97.439537048339801, 16.9945697784425 ], [ -97.390472412109304, 17.0705795288087 ], [ -97.371032714843807, 17.1308498382569 ], [ -97.376327514648395, 17.181360244751001 ], [ -97.392433166503906, 17.202579498291001 ], [ -97.422027587890597, 17.284418106079201 ], [ -97.393913269042898, 17.343820571899499 ], [ -97.422958374023395, 17.349380493164102 ], [ -97.422981262207003, 17.358720779418899 ], [ -97.397399902343807, 17.382431030273501 ], [ -97.347167968749901, 17.402347564697301 ], [ -97.365310668945298, 17.4600009918212 ], [ -97.344970703124901, 17.510198593139702 ], [ -97.364738464355497, 17.576709747314499 ], [ -97.360260009765597, 17.5943107604982 ], [ -97.320793151855497, 17.624319076538001 ], [ -97.269180297851605, 17.627519607543899 ], [ -97.262489318847599, 17.6540012359619 ], [ -97.279212951660199, 17.6680717468262 ], [ -97.176788330078097, 17.6855983734131 ], [ -97.169960021972599, 17.701259613037202 ], [ -97.178230285644503, 17.723630905151399 ], [ -97.204437255859403, 17.7335205078125 ], [ -97.204193115234304, 17.789140701293999 ], [ -97.154136657714801, 17.806150436401399 ], [ -97.156005859375, 17.769620895385899 ], [ -97.083442687988295, 17.7681999206544 ], [ -97.044662475585895, 17.722690582275298 ], [ -97.038223266601605, 17.6951408386231 ], [ -97.069419860839801, 17.658821105957099 ], [ -97.064712524414105, 17.646499633788999 ], [ -96.985969543457003, 17.6191101074219 ], [ -96.925453186035099, 17.5465202331543 ], [ -96.940711975097599, 17.523551940918001 ], [ -96.987976074218807, 17.490919113159201 ], [ -97.026107788085895, 17.442031860351499 ], [ -97.053710937499901, 17.4268398284913 ], [ -97.014846801757798, 17.3370094299318 ], [ -97.000633239746094, 17.333890914916999 ], [ -96.975433349609304, 17.359991073608398 ], [ -96.906455993652301, 17.352821350097699 ], [ -96.899902343749901, 17.343040466308501 ], [ -96.914848327636705, 17.299341201782301 ], [ -96.946907043457003, 17.270240783691399 ], [ -96.955108642578097, 17.267219543457099 ], [ -96.958366394042898, 17.2822074890137 ], [ -96.990890502929602, 17.2668781280518 ], [ -97.000572204589801, 17.237329483032301 ], [ -96.990859985351506, 17.223850250244201 ], [ -97.038070678710895, 17.152870178222599 ], [ -97.173492431640597, 17.110700607299801 ], [ -97.200302124023395, 17.086032867431602 ], [ -97.189613342285099, 17.060430526733501 ] ] ] } },
{ "type": "Feature", "properties": { "NAME_1": "Oaxaca", "NAME_2": "Dist. Ocotlan" }, "geometry": { "type": "Polygon", "coordinates": [ [ [ -96.734306335449205, 17.000709533691399 ], [ -96.682929992675696, 16.972761154174702 ], [ -96.6368408203125, 16.974670410156399 ], [ -96.617546081542997, 16.9645805358887 ], [ -96.617813110351406, 16.955490112304702 ], [ -96.645416259765597, 16.938190460205 ], [ -96.631362915039105, 16.904150009155298 ], [ -96.633018493652301, 16.879270553588999 ], [ -96.575088500976406, 16.837301254272599 ], [ -96.585105895996094, 16.784999847412202 ], [ -96.629241943359304, 16.721591949462901 ], [ -96.677116394042898, 16.7015705108643 ], [ -96.690261840820298, 16.707330703735501 ], [ -96.708976745605398, 16.688230514526399 ], [ -96.743049621582003, 16.724992752075298 ], [ -96.880355834960795, 16.7535400390625 ], [ -96.898971557617202, 16.7629928588868 ], [ -96.915016174316406, 16.7884826660157 ], [ -96.886093139648395, 16.824710845947202 ], [ -96.848213195800696, 16.844921112060501 ], [ -96.822616577148395, 16.891010284423899 ], [ -96.814659118652301, 16.932580947876101 ], [ -96.796737670898395, 16.9468708038331 ], [ -96.750190734863295, 16.955070495605401 ], [ -96.739669799804602, 16.964189529418999 ], [ -96.734306335449205, 17.000709533691399 ] ] ] } },
{ "type": "Feature", "properties": { "NAME_1": "Oaxaca", "NAME_2": "Dist. Pochutla" }, "geometry": { "type": "GeometryCollection", "geometries": [ { "type": "Polygon", "coordinates": [ [ [ -96.192085266113196, 15.7043056488038 ], [ -96.20263671875, 15.7126379013062 ], [ -96.2076416015625, 15.698748588562101 ], [ -96.238471984863295, 15.6915273666382 ], [ -96.238197326660199, 15.6818056106569 ], [ -96.325691223144503, 15.6887512207032 ], [ -96.339859008789105, 15.684027671814 ], [ -96.349586486816406, 15.689861297607401 ], [ -96.364860534667898, 15.6815280914307 ], [ -96.374580383300795, 15.690417289733899 ], [ -96.426528930664105, 15.6954174041747 ], [ -96.453193664550696, 15.680693626403899 ], [ -96.465415954589702, 15.682915687561 ], [ -96.481803894042898, 15.662917137146099 ], [ -96.495414733886705, 15.6648607254029 ], [ -96.494857788085895, 15.657637596130501 ], [ -96.546249389648395, 15.665416717529199 ], [ -96.557640075683594, 15.6565284729004 ], [ -96.698753356933494, 15.717082977295 ], [ -96.860137939452997, 15.738471984863301 ], [ -96.923751831054602, 15.779582977295 ], [ -97.017364501953097, 15.806248664856 ], [ -97.021804809570298, 15.815137863159199 ], [ -97.022636413574205, 15.809583663940501 ], [ -97.049858093261705, 15.8270826339722 ], [ -97.045692443847599, 15.8351402282716 ], [ -97.061248779296804, 15.859026908874499 ], [ -97.074859619140597, 15.854861259460399 ], [ -97.090972900390597, 15.8612489700318 ], [ -97.119583129882798, 15.882361412048301 ], [ -97.110702514648395, 15.892830848693899 ], [ -97.104057312011705, 15.932620048522899 ], [ -97.123336791992102, 16.0653095245362 ], [ -97.107498168945298, 16.076370239257798 ], [ -97.125549316406094, 16.119890213012599 ], [ -97.112075805664006, 16.171791076660199 ], [ -97.092903137207003, 16.1692905426025 ], [ -97.067352294921804, 16.1880207061768 ], [ -97.030700683593807, 16.1834602355956 ], [ -96.995162963867102, 16.1915512084962 ], [ -96.971488952636705, 16.182157516479599 ], [ -96.943489074706903, 16.186050415039102 ], [ -96.897109985351506, 16.178159713745099 ], [ -96.857307434082003, 16.154630661010799 ], [ -96.822448730468693, 16.1669101715088 ], [ -96.760581970214801, 16.152500152587901 ], [ -96.683586120605398, 16.166530609130898 ], [ -96.620819091796903, 16.12087059021 ], [ -96.565940856933594, 16.109371185302798 ], [ -96.444999694824205, 16.0642700195313 ], [ -96.430206298828097, 16.0506706237794 ], [ -96.412933349609304, 16.0577392578125 ], [ -96.347267150878906, 16.047349929809599 ], [ -96.2923583984375, 16.0596008300781 ], [ -96.259323120117102, 16.0512104034425 ], [ -96.197273254394503, 16.0507297515869 ], [ -96.180892944335895, 16.062770843505898 ], [ -96.139793395995994, 16.065362930297901 ], [ -96.117942810058594, 16.056390762328999 ], [ -96.076797485351605, 16.055080413818501 ], [ -96.057220458984304, 16.0165309906006 ], [ -96.040733337402301, 15.927991867065399 ], [ -95.98486328125, 15.813194274902299 ], [ -96.0504150390625, 15.7890281677246 ], [ -96.063194274902301, 15.775694847106999 ], [ -96.072914123535199, 15.778751373291 ], [ -96.075973510742202, 15.765693664550801 ], [ -96.094863891601605, 15.773195266723601 ], [ -96.100135803222599, 15.757362365722701 ], [ -96.122085571289006, 15.760417938232401 ], [ -96.122917175292898, 15.7495832443237 ], [ -96.130691528320298, 15.7529153823853 ], [ -96.127639770507798, 15.7368059158325 ], [ -96.145416259765597, 15.7379159927369 ], [ -96.152084350585895, 15.732084274291999 ], [ -96.145141601562401, 15.72624874115 ], [ -96.166526794433494, 15.7229166030885 ], [ -96.192085266113196, 15.7043056488038 ] ] ] }, { "type": "Polygon", "coordinates": [ [ [ -96.084861755370994, 15.7662496566772 ], [ -96.082359313964801, 15.764027595520099 ], [ -96.083473205566406, 15.7620840072632 ], [ -96.085418701171903, 15.763194084167599 ], [ -96.084861755370994, 15.7662496566772 ] ] ] }, { "type": "Polygon", "coordinates": [ [ [ -96.116806030273395, 15.7490291595459 ], [ -96.117080688476605, 15.747361183166401 ], [ -96.120414733886705, 15.747082710266101 ], [ -96.119308471679602, 15.7484731674194 ], [ -96.116806030273395, 15.7490291595459 ] ] ] }, { "type": "Polygon", "coordinates": [ [ [ -96.161804199218807, 15.7209730148315 ], [ -96.160140991210795, 15.7187509536743 ], [ -96.160972595214801, 15.716528892517101 ], [ -96.164024353027301, 15.7173614501954 ], [ -96.161804199218807, 15.7209730148315 ] ] ] }, { "type": "Polygon", "coordinates": [ [ [ -96.228195190429702, 15.6881952285768 ], [ -96.226249694824205, 15.686806678771999 ], [ -96.231246948242202, 15.684583663940399 ], [ -96.232086181640597, 15.6873598098756 ], [ -96.228195190429702, 15.6881952285768 ] ] ] } ] } },
{ "type": "Feature", "properties": { "NAME_1": "Oaxaca", "NAME_2": "Dist. Putla" }, "geometry": { "type": "Polygon", "coordinates": [ [ [ -98.143173217773395, 16.749740600586001 ], [ -98.101486206054702, 16.753368377685501 ], [ -98.050857543945298, 16.8024806976318 ], [ -98.037078857421903, 16.8283290863038 ], [ -98.021553039550795, 16.904100418090898 ], [ -98.031661987304702, 16.953540802001999 ], [ -98.046142578125, 16.979629516601701 ], [ -98.107650756835895, 17.0023212432862 ], [ -98.107002258300795, 17.046760559082099 ], [ -98.065216064453097, 17.068109512329102 ], [ -98.034088134765597, 17.0452194213868 ], [ -98.011169433593807, 17.060960769653398 ], [ -97.985893249511705, 17.0513000488282 ], [ -97.930389404296903, 17.064559936523398 ], [ -97.925376892089801, 17.073440551757901 ], [ -97.940490722656193, 17.092029571533299 ], [ -97.934906005859304, 17.105922698974599 ], [ -97.873123168945298, 17.111610412597699 ], [ -97.865303039550696, 17.142749786376999 ], [ -97.847137451171903, 17.165210723876999 ], [ -97.852867126464801, 17.2110614776612 ], [ -97.847023010253906, 17.223939895629901 ], [ -97.807418823242102, 17.261480331421001 ], [ -97.794898986816307, 17.247970581054702 ], [ -97.768997192382798, 17.259799957275401 ], [ -97.751739501953097, 17.2535629272462 ], [ -97.721038818359403, 17.295629501342901 ], [ -97.710609436035099, 17.2943305969238 ], [ -97.699157714843693, 17.245370864868299 ], [ -97.657691955566307, 17.207639694213899 ], [ -97.672309875488295, 17.200990676879801 ], [ -97.671058654785199, 17.180860519409102 ], [ -97.689918518066307, 17.177850723266701 ], [ -97.706192016601605, 17.156948089599702 ], [ -97.729660034179702, 17.071760177612202 ], [ -97.746749877929602, 17.0565109252931 ], [ -97.744400024414105, 17.031049728393601 ], [ -97.734809875488295, 17.017831802368299 ], [ -97.708396911620994, 17.005199432373001 ], [ -97.676460266113196, 17.025449752807599 ], [ -97.645240783691406, 17.062110900878899 ], [ -97.628936767578097, 17.064899444580099 ], [ -97.616928100585895, 17.051879882812599 ], [ -97.616569519042898, 17.012567520141602 ], [ -97.548286437988196, 16.975620269775401 ], [ -97.591697692870994, 16.890470504760799 ], [ -97.580146789550696, 16.880939483642699 ], [ -97.539108276367202, 16.8914680480956 ], [ -97.560050964355497, 16.865890502929702 ], [ -97.558372497558594, 16.8325595855713 ], [ -97.576507568359304, 16.809230804443501 ], [ -97.586662292480497, 16.7542018890381 ], [ -97.566856384277301, 16.7471103668213 ], [ -97.559883117675795, 16.724229812622099 ], [ -97.544837951660199, 16.720800399780199 ], [ -97.556213378906193, 16.671890258789102 ], [ -97.622673034667898, 16.674749374389702 ], [ -97.684898376464801, 16.661291122436499 ], [ -97.711616516113295, 16.666461944580099 ], [ -97.8326416015625, 16.645811080932699 ], [ -97.954376220703097, 16.651271820068398 ], [ -98.029533386230398, 16.665260314941499 ], [ -98.047492980957003, 16.695398330688501 ], [ -98.080856323242202, 16.7011604309082 ], [ -98.104446411132798, 16.7170429229737 ], [ -98.165863037109403, 16.735509872436499 ], [ -98.143173217773395, 16.749740600586001 ] ] ] } },
{ "type": "Feature", "properties": { "NAME_1": "Oaxaca", "NAME_2": "Dist. Silacayoapam" }, "geometry": { "type": "Polygon", "coordinates": [ [ [ -98.325080871582003, 17.690900802612301 ], [ -98.323097229003906, 17.749780654907202 ], [ -98.284019470214801, 17.8560905456544 ], [ -98.231552124023395, 17.934940338134901 ], [ -98.202697753906193, 17.963520050048899 ], [ -98.120201110839801, 18.0152091979981 ], [ -98.107086181640597, 18.000970840454102 ], [ -98.0635986328125, 17.984840393066499 ], [ -98.047760009765597, 17.950971603393601 ], [ -98.052047729492202, 17.920030593872202 ], [ -98.065727233886705, 17.909370422363299 ], [ -98.067642211914105, 17.897172927856399 ], [ -98.046302795410099, 17.894269943237301 ], [ -98.034477233886705, 17.881940841674901 ], [ -98.026702880859403, 17.8402709960937 ], [ -98.035102844238295, 17.795560836792099 ], [ -98.020797729492202, 17.778121948242202 ], [ -97.990592956542898, 17.704860687255898 ], [ -97.947906494140597, 17.6961402893068 ], [ -97.883041381835895, 17.760190963745099 ], [ -97.872749328613196, 17.757251739501999 ], [ -97.861656188964801, 17.738611221313601 ], [ -97.863807678222699, 17.727342605590898 ], [ -97.891632080077997, 17.706319808960099 ], [ -97.870216369628906, 17.6795883178712 ], [ -97.872817993164006, 17.656641006469702 ], [ -97.864852905273395, 17.630350112915 ], [ -97.887840270996094, 17.5789394378662 ], [ -97.915992736816406, 17.562730789184599 ], [ -97.896423339843807, 17.546619415283299 ], [ -97.887176513671903, 17.525579452514599 ], [ -97.923820495605497, 17.4999008178712 ], [ -97.942802429199205, 17.4728317260743 ], [ -97.950836181640597, 17.400278091430799 ], [ -97.961357116699205, 17.397119522094702 ], [ -97.969429016113196, 17.451269149780401 ], [ -97.999122619628906, 17.423870086669901 ], [ -98.019081115722699, 17.4221496582032 ], [ -97.996482849121094, 17.4439201354981 ], [ -98.021728515625, 17.468940734863299 ], [ -98.059883117675795, 17.457300186157301 ], [ -98.103538513183494, 17.464740753173899 ], [ -98.15274810791, 17.443601608276399 ], [ -98.169807434082003, 17.420000076293899 ], [ -98.194168090820298, 17.433700561523398 ], [ -98.21378326416, 17.4327106475831 ], [ -98.233596801757798, 17.519849777221701 ], [ -98.325080871582003, 17.690900802612301 ] ] ] } },
{ "type": "Feature", "properties": { "NAME_1": "Oaxaca", "NAME_2": "Dist. Sola de Vega" }, "geometry": { "type": "Polygon", "coordinates": [ [ [ -97.636650085449205, 16.5724105834962 ], [ -97.578903198242102, 16.626300811767699 ], [ -97.551910400390597, 16.686130523681701 ], [ -97.544837951660199, 16.720800399780199 ], [ -97.559883117675795, 16.724229812622099 ], [ -97.566856384277301, 16.7471103668213 ], [ -97.586662292480497, 16.7542018890381 ], [ -97.576507568359304, 16.809230804443501 ], [ -97.558372497558594, 16.8325595855713 ], [ -97.560050964355497, 16.865890502929702 ], [ -97.539108276367202, 16.8914680480956 ], [ -97.478469848632798, 16.905031204223601 ], [ -97.454193115234403, 16.960138320922901 ], [ -97.433868408202997, 16.980970382690401 ], [ -97.388450622558494, 16.976730346679702 ], [ -97.372116088867202, 16.989759445190401 ], [ -97.361427307128906, 16.9823608398437 ], [ -97.346008300781193, 16.9893112182618 ], [ -97.315597534179602, 16.983209609985401 ], [ -97.271301269531193, 17.002950668335 ], [ -97.235466003417997, 16.9847106933594 ], [ -97.207107543945298, 16.983360290527301 ], [ -97.202133178710895, 16.965150833129901 ], [ -97.220977783203097, 16.936620712280298 ], [ -97.183792114257798, 16.915399551391701 ], [ -97.187232971191307, 16.8909206390382 ], [ -97.179412841796804, 16.879400253296001 ], [ -97.142501831054602, 16.863849639892599 ], [ -97.114723205566406, 16.828710556030401 ], [ -97.085586547851406, 16.8294906616212 ], [ -97.021087646484304, 16.807470321655298 ], [ -97.020606994628807, 16.794820785522401 ], [ -97.067199707031193, 16.703109741210898 ], [ -97.054580688476506, 16.663539886474599 ], [ -97.090301513671903, 16.6095905303956 ], [ -97.098480224609403, 16.5406799316406 ], [ -97.096939086913906, 16.521520614623999 ], [ -97.078765869140597, 16.498130798339801 ], [ -97.089820861816406, 16.4298210144044 ], [ -97.047958374023395, 16.402570724487401 ], [ -97.054016113281193, 16.382789611816499 ], [ -97.164421081542898, 16.418190002441399 ], [ -97.206787109374901, 16.4121608734132 ], [ -97.258987426757798, 16.432319641113299 ], [ -97.279159545898395, 16.4157619476319 ], [ -97.307502746582003, 16.431751251220799 ], [ -97.369003295898395, 16.4457111358643 ], [ -97.393608093261705, 16.471170425415099 ], [ -97.432792663574205, 16.469030380248999 ], [ -97.477706909179602, 16.483800888061602 ], [ -97.536819458007798, 16.484390258789102 ], [ -97.539848327636705, 16.493900299072301 ], [ -97.562698364257798, 16.4989318847657 ], [ -97.580757141113295, 16.5313510894775 ], [ -97.610809326171903, 16.515731811523501 ], [ -97.638488769531193, 16.514528274536101 ], [ -97.641906738281193, 16.5199508666993 ], [ -97.623077392577997, 16.555669784545898 ], [ -97.636650085449205, 16.5724105834962 ] ] ] } },
{ "type": "Feature", "properties": { "NAME_1": "Oaxaca", "NAME_2": "Dist. Tehuantepec" }, "geometry": { "type": "GeometryCollection", "geometries": [ { "type": "Polygon", "coordinates": [ [ [ -95.367919921874901, 16.023471832275401 ], [ -95.423751831054702, 16.001527786254901 ], [ -95.435417175292898, 15.9756937026978 ], [ -95.471252441406193, 15.9784717559815 ], [ -95.448753356933594, 15.9820823669434 ], [ -95.455413818359403, 15.993471145629901 ], [ -95.457916259765597, 15.9843044281006 ], [ -95.471527099609403, 15.9806938171388 ], [ -95.492919921874901, 15.9873609542846 ], [ -95.496803283691406, 15.980416297912701 ], [ -95.472915649414006, 15.9784717559815 ], [ -95.492919921874901, 15.974583625793599 ], [ -95.497085571289105, 15.9651393890381 ], [ -95.5343017578125, 15.966251373291 ], [ -95.528472900390597, 15.961526870727599 ], [ -95.574584960937401, 15.9556941986085 ], [ -95.554862976074205, 15.964027404785099 ], [ -95.575973510742202, 15.9651393890381 ], [ -95.580139160156193, 15.9468059539794 ], [ -95.605697631835895, 15.943193435669 ], [ -95.619308471679602, 15.927638053894199 ], [ -95.6370849609375, 15.927638053894199 ], [ -95.662361145019503, 15.9120826721191 ], [ -95.764862060546903, 15.8976402282715 ], [ -95.780693054199205, 15.8834733963013 ], [ -95.776252746582003, 15.8709716796875 ], [ -95.783195495605497, 15.870415687561 ], [ -95.784301757812401, 15.884026527404799 ], [ -95.790969848632798, 15.8854169845582 ], [ -95.803474426269503, 15.8737497329712 ], [ -95.786247253417997, 15.872637748718301 ], [ -95.784858703613196, 15.871527671814 ], [ -95.784858703613196, 15.870694160461399 ], [ -95.830139160156193, 15.866527557373001 ], [ -95.880416870117102, 15.8518047332765 ], [ -95.890419006347599, 15.842083930969199 ], [ -95.963752746582003, 15.8276386260987 ], [ -95.967918395996094, 15.817359924316399 ], [ -95.984741210937401, 15.814027786254901 ], [ -96.038352966308494, 15.9218006134034 ], [ -96.057220458984304, 16.0165309906006 ], [ -96.080612182617202, 16.062200546264599 ], [ -96.046127319335895, 16.097869873046999 ], [ -96.006340026855497, 16.088550567626999 ], [ -95.949043273925795, 16.093738555908299 ], [ -95.921012878417997, 16.110500335693398 ], [ -95.865051269531193, 16.2335014343262 ], [ -95.873878479003906, 16.2746906280518 ], [ -95.867599487304702, 16.301099777221701 ], [ -95.833778381347599, 16.352380752563601 ], [ -95.810195922851605, 16.373010635375898 ], [ -95.797203063964801, 16.402492523193398 ], [ -95.779991149902301, 16.598770141601701 ], [ -95.703109741210895, 16.860691070556701 ], [ -95.636093139648395, 16.941278457641701 ], [ -95.614738464355398, 16.986101150512798 ], [ -95.577499389648395, 16.999750137328999 ], [ -95.532180786132798, 16.9929504394532 ], [ -95.429527282714801, 16.9989204406738 ], [ -95.390480041503906, 16.990369796752901 ], [ -95.368812561035199, 16.993450164795 ], [ -95.371086120605497, 16.972639083862301 ], [ -95.351638793945298, 16.9166698455812 ], [ -95.309501647949205, 16.828250885009801 ], [ -95.277168273925795, 16.7723407745362 ], [ -95.218688964843807, 16.7075805664063 ], [ -95.203506469726506, 16.677350997924801 ], [ -95.212196350097699, 16.573329925537099 ], [ -95.204887390136705, 16.531410217285298 ], [ -95.216156005859403, 16.4503898620606 ], [ -95.166809082031193, 16.3748893737794 ], [ -95.064025878906193, 16.3015537261963 ], [ -95.066253662109304, 16.281805038452099 ], [ -95.059303283691307, 16.272916793823399 ], [ -95.006805419921903, 16.251247406005898 ], [ -94.912635803222599, 16.244861602783299 ], [ -94.869308471679602, 16.254583358764702 ], [ -94.845138549804702, 16.269027709960898 ], [ -94.866806030273395, 16.281528472900401 ], [ -94.833190917968693, 16.283472061157301 ], [ -94.816253662109403, 16.274860382080099 ], [ -94.829307556152301, 16.262916564941399 ], [ -94.841804504394503, 16.2704162597657 ], [ -94.839302062988196, 16.262916564941399 ], [ -94.848197937011705, 16.256526947021499 ], [ -94.927635192871094, 16.240972518920898 ], [ -94.989303588867102, 16.244304656982401 ], [ -95.074028015136705, 16.265970230102699 ], [ -95.093193054199205, 16.254028320312599 ], [ -95.104026794433494, 16.234582901001001 ], [ -95.042640686035199, 16.224859237671001 ], [ -94.8709716796875, 16.236249923706101 ], [ -94.819305419921903, 16.223194122314499 ], [ -94.766807556152301, 16.2237472534181 ], [ -94.771247863769503, 16.2181930541993 ], [ -94.761253356933594, 16.2206935882568 ], [ -94.763748168945298, 16.213752746581999 ], [ -94.747360229492102, 16.2095832824706 ], [ -94.879859924316406, 16.2134723663331 ], [ -95.071250915527301, 16.1840305328369 ], [ -95.145141601562401, 16.190139770507901 ], [ -95.155418395995994, 16.1837482452394 ], [ -95.167915344238196, 16.1968078613282 ], [ -95.151802062988196, 16.166528701782301 ], [ -95.193191528320298, 16.166805267333999 ], [ -95.194862365722699, 16.172359466552798 ], [ -95.201805114746094, 16.1690273284912 ], [ -95.196807861328097, 16.160694122314499 ], [ -95.197082519531193, 16.1501388549806 ], [ -95.201805114746094, 16.1454162597656 ], [ -95.198471069335895, 16.160139083862401 ], [ -95.213195800781193, 16.154861450195401 ], [ -95.216247558593807, 16.1618061065675 ], [ -95.243194580078097, 16.155694961547901 ], [ -95.251525878906193, 16.142637252807699 ], [ -95.274024963378906, 16.145694732666001 ], [ -95.275138854980497, 16.1312484741212 ], [ -95.270973205566406, 16.144306182861399 ], [ -95.252082824707003, 16.1384716033937 ], [ -95.28125, 16.120416641235501 ], [ -95.277641296386705, 16.106252670288001 ], [ -95.354583740234403, 16.0793056488038 ], [ -95.378753662109403, 16.0451393127443 ], [ -95.376525878906193, 16.0276393890382 ], [ -95.367919921874901, 16.023471832275401 ] ] ] }, { "type": "Polygon", "coordinates": [ [ [ -95.248474121093807, 16.1365280151368 ], [ -95.246246337890597, 16.133752822876001 ], [ -95.251251220703097, 16.133193969726499 ], [ -95.251525878906193, 16.1359748840331 ], [ -95.248474121093807, 16.1365280151368 ] ] ] }, { "type": "Polygon", "coordinates": [ [ [ -95.575141906738196, 15.942361831665 ], [ -95.574028015136705, 15.940971374511699 ], [ -95.576530456542997, 15.938195228576699 ], [ -95.577919006347599, 15.940138816833599 ], [ -95.575141906738196, 15.942361831665 ] ] ] } ] } },
{ "type": "Feature", "properties": { "NAME_1": "Oaxaca", "NAME_2": "Dist. Teotitlan" }, "geometry": { "type": "Polygon", "coordinates": [ [ [ -97.154136657714801, 17.806150436401399 ], [ -97.213172912597599, 17.786790847778299 ], [ -97.234329223632798, 17.797901153564499 ], [ -97.208358764648395, 17.809450149536101 ], [ -97.207618713378906, 17.827381134033299 ], [ -97.176589965820298, 17.8725395202637 ], [ -97.181800842285099, 17.887660980224702 ], [ -97.152656555175795, 17.906999588012798 ], [ -97.152847290039105, 17.957260131835898 ], [ -97.138946533203097, 18.000669479370099 ], [ -97.140762329101605, 18.026430130005 ], [ -97.110122680664105, 18.056440353393601 ], [ -97.120086669921804, 18.141138076782202 ], [ -97.112411499023395, 18.164659500122099 ], [ -97.107856750488295, 18.170209884643501 ], [ -97.077941894531193, 18.166530609130799 ], [ -96.994850158691406, 18.142860412597699 ], [ -96.923751831054602, 18.1994724273681 ], [ -96.928703308105398, 18.218059539794901 ], [ -96.921257019042898, 18.2327804565431 ], [ -96.907646179199205, 18.2121906280518 ], [ -96.853157043457003, 18.246498107910298 ], [ -96.800392150878906, 18.267650604248001 ], [ -96.789176940917898, 18.261529922485401 ], [ -96.757987976074205, 18.2658405303956 ], [ -96.731040954589801, 18.318910598754901 ], [ -96.699707031249901, 18.351970672607401 ], [ -96.681037902831903, 18.397439956665199 ], [ -96.636810302734403, 18.440540313720799 ], [ -96.602066040039006, 18.512699127197401 ], [ -96.589759826660099, 18.549261093139599 ], [ -96.609657287597699, 18.5773811340331 ], [ -96.609077453613295, 18.603590011596701 ], [ -96.576393127441307, 18.5747299194337 ], [ -96.562995910644503, 18.511531829834102 ], [ -96.602493286132798, 18.4687309265137 ], [ -96.624610900878906, 18.428970336914102 ], [ -96.606613159179702, 18.361169815063601 ], [ -96.593696594238295, 18.344959259033299 ], [ -96.622726440429702, 18.305160522460898 ], [ -96.578338623046903, 18.3176498413087 ], [ -96.596740722656193, 18.303102493286101 ], [ -96.578979492187401, 18.306339263916001 ], [ -96.589271545410099, 18.293260574340898 ], [ -96.618881225585895, 18.2922096252443 ], [ -96.595642089843807, 18.290859222412202 ], [ -96.593132019042997, 18.2818298339843 ], [ -96.581039428710895, 18.278671264648501 ], [ -96.598953247070298, 18.2737426757813 ], [ -96.648948669433594, 18.2937412261963 ], [ -96.643508911132798, 18.2806701660157 ], [ -96.629753112792997, 18.282079696655298 ], [ -96.645256042480398, 18.270082473754901 ], [ -96.622108459472699, 18.273099899291999 ], [ -96.639793395996094, 18.261940002441499 ], [ -96.656562805175795, 18.182580947876001 ], [ -96.622108459472699, 18.190572738647599 ], [ -96.645599365234403, 18.170061111450298 ], [ -96.646842956542997, 18.159450531006001 ], [ -96.603332519531193, 18.133689880371101 ], [ -96.640350341796903, 18.103771209716701 ], [ -96.625656127929702, 18.085720062255898 ], [ -96.627487182617202, 18.0772304534913 ], [ -96.675537109375, 18.057268142700298 ], [ -96.707176208496094, 18.059909820556602 ], [ -96.801582336425696, 18.038459777831999 ], [ -96.856109619140597, 18.014310836791999 ], [ -96.881690979003807, 17.998500823974599 ], [ -96.890266418457003, 17.9816799163819 ], [ -96.927169799804602, 17.963100433349702 ], [ -96.935829162597599, 17.935222625732401 ], [ -96.967613220214801, 17.920890808105501 ], [ -97.006576538085895, 17.8636703491212 ], [ -97.034408569335895, 17.8489875793457 ], [ -97.037399291992102, 17.837530136108501 ], [ -97.060935974121094, 17.837890625000099 ], [ -97.059867858886705, 17.825708389282202 ], [ -97.072296142578097, 17.8200492858887 ], [ -97.154136657714801, 17.806150436401399 ] ] ] } },
{ "type": "Feature", "properties": { "NAME_1": "Oaxaca", "NAME_2": "Dist. Teposcolula" }, "geometry": { "type": "Polygon", "coordinates": [ [ [ -97.379463195800795, 17.39262008667 ], [ -97.417930603027301, 17.3908710479737 ], [ -97.442619323730398, 17.402418136596701 ], [ -97.480506896972699, 17.4070129394532 ], [ -97.5430908203125, 17.461410522461001 ], [ -97.608016967773395, 17.494649887085 ], [ -97.618209838867102, 17.51416015625 ], [ -97.640373229980497, 17.516229629516701 ], [ -97.648368835449205, 17.536220550537099 ], [ -97.708526611327997, 17.548410415649499 ], [ -97.709419250488295, 17.568580627441499 ], [ -97.727828979492202, 17.563909530639599 ], [ -97.773811340332003, 17.519260406494201 ], [ -97.767059326171804, 17.529832839965799 ], [ -97.773162841796804, 17.607360839843899 ], [ -97.736312866210895, 17.646102905273398 ], [ -97.749496459960895, 17.7026691436768 ], [ -97.669441223144503, 17.6922912597656 ], [ -97.635658264160099, 17.713291168213001 ], [ -97.660461425781094, 17.724079132080099 ], [ -97.645736694335895, 17.744699478149499 ], [ -97.705307006835895, 17.767131805419901 ], [ -97.714736938476605, 17.781419754028299 ], [ -97.670997619628906, 17.8372802734375 ], [ -97.619262695312401, 17.865900039672901 ], [ -97.582496643066406, 17.904460906982401 ], [ -97.544906616210895, 17.898069381713899 ], [ -97.450706481933594, 17.800550460815401 ], [ -97.465568542480497, 17.7918796539306 ], [ -97.452362060546804, 17.767110824585 ], [ -97.445777893066307, 17.705839157104499 ], [ -97.434776306152301, 17.7003498077393 ], [ -97.4320068359375, 17.710649490356399 ], [ -97.428039550781193, 17.704597473144599 ], [ -97.435661315917898, 17.672250747680799 ], [ -97.412612915039105, 17.6839904785157 ], [ -97.357536315917997, 17.6475524902344 ], [ -97.279212951660199, 17.6680717468262 ], [ -97.262489318847599, 17.6540012359619 ], [ -97.272590637207003, 17.624830245971701 ], [ -97.320793151855497, 17.624319076538001 ], [ -97.360260009765597, 17.5943107604982 ], [ -97.364738464355497, 17.576709747314499 ], [ -97.344970703124901, 17.510198593139702 ], [ -97.365310668945298, 17.4600009918212 ], [ -97.347167968749901, 17.402347564697301 ], [ -97.379463195800795, 17.39262008667 ] ] ] } },
{ "type": "Feature", "properties": { "NAME_1": "Oaxaca", "NAME_2": "Dist. Tlacolula" }, "geometry": { "type": "Polygon", "coordinates": [ [ [ -96.662498474121094, 16.708440780639599 ], [ -96.638076782226605, 16.7146511077882 ], [ -96.615921020507798, 16.738639831543001 ], [ -96.585105895996094, 16.784999847412202 ], [ -96.575088500976406, 16.837301254272599 ], [ -96.633018493652301, 16.879270553588999 ], [ -96.631362915039105, 16.904150009155298 ], [ -96.645416259765597, 16.938190460205 ], [ -96.617813110351406, 16.955490112304702 ], [ -96.617546081542997, 16.9645805358887 ], [ -96.6368408203125, 16.974670410156399 ], [ -96.682929992675696, 16.972761154174702 ], [ -96.734031677245994, 17.0041904449463 ], [ -96.698547363281193, 17.031320571899499 ], [ -96.674057006835895, 17.090320587158299 ], [ -96.646232604980398, 17.1159896850587 ], [ -96.633132934570298, 17.1609897613525 ], [ -96.586837768554702, 17.1773910522462 ], [ -96.564476013183494, 17.173000335693299 ], [ -96.478157043457003, 17.182781219482401 ], [ -96.385910034179702, 17.157199859619102 ], [ -96.337478637695298, 17.154159545898601 ], [ -96.316078186035199, 17.1684799194337 ], [ -96.296310424804602, 17.159519195556602 ], [ -96.205245971679602, 17.1669216156007 ], [ -96.206832885742202, 17.142541885376001 ], [ -96.216850280761705, 17.1263027191162 ], [ -96.205551147460895, 17.103321075439599 ], [ -96.219322204589801, 17.066190719604599 ], [ -96.247886657714801, 17.05006980896 ], [ -96.244506835937401, 17.017772674560501 ], [ -96.1953125, 17.00980758667 ], [ -96.170951843261705, 16.993749618530199 ], [ -96.147605895996094, 16.996049880981499 ], [ -96.044052124023395, 16.9723796844482 ], [ -96.023010253906193, 16.953172683715898 ], [ -96.002403259277202, 16.9083175659181 ], [ -95.976142883300696, 16.877470016479499 ], [ -95.980041503906193, 16.8490600585938 ], [ -96.036842346191406, 16.8112411499025 ], [ -96.069511413574205, 16.772720336914201 ], [ -96.115966796874901, 16.753410339355501 ], [ -96.226173400878906, 16.6815795898438 ], [ -96.329269409179702, 16.705450057983501 ], [ -96.372520446777301, 16.692489624023398 ], [ -96.426780700683494, 16.7009811401368 ], [ -96.493942260742202, 16.696460723876999 ], [ -96.540817260742102, 16.644620895385799 ], [ -96.530380249023395, 16.610570907592699 ], [ -96.535133361816406, 16.594272613525501 ], [ -96.562438964843807, 16.5815029144288 ], [ -96.598365783691406, 16.587030410766602 ], [ -96.622451782226506, 16.5683002471925 ], [ -96.6397705078125, 16.571271896362202 ], [ -96.675338745117202, 16.6245002746582 ], [ -96.653732299804602, 16.661870956420799 ], [ -96.662498474121094, 16.708440780639599 ] ] ] } },
{ "type": "Feature", "properties": { "NAME_1": "Oaxaca", "NAME_2": "Dist. Tlaxiaco" }, "geometry": { "type": "Polygon", "coordinates": [ [ [ -97.539108276367202, 16.8914680480956 ], [ -97.580146789550696, 16.880939483642699 ], [ -97.5911865234375, 16.8874607086182 ], [ -97.547729492187401, 16.972970962524499 ], [ -97.616569519042898, 17.012567520141602 ], [ -97.621719360351506, 17.061399459838899 ], [ -97.645240783691406, 17.062110900878899 ], [ -97.676460266113196, 17.025449752807599 ], [ -97.708396911620994, 17.005199432373001 ], [ -97.743606567382798, 17.027870178222699 ], [ -97.746749877929602, 17.0565109252931 ], [ -97.729660034179702, 17.071760177612202 ], [ -97.708847045898395, 17.1514282226563 ], [ -97.689918518066307, 17.177850723266701 ], [ -97.671058654785199, 17.180860519409102 ], [ -97.672309875488295, 17.200990676879801 ], [ -97.657691955566307, 17.207639694213899 ], [ -97.700607299804602, 17.2477626800538 ], [ -97.706382751464801, 17.2900295257568 ], [ -97.719093322753807, 17.29660987854 ], [ -97.707092285156193, 17.330680847168001 ], [ -97.717247009277301, 17.3565483093262 ], [ -97.709266662597599, 17.371250152587901 ], [ -97.757217407226605, 17.434211730956999 ], [ -97.745903015136705, 17.4564514160157 ], [ -97.750350952148395, 17.485441207885899 ], [ -97.739295959472599, 17.5140495300293 ], [ -97.705970764160199, 17.548509597778299 ], [ -97.648368835449205, 17.536220550537099 ], [ -97.640373229980497, 17.516229629516701 ], [ -97.618209838867102, 17.51416015625 ], [ -97.608016967773395, 17.494649887085 ], [ -97.5430908203125, 17.461410522461001 ], [ -97.480506896972699, 17.4070129394532 ], [ -97.442619323730398, 17.402418136596701 ], [ -97.417930603027301, 17.3908710479737 ], [ -97.379463195800795, 17.39262008667 ], [ -97.422981262207003, 17.358720779418899 ], [ -97.422958374023395, 17.349380493164102 ], [ -97.396553039550696, 17.346490859985501 ], [ -97.393692016601506, 17.3395900726318 ], [ -97.422027587890597, 17.284418106079201 ], [ -97.392433166503906, 17.202579498291001 ], [ -97.376327514648395, 17.181360244751001 ], [ -97.374786376953097, 17.1155605316163 ], [ -97.390472412109304, 17.0705795288087 ], [ -97.439826965332003, 16.996721267700199 ], [ -97.433868408202997, 16.980970382690401 ], [ -97.454193115234403, 16.960138320922901 ], [ -97.475502014160199, 16.908720016479499 ], [ -97.483406066894503, 16.901319503784201 ], [ -97.539108276367202, 16.8914680480956 ] ] ] } },
{ "type": "Feature", "properties": { "NAME_1": "Oaxaca", "NAME_2": "Dist. Tuxtepec" }, "geometry": { "type": "Polygon", "coordinates": [ [ [ -95.8386611938475, 18.008680343627901 ], [ -95.845642089843807, 17.9792709350587 ], [ -95.878059387207003, 17.936508178711001 ], [ -95.924240112304702, 17.827930450439599 ], [ -95.958671569824205, 17.8102512359619 ], [ -96.000289916992102, 17.837480545043899 ], [ -96.019729614257798, 17.835609436035199 ], [ -96.039779663085895, 17.855939865112301 ], [ -96.035430908203097, 17.858520507812599 ], [ -96.045722961425795, 17.856269836425898 ], [ -96.145217895507798, 17.7848510742188 ], [ -96.169181823730398, 17.716302871704201 ], [ -96.193237304687401, 17.701860427856399 ], [ -96.222106933593693, 17.7006015777588 ], [ -96.249900817871094, 17.7093906402588 ], [ -96.272277832031193, 17.70285987854 ], [ -96.303451538085895, 17.714958190917901 ], [ -96.322990417480497, 17.731630325317401 ], [ -96.319442749023395, 17.773981094360401 ], [ -96.326232910156193, 17.802850723266701 ], [ -96.350563049316307, 17.8100280761719 ], [ -96.379890441894503, 17.788770675659201 ], [ -96.404006958007798, 17.810569763183601 ], [ -96.412086486816307, 17.834760665893601 ], [ -96.431716918945298, 17.852251052856499 ], [ -96.439872741699205, 17.8731994628907 ], [ -96.450332641601506, 17.875959396362301 ], [ -96.465759277343693, 17.858341217041001 ], [ -96.478973388671903, 17.873180389404201 ], [ -96.511520385742202, 17.872001647949201 ], [ -96.600791931152301, 17.9556694030762 ], [ -96.613082885742202, 17.987810134887699 ], [ -96.624748229980398, 18.083400726318398 ], [ -96.641098022460895, 18.100770950317401 ], [ -96.603332519531193, 18.133689880371101 ], [ -96.646842956542997, 18.159450531006001 ], [ -96.645599365234403, 18.170061111450298 ], [ -96.622108459472699, 18.190572738647599 ], [ -96.656562805175795, 18.182580947876001 ], [ -96.639793395996094, 18.261940002441499 ], [ -96.622108459472699, 18.273099899291999 ], [ -96.645256042480398, 18.270082473754901 ], [ -96.629753112792997, 18.282079696655298 ], [ -96.643508911132798, 18.2806701660157 ], [ -96.648948669433594, 18.2937412261963 ], [ -96.598953247070298, 18.2737426757813 ], [ -96.581039428710895, 18.278671264648501 ], [ -96.593132019042997, 18.2818298339843 ], [ -96.595642089843807, 18.290859222412202 ], [ -96.618881225585895, 18.2922096252443 ], [ -96.589271545410099, 18.293260574340898 ], [ -96.578979492187401, 18.306339263916001 ], [ -96.596740722656193, 18.303102493286101 ], [ -96.578338623046903, 18.3176498413087 ], [ -96.619392395019503, 18.3029499053956 ], [ -96.622917175292997, 18.3084506988525 ], [ -96.593696594238295, 18.344959259033299 ], [ -96.606613159179702, 18.361169815063601 ], [ -96.624610900878906, 18.428970336914102 ], [ -96.602493286132798, 18.4687309265137 ], [ -96.562995910644503, 18.511531829834102 ], [ -96.576393127441307, 18.5747299194337 ], [ -96.609077453613295, 18.603590011596701 ], [ -96.600646972656094, 18.626590728759702 ], [ -96.581466674804602, 18.6332492828369 ], [ -96.544891357421903, 18.5949401855469 ], [ -96.495346069335895, 18.575679779052699 ], [ -96.518577575683594, 18.527479171752901 ], [ -96.500190734863196, 18.477239608764801 ], [ -96.494766235351506, 18.4232501983643 ], [ -96.469245910644503, 18.388910293579102 ], [ -96.390930175781094, 18.329401016235401 ], [ -96.366889953613196, 18.327001571655298 ], [ -96.334609985351605, 18.344160079956001 ], [ -96.291107177734403, 18.321769714355501 ], [ -96.238388061523395, 18.237379074096701 ], [ -96.208358764648395, 18.2451400756837 ], [ -96.1884765625, 18.2400302886963 ], [ -96.210899353027301, 18.214660644531399 ], [ -96.202751159667898, 18.198802947998001 ], [ -96.167610168457003, 18.189170837402301 ], [ -96.096542358398395, 18.22322845459 ], [ -96.036560058593807, 18.201520919799801 ], [ -95.970596313476605, 18.2064495086669 ], [ -95.944831848144503, 18.1921195983887 ], [ -95.905998229980497, 18.1913681030275 ], [ -95.887832641601506, 18.183019638061499 ], [ -95.865722656249901, 18.1492099761963 ], [ -95.840988159179702, 18.049730300903398 ], [ -95.8386611938475, 18.008680343627901 ] ] ] } },
{ "type": "Feature", "properties": { "NAME_1": "Oaxaca", "NAME_2": "Dist. Villa Alta" }, "geometry": { "type": "Polygon", "coordinates": [ [ [ -96.205245971679602, 17.1669216156007 ], [ -96.296310424804602, 17.159519195556602 ], [ -96.316078186035199, 17.1684799194337 ], [ -96.337478637695298, 17.154159545898601 ], [ -96.375946044921804, 17.1555690765381 ], [ -96.478157043457003, 17.182781219482401 ], [ -96.5361328125, 17.179729461669901 ], [ -96.498107910156193, 17.233749389648398 ], [ -96.495910644531193, 17.259700775146499 ], [ -96.447807312011705, 17.248720169067401 ], [ -96.425590515136705, 17.273019790649499 ], [ -96.422500610351406, 17.299842834472699 ], [ -96.436943054199205, 17.329380035400501 ], [ -96.427238464355398, 17.382909774780298 ], [ -96.431388854980497, 17.404279708862301 ], [ -96.385528564453097, 17.460870742797901 ], [ -96.347839355468807, 17.548730850219702 ], [ -96.331222534179602, 17.5572910308838 ], [ -96.29541015625, 17.602279663085898 ], [ -96.334632873535099, 17.617279052734499 ], [ -96.346496582031193, 17.631160736083999 ], [ -96.341873168945298, 17.679580688476602 ], [ -96.306289672851605, 17.7169895172119 ], [ -96.272277832031193, 17.70285987854 ], [ -96.249900817871094, 17.7093906402588 ], [ -96.222106933593693, 17.7006015777588 ], [ -96.181587219238196, 17.7047729492188 ], [ -96.207267761230497, 17.653009414673001 ], [ -96.210601806640597, 17.616991043090799 ], [ -96.192115783691406, 17.603120803833001 ], [ -96.162460327148395, 17.557191848754901 ], [ -96.151268005370994, 17.5122394561769 ], [ -96.102729797363196, 17.4221916198731 ], [ -96.106826782226506, 17.360221862793001 ], [ -96.178672790527301, 17.200950622558601 ], [ -96.205245971679602, 17.1669216156007 ] ] ] } },
{ "type": "Feature", "properties": { "NAME_1": "Oaxaca", "NAME_2": "Dist. Yautepec" }, "geometry": { "type": "Polygon", "coordinates": [ [ [ -96.079177856445199, 16.0560703277588 ], [ -96.117942810058594, 16.056390762328999 ], [ -96.139793395995994, 16.065362930297901 ], [ -96.180892944335895, 16.062770843505898 ], [ -96.172401428222699, 16.090950012207099 ], [ -96.175743103027301, 16.125719070434599 ], [ -96.164230346679602, 16.1538200378419 ], [ -96.175369262695298, 16.1768398284912 ], [ -96.259185791015597, 16.2023105621338 ], [ -96.345176696777301, 16.247779846191499 ], [ -96.371452331542898, 16.2684001922607 ], [ -96.402557373046804, 16.3087902069093 ], [ -96.418502807617202, 16.352809906006001 ], [ -96.474082946777301, 16.375669479370199 ], [ -96.446586608886705, 16.4604301452637 ], [ -96.561515808105398, 16.572959899902401 ], [ -96.562438964843807, 16.5815029144288 ], [ -96.537727355957003, 16.59029006958 ], [ -96.531288146972599, 16.605770111083999 ], [ -96.540817260742102, 16.644620895385799 ], [ -96.493942260742202, 16.696460723876999 ], [ -96.426780700683494, 16.7009811401368 ], [ -96.372520446777301, 16.692489624023398 ], [ -96.329269409179702, 16.705450057983501 ], [ -96.226173400878906, 16.6815795898438 ], [ -96.115966796874901, 16.753410339355501 ], [ -96.069511413574205, 16.772720336914201 ], [ -96.036842346191406, 16.8112411499025 ], [ -95.980041503906193, 16.8490600585938 ], [ -95.975196838378807, 16.873550415039102 ], [ -95.948371887207003, 16.881240844726701 ], [ -95.934211730957003, 16.9180583953857 ], [ -95.902030944824205, 16.889450073242301 ], [ -95.857048034667898, 16.8945217132569 ], [ -95.810386657714801, 16.911840438842798 ], [ -95.744171142578097, 16.910062789916999 ], [ -95.679771423339801, 16.9308795928956 ], [ -95.631507873535099, 16.9603805541993 ], [ -95.636093139648395, 16.941278457641701 ], [ -95.703109741210895, 16.860691070556701 ], [ -95.779991149902301, 16.598770141601701 ], [ -95.797203063964801, 16.402492523193398 ], [ -95.810195922851605, 16.373010635375898 ], [ -95.833778381347599, 16.352380752563601 ], [ -95.867599487304702, 16.301099777221701 ], [ -95.873878479003906, 16.2746906280518 ], [ -95.865051269531193, 16.2335014343262 ], [ -95.921012878417997, 16.110500335693398 ], [ -95.949043273925795, 16.093738555908299 ], [ -96.006340026855497, 16.088550567626999 ], [ -96.046127319335895, 16.097869873046999 ], [ -96.078475952148395, 16.070449829101499 ], [ -96.079177856445199, 16.0560703277588 ] ] ] } },
{ "type": "Feature", "properties": { "NAME_1": "Oaxaca", "NAME_2": "Dist. Zaachila" }, "geometry": { "type": "Polygon", "coordinates": [ [ [ -96.801048278808594, 17.008310317993299 ], [ -96.839447021484304, 16.999671936035298 ], [ -96.872711181640597, 17.014631271362401 ], [ -96.889633178710895, 16.974859237670799 ], [ -96.930686950683494, 17.008850097656399 ], [ -96.939529418945298, 16.9915504455568 ], [ -96.987747192382798, 16.992990493774499 ], [ -97.050201416015597, 16.981660842895501 ], [ -97.058906555175795, 16.962551116943398 ], [ -97.072746276855497, 16.955829620361399 ], [ -97.087600708007798, 16.975370407104499 ], [ -97.146141052245994, 16.937740325927798 ], [ -97.205917358398395, 16.9275207519532 ], [ -97.220977783203097, 16.936620712280298 ], [ -97.202133178710895, 16.965150833129901 ], [ -97.207107543945298, 16.983360290527301 ], [ -97.235466003417997, 16.9847106933594 ], [ -97.271301269531193, 17.002950668335 ], [ -97.315597534179602, 16.983209609985401 ], [ -97.346008300781193, 16.9893112182618 ], [ -97.289398193359403, 17.028240203857401 ], [ -97.231117248535, 17.034299850463899 ], [ -97.189613342285099, 17.060430526733501 ], [ -97.064247131347699, 17.058401107788001 ], [ -96.978118896484403, 17.088571548461999 ], [ -96.964561462402301, 17.096071243286101 ], [ -96.928672790527301, 17.150880813598601 ], [ -96.909255981445199, 17.165979385376001 ], [ -96.901283264160199, 17.165960311889801 ], [ -96.899986267089801, 17.158161163330099 ], [ -96.939636230468807, 17.0917491912843 ], [ -96.932807922363196, 17.065080642700298 ], [ -96.922912597656193, 17.055740356445401 ], [ -96.874259948730497, 17.055610656738299 ], [ -96.834808349609403, 17.042081832885799 ], [ -96.801048278808594, 17.008310317993299 ] ] ] } },
{ "type": "Feature", "properties": { "NAME_1": "Oaxaca", "NAME_2": "Dist. Zimatlan" }, "geometry": { "type": "Polygon", "coordinates": [ [ [ -97.067199707031193, 16.703109741210898 ], [ -97.020606994628807, 16.794820785522401 ], [ -97.021865844726506, 16.809129714965898 ], [ -97.085586547851406, 16.8294906616212 ], [ -97.114723205566406, 16.828710556030401 ], [ -97.142501831054602, 16.863849639892599 ], [ -97.182212829589801, 16.882278442382798 ], [ -97.187232971191307, 16.8909206390382 ], [ -97.181900024414006, 16.911750793457099 ], [ -97.202056884765597, 16.927700042724599 ], [ -97.146141052245994, 16.937740325927798 ], [ -97.087600708007798, 16.975370407104499 ], [ -97.072746276855497, 16.955829620361399 ], [ -97.058906555175795, 16.962551116943398 ], [ -97.050201416015597, 16.981660842895501 ], [ -96.987747192382798, 16.992990493774499 ], [ -96.939529418945298, 16.9915504455568 ], [ -96.930686950683494, 17.008850097656399 ], [ -96.889633178710895, 16.974859237670799 ], [ -96.872711181640597, 17.014631271362401 ], [ -96.839447021484304, 16.999671936035298 ], [ -96.801048278808594, 17.008310317993299 ], [ -96.785507202148395, 16.997470855713001 ], [ -96.735443115234403, 16.99001121521 ], [ -96.737052917480497, 16.968601226806701 ], [ -96.747787475585895, 16.955949783325199 ], [ -96.796737670898395, 16.9468708038331 ], [ -96.814659118652301, 16.932580947876101 ], [ -96.822616577148395, 16.891010284423899 ], [ -96.848213195800696, 16.844921112060501 ], [ -96.891082763671903, 16.820392608642599 ], [ -96.964179992675696, 16.732549667358501 ], [ -96.980117797851605, 16.722080230713001 ], [ -97.022216796875, 16.7209205627443 ], [ -97.067199707031193, 16.703109741210898 ] ] ] } }
]
}
