{
"type": "FeatureCollection",
"name": "queretaro",
"crs": { "type": "name", "properties": { "name": "urn:ogc:def:crs:OGC:1.3:CRS84" } },
"features": [
{ "type": "Feature", "properties": { "NAME_1": "Querétaro", "NAME_2": "Amealco de Bonfin" }, "geometry": { "type": "Polygon", "coordinates": [ [ [ -100.03116607666, 20.051660537719801 ], [ -100.084136962890994, 20.0547904968263 ], [ -100.12629699707, 20.043760299682699 ], [ -100.254211425780994, 20.153190612793001 ], [ -100.251609802245994, 20.194700241088899 ], [ -100.31453704834, 20.2742385864257 ], [ -100.282318115234006, 20.314529418945298 ], [ -100.271713256835994, 20.340709686279201 ], [ -100.238876342772997, 20.3544311523438 ], [ -100.217407226562003, 20.339670181274499 ], [ -100.158302307129006, 20.348030090332099 ], [ -100.115997314452997, 20.332887649536101 ], [ -100.087020874022997, 20.291540145874102 ], [ -100.095092773437003, 20.271089553833001 ], [ -100.087226867675994, 20.2225017547607 ], [ -100.057960510254006, 20.222391128540199 ], [ -100.025596618652003, 20.2009391784668 ], [ -99.960906982421804, 20.1993618011475 ], [ -99.946189880371094, 20.1556606292725 ], [ -99.947853088378906, 20.131309509277401 ], [ -100.03116607666, 20.051660537719801 ] ] ] } },
{ "type": "Feature", "properties": { "NAME_1": "Querétaro", "NAME_2": "Arroyo Seco" }, "geometry": { "type": "Polygon", "coordinates": [ [ [ -99.805358886718693, 21.3745307922363 ], [ -99.766296386718807, 21.419370651245099 ], [ -99.761970520019503, 21.4962882995606 ], [ -99.802917480468807, 21.5271511077881 ], [ -99.804389953613196, 21.538530349731399 ], [ -99.784507751464801, 21.548181533813601 ], [ -99.747489929199205, 21.547121047973601 ], [ -99.756652832031193, 21.570930480957099 ], [ -99.747688293457003, 21.584960937500099 ], [ -99.703742980957003, 21.583538055419901 ], [ -99.659538269042898, 21.563869476318501 ], [ -99.643417358398395, 21.546300888061602 ], [ -99.619689941406094, 21.475009918212798 ], [ -99.584259033203097, 21.447959899902401 ], [ -99.578346252441406, 21.350959777831999 ], [ -99.532707214355398, 21.348430633544901 ], [ -99.517456054687401, 21.336610794067401 ], [ -99.480461120605497, 21.3413276672363 ], [ -99.474067687988295, 21.334949493408299 ], [ -99.476463317871094, 21.320552825927699 ], [ -99.499893188476506, 21.3099575042725 ], [ -99.523956298828097, 21.239480972290099 ], [ -99.504837036132798, 21.217380523681602 ], [ -99.517639160156193, 21.203840255737202 ], [ -99.520851135253906, 21.1825675964357 ], [ -99.550315856933594, 21.164840698242202 ], [ -99.569763183593807, 21.179630279541001 ], [ -99.605117797851605, 21.1680297851562 ], [ -99.616226196289006, 21.172561645507901 ], [ -99.626922607421804, 21.194219589233501 ], [ -99.627510070800696, 21.231929779052798 ], [ -99.615837097167997, 21.256200790405298 ], [ -99.636070251464801, 21.266838073730501 ], [ -99.628829956054602, 21.316909790039102 ], [ -99.634086608886705, 21.337200164795 ], [ -99.680999755859304, 21.313190460205099 ], [ -99.694076538085795, 21.319959640503001 ], [ -99.712646484374901, 21.315071105957099 ], [ -99.721977233886705, 21.331689834594801 ], [ -99.805168151855398, 21.341220855712901 ], [ -99.813346862792898, 21.3532009124756 ], [ -99.805358886718693, 21.3745307922363 ] ] ] } },
{ "type": "Feature", "properties": { "NAME_1": "Querétaro", "NAME_2": "Cadereyta de Montes" }, "geometry": { "type": "Polygon", "coordinates": [ [ [ -99.509170532226605, 20.693710327148398 ], [ -99.545791625976605, 20.6573791503907 ], [ -99.605812072753906, 20.6243495941163 ], [ -99.690856933593807, 20.597480773925898 ], [ -99.722656249999901, 20.597690582275401 ], [ -99.752258300781193, 20.576450347900501 ], [ -99.766746520995994, 20.6374111175537 ], [ -99.805587768554702, 20.653499603271602 ], [ -99.816810607910099, 20.674770355224702 ], [ -99.831077575683594, 20.662540435791001 ], [ -99.835227966308594, 20.642339706420898 ], [ -99.845916748046903, 20.64022064209 ], [ -99.855636596679702, 20.662862777710099 ], [ -99.871726989745994, 20.6669006347657 ], [ -99.867027282714801, 20.693508148193398 ], [ -99.882301330566307, 20.706480026245199 ], [ -99.880218505859304, 20.716121673583999 ], [ -99.847801208495994, 20.7316627502443 ], [ -99.858207702636705, 20.7854309082031 ], [ -99.838562011718807, 20.7894401550294 ], [ -99.834350585937401, 20.813970565795799 ], [ -99.825416564941406, 20.813800811767599 ], [ -99.806526184082003, 20.791231155395501 ], [ -99.774826049804602, 20.8101902008057 ], [ -99.801033020019503, 20.8448505401612 ], [ -99.821327209472699, 20.851600646972599 ], [ -99.809837341308494, 20.9068412780762 ], [ -99.820587158203097, 20.9498004913331 ], [ -99.803565979003906, 20.963859558105501 ], [ -99.791099548339801, 20.992771148681701 ], [ -99.770721435546804, 20.995399475097798 ], [ -99.762413024902301, 21.007810592651399 ], [ -99.750427246093693, 20.990028381347798 ], [ -99.723220825195298, 21.005050659179702 ], [ -99.699218749999901, 20.996940612792901 ], [ -99.678092956542997, 21.0258808135987 ], [ -99.652091979980398, 21.018230438232401 ], [ -99.619003295898395, 21.0275382995607 ], [ -99.609397888183594, 21.0193405151368 ], [ -99.619796752929702, 20.998701095581101 ], [ -99.617851257324205, 20.970319747924901 ], [ -99.624717712402301, 20.9540405273438 ], [ -99.60791015625, 20.947700500488398 ], [ -99.609642028808494, 20.922729492187599 ], [ -99.602577209472699, 20.909479141235401 ], [ -99.570259094238196, 20.891281127929702 ], [ -99.504638671875, 20.927680969238398 ], [ -99.469161987304702, 20.975419998169102 ], [ -99.437026977539006, 20.9892501831056 ], [ -99.466369628906193, 21.031299591064499 ], [ -99.471702575683594, 21.0672206878663 ], [ -99.429542541503906, 21.090219497680799 ], [ -99.418891906738295, 21.1126728057862 ], [ -99.394248962402301, 21.121427536010899 ], [ -99.361351013183594, 21.0595207214356 ], [ -99.391830444335895, 21.010320663452202 ], [ -99.396186828613295, 20.964981079101602 ], [ -99.418037414550795, 20.9097805023193 ], [ -99.445846557617202, 20.872680664062599 ], [ -99.485679626464801, 20.8651428222656 ], [ -99.537986755371094, 20.760620117187401 ], [ -99.538986206054602, 20.741580963134901 ], [ -99.509170532226605, 20.693710327148398 ] ] ] } },
{ "type": "Feature", "properties": { "NAME_1": "Querétaro", "NAME_2": "Colón" }, "geometry": { "type": "Polygon", "coordinates": [ [ [ -99.964767456054702, 20.6722812652588 ], [ -99.988830566406193, 20.6750926971437 ], [ -100.040077209472997, 20.660520553588899 ], [ -100.115226745605, 20.582759857177699 ], [ -100.158752441405994, 20.571718215942401 ], [ -100.210777282715, 20.578920364379901 ], [ -100.21142578125, 20.619859695434702 ], [ -100.180915832519005, 20.646379470825298 ], [ -100.223686218262003, 20.746459960937599 ], [ -100.206809997559006, 20.798540115356499 ], [ -100.218856811522997, 20.836620330810501 ], [ -100.231597900390994, 20.854110717773398 ], [ -100.249015808105, 20.8477706909181 ], [ -100.259399414062003, 20.879219055175898 ], [ -100.220092773437003, 20.932502746581999 ], [ -100.184272766112997, 20.9238395690918 ], [ -100.152900695800994, 20.9361305236818 ], [ -100.135513305664006, 20.932741165161101 ], [ -100.092292785645, 20.9116325378418 ], [ -100.078048706055, 20.895969390869102 ], [ -100.06958770752, 20.922798156738299 ], [ -100.058219909667997, 20.9176425933837 ], [ -100.054946899414006, 20.8973102569581 ], [ -100.020027160644005, 20.838790893554801 ], [ -99.994606018066406, 20.824800491333001 ], [ -99.990119934082003, 20.7742500305175 ], [ -99.972633361816307, 20.761089324951101 ], [ -99.992630004882798, 20.719501495361399 ], [ -99.981407165527301, 20.698970794677699 ], [ -99.954116821289006, 20.697090148925898 ], [ -99.951522827148395, 20.683820724487401 ], [ -99.964767456054702, 20.6722812652588 ] ] ] } },
{ "type": "Feature", "properties": { "NAME_1": "Querétaro", "NAME_2": "Corregidora" }, "geometry": { "type": "Polygon", "coordinates": [ [ [ -100.398292541504006, 20.519411087036101 ], [ -100.405410766602003, 20.496250152587901 ], [ -100.382537841797003, 20.441320419311499 ], [ -100.387817382812003, 20.4316711425782 ], [ -100.408622741699006, 20.432420730590799 ], [ -100.407913208007997, 20.397190093994102 ], [ -100.415733337402003, 20.377679824829102 ], [ -100.475219726562003, 20.416748046875 ], [ -100.509269714355, 20.4728908538819 ], [ -100.519729614257997, 20.5058498382569 ], [ -100.513969421387003, 20.565670013427798 ], [ -100.478073120117003, 20.555070877075199 ], [ -100.443336486815994, 20.557889938354499 ], [ -100.435157775879006, 20.527330398559599 ], [ -100.417236328125, 20.535030364990298 ], [ -100.398292541504006, 20.519411087036101 ] ] ] } },
{ "type": "Feature", "properties": { "NAME_1": "Querétaro", "NAME_2": "El Marqués" }, "geometry": { "type": "Polygon", "coordinates": [ [ [ -100.332946777344006, 20.535709381103501 ], [ -100.323356628417997, 20.583339691162099 ], [ -100.360870361327997, 20.5766410827638 ], [ -100.374351501465, 20.595050811767599 ], [ -100.334930419922003, 20.623489379882798 ], [ -100.382400512695, 20.725219726562599 ], [ -100.383552551269005, 20.762878417968899 ], [ -100.393013000487997, 20.787919998169102 ], [ -100.377822875977003, 20.8188800811768 ], [ -100.383026123047003, 20.847360610961999 ], [ -100.369827270507997, 20.851140975952301 ], [ -100.37565612793, 20.86501121521 ], [ -100.367088317870994, 20.912391662597798 ], [ -100.332260131835994, 20.914609909057699 ], [ -100.279609680175994, 20.939319610595799 ], [ -100.220092773437003, 20.932502746581999 ], [ -100.25080871582, 20.895299911499102 ], [ -100.258476257324006, 20.8714599609375 ], [ -100.249015808105, 20.8477706909181 ], [ -100.231597900390994, 20.854110717773398 ], [ -100.218856811522997, 20.836620330810501 ], [ -100.206809997559006, 20.798540115356499 ], [ -100.223686218262003, 20.746459960937599 ], [ -100.180915832519005, 20.646379470825298 ], [ -100.21142578125, 20.619859695434702 ], [ -100.210777282715, 20.578920364379901 ], [ -100.228012084960994, 20.566221237182599 ], [ -100.252426147460994, 20.523960113525501 ], [ -100.278495788574006, 20.5201091766357 ], [ -100.297737121582003, 20.534828186035199 ], [ -100.332946777344006, 20.535709381103501 ] ] ] } },
{ "type": "Feature", "properties": { "NAME_1": "Querétaro", "NAME_2": "Ezequiel Montes" }, "geometry": { "type": "Polygon", "coordinates": [ [ [ -99.820602416992102, 20.554332733154201 ], [ -99.837081909179702, 20.572618484497099 ], [ -99.828010559082003, 20.588260650634901 ], [ -99.834556579589801, 20.6047382354737 ], [ -99.845306396484304, 20.5962028503419 ], [ -99.864807128906193, 20.609621047973601 ], [ -99.894180297851605, 20.600980758666999 ], [ -99.923843383789105, 20.614320755005 ], [ -99.951377868652202, 20.644180297851602 ], [ -99.964767456054702, 20.6722812652588 ], [ -99.951522827148395, 20.683820724487401 ], [ -99.954116821289006, 20.697090148925898 ], [ -99.981407165527301, 20.698970794677699 ], [ -99.992630004882798, 20.719501495361399 ], [ -99.972633361816307, 20.761089324951101 ], [ -99.897117614746094, 20.766412734985401 ], [ -99.858207702636705, 20.7854309082031 ], [ -99.846511840820298, 20.7369403839112 ], [ -99.859306335449205, 20.721511840820298 ], [ -99.881980895996094, 20.713130950927798 ], [ -99.866310119628807, 20.690299987793001 ], [ -99.871726989745994, 20.6669006347657 ], [ -99.855636596679702, 20.662862777710099 ], [ -99.851089477539105, 20.645008087158299 ], [ -99.840721130370994, 20.6388683319093 ], [ -99.831077575683594, 20.662540435791001 ], [ -99.812347412109403, 20.674100875854499 ], [ -99.805587768554702, 20.653499603271602 ], [ -99.766746520995994, 20.6374111175537 ], [ -99.752258300781193, 20.576450347900501 ], [ -99.820602416992102, 20.554332733154201 ] ] ] } },
{ "type": "Feature", "properties": { "NAME_1": "Querétaro", "NAME_2": "Huimilpan" }, "geometry": { "type": "Polygon", "coordinates": [ [ [ -100.390312194824006, 20.359289169311499 ], [ -100.415733337402003, 20.377679824829102 ], [ -100.407913208007997, 20.397190093994102 ], [ -100.408622741699006, 20.432420730590799 ], [ -100.387817382812003, 20.4316711425782 ], [ -100.382537841797003, 20.441320419311499 ], [ -100.405410766602003, 20.496250152587901 ], [ -100.403793334960994, 20.513191223144599 ], [ -100.36319732666, 20.535699844360401 ], [ -100.291549682617003, 20.532140731811602 ], [ -100.278495788574006, 20.5201091766357 ], [ -100.301071166992003, 20.490198135375898 ], [ -100.295486450195, 20.475141525268601 ], [ -100.305130004882997, 20.447620391845799 ], [ -100.2900390625, 20.444290161132901 ], [ -100.289115905762003, 20.4333209991456 ], [ -100.307197570800994, 20.4050312042237 ], [ -100.289703369140994, 20.389818191528398 ], [ -100.251586914062003, 20.379999160766602 ], [ -100.238876342772997, 20.3544311523438 ], [ -100.271713256835994, 20.340709686279201 ], [ -100.282318115234006, 20.314529418945298 ], [ -100.31453704834, 20.2742385864257 ], [ -100.361236572265994, 20.2966499328613 ], [ -100.390312194824006, 20.359289169311499 ] ] ] } },
{ "type": "Feature", "properties": { "NAME_1": "Querétaro", "NAME_2": "Jalpan de Serra" }, "geometry": { "type": "Polygon", "coordinates": [ [ [ -99.375709533691307, 21.092090606689499 ], [ -99.387283325195298, 21.099250793457099 ], [ -99.385406494140597, 21.112300872802699 ], [ -99.400199890136705, 21.121639251708999 ], [ -99.418891906738295, 21.1126728057862 ], [ -99.429542541503906, 21.090219497680799 ], [ -99.471702575683594, 21.0672206878663 ], [ -99.478607177734304, 21.141780853271602 ], [ -99.491432189941406, 21.149520874023398 ], [ -99.5245361328125, 21.139560699462901 ], [ -99.549148559570298, 21.158668518066499 ], [ -99.550315856933594, 21.164840698242202 ], [ -99.520851135253906, 21.1825675964357 ], [ -99.517639160156193, 21.203840255737202 ], [ -99.506118774414105, 21.213720321655401 ], [ -99.523956298828097, 21.239480972290099 ], [ -99.499893188476506, 21.3099575042725 ], [ -99.476463317871094, 21.320552825927699 ], [ -99.474067687988295, 21.334949493408299 ], [ -99.480461120605497, 21.3413276672363 ], [ -99.517456054687401, 21.336610794067401 ], [ -99.532707214355398, 21.348430633544901 ], [ -99.578346252441406, 21.350959777831999 ], [ -99.584259033203097, 21.447959899902401 ], [ -99.495117187499901, 21.4416408538819 ], [ -99.461585998535199, 21.4550380706787 ], [ -99.417900085449205, 21.460100173950199 ], [ -99.394599914550696, 21.4468803405762 ], [ -99.3834228515625, 21.4575004577637 ], [ -99.344528198242102, 21.560359954833999 ], [ -99.329650878906193, 21.5641708374025 ], [ -99.298149108886705, 21.5549011230469 ], [ -99.274070739745994, 21.565401077270501 ], [ -99.271652221679702, 21.533250808715898 ], [ -99.251083374023395, 21.500869750976602 ], [ -99.25390625, 21.4691390991212 ], [ -99.224372863769503, 21.404090881347699 ], [ -99.232360839843807, 21.375980377197401 ], [ -99.253005981445298, 21.391031265258899 ], [ -99.261222839355497, 21.3885002136231 ], [ -99.259857177734304, 21.354230880737401 ], [ -99.268531799316307, 21.331830978393601 ], [ -99.306716918945298, 21.3077583312988 ], [ -99.322242736816406, 21.247150421142599 ], [ -99.372627258300795, 21.242479324340799 ], [ -99.370056152343807, 21.204980850219801 ], [ -99.354316711425795, 21.191291809081999 ], [ -99.3270263671875, 21.192720413208001 ], [ -99.316818237304702, 21.150619506836101 ], [ -99.329933166503807, 21.123109817504901 ], [ -99.362129211425795, 21.108739852905298 ], [ -99.375709533691307, 21.092090606689499 ] ] ] } },
{ "type": "Feature", "properties": { "NAME_1": "Querétaro", "NAME_2": "Landa de Matamoros" }, "geometry": { "type": "Polygon", "coordinates": [ [ [ -99.251083374023395, 21.500869750976602 ], [ -99.102630615234403, 21.349260330200298 ], [ -99.077919006347699, 21.303268432617202 ], [ -99.042266845703097, 21.2938117980956 ], [ -99.044799804687401, 21.2724094390869 ], [ -99.093528747558494, 21.17626953125 ], [ -99.117469787597599, 21.166521072387798 ], [ -99.159416198730398, 21.164600372314499 ], [ -99.212112426757798, 21.138431549072301 ], [ -99.257667541503807, 21.127780914306701 ], [ -99.300956726074205, 21.153049468994102 ], [ -99.316818237304702, 21.150619506836101 ], [ -99.3270263671875, 21.192720413208001 ], [ -99.354316711425795, 21.191291809081999 ], [ -99.367607116699205, 21.201099395752099 ], [ -99.374160766601605, 21.238580703735401 ], [ -99.322242736816406, 21.247150421142599 ], [ -99.306716918945298, 21.3077583312988 ], [ -99.268531799316307, 21.331830978393601 ], [ -99.259857177734304, 21.354230880737401 ], [ -99.261222839355497, 21.3885002136231 ], [ -99.230087280273395, 21.3791809082031 ], [ -99.224296569824105, 21.410709381103601 ], [ -99.25390625, 21.4691390991212 ], [ -99.251083374023395, 21.500869750976602 ] ] ] } },
{ "type": "Feature", "properties": { "NAME_1": "Querétaro", "NAME_2": "Pedro Escobedo" }, "geometry": { "type": "Polygon", "coordinates": [ [ [ -100.095520019530994, 20.5618209838868 ], [ -100.108680725097997, 20.535882949829201 ], [ -100.100746154785, 20.5045604705812 ], [ -100.134666442870994, 20.454669952392599 ], [ -100.168975830077997, 20.443710327148501 ], [ -100.25080871582, 20.3843498229982 ], [ -100.282279968262003, 20.387580871581999 ], [ -100.30428314209, 20.398868560791101 ], [ -100.306381225585994, 20.414649963378899 ], [ -100.290145874022997, 20.430099487304702 ], [ -100.28881072998, 20.441560745239201 ], [ -100.305130004882997, 20.447620391845799 ], [ -100.295486450195, 20.475141525268601 ], [ -100.301071166992003, 20.490198135375898 ], [ -100.278495788574006, 20.5201091766357 ], [ -100.252426147460994, 20.523960113525501 ], [ -100.218757629394005, 20.575210571289201 ], [ -100.203826904297003, 20.579891204833899 ], [ -100.158752441405994, 20.571718215942401 ], [ -100.120002746582003, 20.5813694000244 ], [ -100.095520019530994, 20.5618209838868 ] ] ] } },
{ "type": "Feature", "properties": { "NAME_1": "Querétaro", "NAME_2": "Peñamiller" }, "geometry": { "type": "Polygon", "coordinates": [ [ [ -99.738006591796804, 21.232299804687401 ], [ -99.732360839843807, 21.173759460449201 ], [ -99.712951660156193, 21.179359436035199 ], [ -99.704216003417997, 21.137119293212901 ], [ -99.683860778808494, 21.1372299194337 ], [ -99.691406249999901, 21.079339981079201 ], [ -99.715766906738295, 21.076000213623001 ], [ -99.701179504394503, 21.047500610351602 ], [ -99.678092956542997, 21.0258808135987 ], [ -99.699218749999901, 20.996940612792901 ], [ -99.723220825195298, 21.005050659179702 ], [ -99.750427246093693, 20.990028381347798 ], [ -99.761009216308494, 20.998430252075298 ], [ -99.757698059082003, 21.0071506500244 ], [ -99.770721435546804, 20.995399475097798 ], [ -99.791099548339801, 20.992771148681701 ], [ -99.826972961425795, 21.004430770874102 ], [ -99.8978271484375, 21.0416793823243 ], [ -99.909477233886705, 21.066970825195298 ], [ -99.925765991210895, 21.076450347900401 ], [ -99.968856811523395, 21.063079833984499 ], [ -100.037635803222997, 21.062740325927798 ], [ -100.066436767577997, 21.0378112792969 ], [ -100.082801818847997, 21.033460617065501 ], [ -100.090476989745994, 21.059310913085898 ], [ -100.086982727050994, 21.0767307281494 ], [ -100.055152893065994, 21.1142597198487 ], [ -100.016296386719006, 21.1859111785888 ], [ -99.997146606445298, 21.201980590820298 ], [ -99.935997009277301, 21.2228202819825 ], [ -99.876731872558594, 21.160699844360401 ], [ -99.835502624511705, 21.158798217773501 ], [ -99.819076538085895, 21.1690902709962 ], [ -99.807876586914105, 21.19734954834 ], [ -99.738006591796804, 21.232299804687401 ] ] ] } },
{ "type": "Feature", "properties": { "NAME_1": "Querétaro", "NAME_2": "Pinal de Amoles" }, "geometry": { "type": "Polygon", "coordinates": [ [ [ -99.738006591796804, 21.232299804687401 ], [ -99.717109680175795, 21.2723903656006 ], [ -99.712646484374901, 21.315071105957099 ], [ -99.694076538085795, 21.319959640503001 ], [ -99.680999755859304, 21.313190460205099 ], [ -99.634086608886705, 21.337200164795 ], [ -99.628829956054602, 21.316909790039102 ], [ -99.636070251464801, 21.266838073730501 ], [ -99.615837097167997, 21.256200790405298 ], [ -99.627510070800696, 21.231929779052798 ], [ -99.622566223144503, 21.182580947876001 ], [ -99.605117797851605, 21.1680297851562 ], [ -99.562080383300696, 21.178512573242099 ], [ -99.545478820800696, 21.153200149536101 ], [ -99.5245361328125, 21.139560699462901 ], [ -99.484260559082003, 21.147251129150401 ], [ -99.474937438964801, 21.136529922485401 ], [ -99.471702575683594, 21.0672206878663 ], [ -99.499786376953097, 21.038061141967901 ], [ -99.538482666015597, 21.038610458374102 ], [ -99.556213378906193, 21.0049018859863 ], [ -99.593650817870994, 21.0306205749512 ], [ -99.609397888183594, 21.0193405151368 ], [ -99.623687744140597, 21.029119491577099 ], [ -99.652091979980398, 21.018230438232401 ], [ -99.686225891113196, 21.030410766601602 ], [ -99.715766906738295, 21.076000213623001 ], [ -99.691406249999901, 21.079339981079201 ], [ -99.683860778808494, 21.1372299194337 ], [ -99.704216003417997, 21.137119293212901 ], [ -99.712951660156193, 21.179359436035199 ], [ -99.732360839843807, 21.173759460449201 ], [ -99.738006591796804, 21.232299804687401 ] ] ] } },
{ "type": "Feature", "properties": { "NAME_1": "Querétaro", "NAME_2": "Querétaro" }, "geometry": { "type": "Polygon", "coordinates": [ [ [ -100.332946777344006, 20.535709381103501 ], [ -100.36319732666, 20.535699844360401 ], [ -100.401496887207003, 20.519838333129901 ], [ -100.417236328125, 20.535030364990298 ], [ -100.435157775879006, 20.527330398559599 ], [ -100.443336486815994, 20.557889938354499 ], [ -100.478073120117003, 20.555070877075199 ], [ -100.513969421387003, 20.565670013427798 ], [ -100.515602111815994, 20.591129302978601 ], [ -100.539962768555, 20.650079727172901 ], [ -100.578407287597997, 20.6768112182618 ], [ -100.584129333495994, 20.7052307128907 ], [ -100.572273254395, 20.801959991455099 ], [ -100.553421020507997, 20.8595504760743 ], [ -100.529350280762003, 20.901029586791999 ], [ -100.457382202147997, 20.9150905609131 ], [ -100.430335998535, 20.902778625488299 ], [ -100.400787353515994, 20.916549682617202 ], [ -100.367088317870994, 20.912391662597798 ], [ -100.37565612793, 20.86501121521 ], [ -100.369827270507997, 20.851140975952301 ], [ -100.383026123047003, 20.847360610961999 ], [ -100.377822875977003, 20.8188800811768 ], [ -100.393013000487997, 20.787919998169102 ], [ -100.383552551269005, 20.762878417968899 ], [ -100.382400512695, 20.725219726562599 ], [ -100.334930419922003, 20.623489379882798 ], [ -100.374351501465, 20.595050811767599 ], [ -100.360870361327997, 20.5766410827638 ], [ -100.323356628417997, 20.583339691162099 ], [ -100.332946777344006, 20.535709381103501 ] ] ] } },
{ "type": "Feature", "properties": { "NAME_1": "Querétaro", "NAME_2": "San Joaquín" }, "geometry": { "type": "Polygon", "coordinates": [ [ [ -99.609397888183594, 21.0193405151368 ], [ -99.593650817870994, 21.0306205749512 ], [ -99.553726196289105, 21.005369186401399 ], [ -99.538482666015597, 21.038610458374102 ], [ -99.499786376953097, 21.038061141967901 ], [ -99.471702575683594, 21.0672206878663 ], [ -99.466369628906193, 21.031299591064499 ], [ -99.435997009277301, 20.9929103851318 ], [ -99.469161987304702, 20.975419998169102 ], [ -99.504638671875, 20.927680969238398 ], [ -99.57373046875, 20.8908004760743 ], [ -99.602577209472699, 20.909479141235401 ], [ -99.609642028808494, 20.922729492187599 ], [ -99.60791015625, 20.947700500488398 ], [ -99.624717712402301, 20.9540405273438 ], [ -99.617851257324205, 20.970319747924901 ], [ -99.619796752929702, 20.998701095581101 ], [ -99.609397888183594, 21.0193405151368 ] ] ] } },
{ "type": "Feature", "properties": { "NAME_1": "Querétaro", "NAME_2": "San Juan del Río" }, "geometry": { "type": "Polygon", "coordinates": [ [ [ -99.914077758789006, 20.241910934448399 ], [ -99.909866333007798, 20.2262706756593 ], [ -99.920280456542898, 20.217670440673899 ], [ -99.975227355957003, 20.243232727050799 ], [ -99.981178283691406, 20.2328395843506 ], [ -99.960906982421804, 20.1993618011475 ], [ -99.990356445312401, 20.195550918579102 ], [ -100.011672973632997, 20.204891204834102 ], [ -100.032028198242003, 20.202520370483398 ], [ -100.057960510254006, 20.222391128540199 ], [ -100.083267211914006, 20.2204494476318 ], [ -100.095092773437003, 20.271089553833001 ], [ -100.087020874022997, 20.291540145874102 ], [ -100.110321044922003, 20.3283290863038 ], [ -100.158302307129006, 20.348030090332099 ], [ -100.224830627440994, 20.342372894287202 ], [ -100.257263183594006, 20.383390426635799 ], [ -100.200469970702997, 20.416040420532202 ], [ -100.168975830077997, 20.443710327148501 ], [ -100.134666442870994, 20.454669952392599 ], [ -100.100746154785, 20.5045604705812 ], [ -100.108680725097997, 20.535882949829201 ], [ -100.100318908690994, 20.557439804077099 ], [ -100.061767578125, 20.566890716552798 ], [ -100.034690856934006, 20.540250778198399 ], [ -100.016456604004006, 20.496120452881001 ], [ -99.972557067871094, 20.4904308319093 ], [ -99.885566711425696, 20.443870544433601 ], [ -99.846015930175795, 20.437709808349702 ], [ -99.856903076171903, 20.317390441894499 ], [ -99.915176391601605, 20.2670497894288 ], [ -99.914077758789006, 20.241910934448399 ] ] ] } },
{ "type": "Feature", "properties": { "NAME_1": "Querétaro", "NAME_2": "Tequisquiapan" }, "geometry": { "type": "Polygon", "coordinates": [ [ [ -99.839530944824205, 20.4732894897462 ], [ -99.846015930175795, 20.437709808349702 ], [ -99.875671386718807, 20.4397907257081 ], [ -99.963661193847599, 20.487270355224702 ], [ -100.016456604004006, 20.496120452881001 ], [ -100.034690856934006, 20.540250778198399 ], [ -100.053596496582003, 20.563270568847699 ], [ -100.068946838379006, 20.5682106018068 ], [ -100.095520019530994, 20.5618209838868 ], [ -100.120002746582003, 20.5813694000244 ], [ -100.103507995605, 20.589950561523398 ], [ -100.040077209472997, 20.660520553588899 ], [ -99.988830566406193, 20.6750926971437 ], [ -99.964767456054702, 20.6722812652588 ], [ -99.951377868652202, 20.644180297851602 ], [ -99.917182922363295, 20.610010147094702 ], [ -99.886749267578097, 20.599411010742301 ], [ -99.864807128906193, 20.609621047973601 ], [ -99.845306396484304, 20.5962028503419 ], [ -99.838043212890597, 20.604261398315501 ], [ -99.829643249511705, 20.6013202667237 ], [ -99.828010559082003, 20.588260650634901 ], [ -99.838287353515597, 20.577430725097699 ], [ -99.820602416992102, 20.554332733154201 ], [ -99.839530944824205, 20.4732894897462 ] ] ] } },
{ "type": "Feature", "properties": { "NAME_1": "Querétaro", "NAME_2": "Tolimán" }, "geometry": { "type": "Polygon", "coordinates": [ [ [ -99.972633361816307, 20.761089324951101 ], [ -99.990119934082003, 20.7742500305175 ], [ -99.994606018066406, 20.824800491333001 ], [ -100.020027160644005, 20.838790893554801 ], [ -100.054946899414006, 20.8973102569581 ], [ -100.058219909667997, 20.9176425933837 ], [ -100.06958770752, 20.922798156738299 ], [ -100.078048706055, 20.895969390869102 ], [ -100.114990234375, 20.9253826141357 ], [ -100.152900695800994, 20.9361305236818 ], [ -100.151435852050994, 20.9735317230225 ], [ -100.142242431640994, 20.980079650878999 ], [ -100.109466552734006, 20.9621181488038 ], [ -100.082801818847997, 21.033460617065501 ], [ -100.066436767577997, 21.0378112792969 ], [ -100.037635803222997, 21.062740325927798 ], [ -99.968856811523395, 21.063079833984499 ], [ -99.925765991210895, 21.076450347900401 ], [ -99.909477233886705, 21.066970825195298 ], [ -99.8978271484375, 21.0416793823243 ], [ -99.791099548339801, 20.992771148681701 ], [ -99.803565979003906, 20.963859558105501 ], [ -99.820587158203097, 20.9498004913331 ], [ -99.809837341308494, 20.9068412780762 ], [ -99.821327209472699, 20.851600646972599 ], [ -99.801033020019503, 20.8448505401612 ], [ -99.774826049804602, 20.8101902008057 ], [ -99.806526184082003, 20.791231155395501 ], [ -99.830856323242202, 20.815820693969702 ], [ -99.843307495117102, 20.786890029907301 ], [ -99.876106262207003, 20.781431198120199 ], [ -99.897117614746094, 20.766412734985401 ], [ -99.972633361816307, 20.761089324951101 ] ] ] } }
]
}
