{
"type": "FeatureCollection",
"name": "quintana-roo",
"crs": { "type": "name", "properties": { "name": "urn:ogc:def:crs:OGC:1.3:CRS84" } },
"features": [
{ "type": "Feature", "properties": { "NAME_1": "Quintana Roo", "NAME_2": "Benito Juárez" }, "geometry": { "type": "Polygon", "coordinates": [ [ [ -86.780693054199205, 21.052639007568398 ], [ -86.779029846191307, 21.031806945800898 ], [ -86.800140380859403, 21.035417556762798 ], [ -86.812637329101605, 21.024026870727699 ], [ -86.840415954589801, 20.9264316558838 ], [ -87.060928344726506, 20.959590911865298 ], [ -87.062896728515597, 21.071577072143601 ], [ -87.032859802246094, 21.07230758667 ], [ -87.036872863769503, 21.161979675293001 ], [ -86.799858093261705, 21.1585292816163 ], [ -86.786804199218807, 21.1443061828613 ], [ -86.740417480468594, 21.138471603393601 ], [ -86.761528015136705, 21.107082366943299 ], [ -86.780693054199205, 21.052639007568398 ] ] ] } },
{ "type": "Feature", "properties": { "NAME_1": "Quintana Roo", "NAME_2": "Cozumel" }, "geometry": { "type": "GeometryCollection", "geometries": [ { "type": "Polygon", "coordinates": [ [ [ -87.535110473632699, 19.804582595825298 ], [ -87.538299560546903, 19.897621154785199 ], [ -87.510032653808494, 19.950218200683601 ], [ -87.545722961425795, 20.0246810913087 ], [ -87.535392761230398, 20.036260604858501 ], [ -87.562538146972699, 20.033670425415099 ], [ -87.571189880371094, 20.038431167602599 ], [ -87.571342468261705, 20.050380706787202 ], [ -87.580062866210895, 20.049810409546001 ], [ -87.568367004394503, 20.129381179809599 ], [ -87.580459594726605, 20.220930099487401 ], [ -87.6077880859375, 20.236219406128001 ], [ -87.821220397949205, 20.206010818481399 ], [ -87.886268615722699, 20.211910247802798 ], [ -87.948272705078097, 20.286170959472699 ], [ -87.972702026367202, 20.2947311401368 ], [ -87.973838806152301, 20.3107109069825 ], [ -87.952316284179602, 20.3460083007812 ], [ -87.953903198242202, 20.359460830688501 ], [ -87.983695983886705, 20.414680480956999 ], [ -88.018791198730398, 20.434921264648501 ], [ -87.998092651367102, 20.4376316070557 ], [ -87.915840148925795, 20.478549957275401 ], [ -87.776329040527301, 20.579719543457099 ], [ -87.748992919921804, 20.608089447021602 ], [ -87.690086364745994, 20.630609512329102 ], [ -87.646110534667898, 20.683000564575298 ], [ -87.631698608398395, 20.678939819336101 ], [ -87.612167358398295, 20.658929824829201 ], [ -87.586830139160199, 20.665941238403398 ], [ -87.563941955566406, 20.684352874755898 ], [ -87.552436828613196, 20.675251007080199 ], [ -87.554176330566307, 20.6585502624512 ], [ -87.5377197265625, 20.653070449829201 ], [ -87.517517089843807, 20.681690216064599 ], [ -87.490097045898295, 20.668060302734499 ], [ -87.238990783691307, 20.685400009155401 ], [ -87.110099792480497, 20.8248100280762 ], [ -86.934570312499901, 20.787984848022599 ], [ -86.964584350585895, 20.747083663940401 ], [ -86.962638854980497, 20.729858398437599 ], [ -87.014305114745994, 20.698472976684702 ], [ -87.021530151367102, 20.6743049621581 ], [ -87.101524353027301, 20.589860916137798 ], [ -87.245414733886705, 20.486804962158299 ], [ -87.283470153808594, 20.445138931274499 ], [ -87.354309082031193, 20.329027175903299 ], [ -87.363471984863295, 20.293750762939599 ], [ -87.374862670898395, 20.290695190429702 ], [ -87.367919921874901, 20.285972595214901 ], [ -87.378471374511705, 20.284305572509801 ], [ -87.381805419921903, 20.267084121704102 ], [ -87.389305114746094, 20.2679157257081 ], [ -87.423194885253906, 20.226528167724599 ], [ -87.473747253417997, 20.10013961792 ], [ -87.481803894042898, 20.0076408386232 ], [ -87.472358703613196, 19.992639541626001 ], [ -87.464027404785099, 19.9940280914307 ], [ -87.464584350585895, 19.9559726715088 ], [ -87.450416564941307, 19.930139541626001 ], [ -87.436248779296903, 19.9281940460206 ], [ -87.432083129882798, 19.908472061157202 ], [ -87.429862976074205, 19.884860992431602 ], [ -87.447639465332003, 19.839582443237401 ], [ -87.474029541015597, 19.816526412963899 ], [ -87.476524353027301, 19.8012504577637 ], [ -87.468193054199205, 19.7831935882569 ], [ -87.479309082031193, 19.7784729003907 ], [ -87.475135803222699, 19.783750534057699 ], [ -87.486526489257798, 19.787082672119201 ], [ -87.487083435058594, 19.8012504577637 ], [ -87.474586486816406, 19.821527481079102 ], [ -87.476524353027301, 19.830417633056701 ], [ -87.452362060546903, 19.837083816528398 ], [ -87.439025878906193, 19.865972518921001 ], [ -87.438194274902301, 19.887638092041101 ], [ -87.430969238281094, 19.887083053588899 ], [ -87.435142517089801, 19.9145832061768 ], [ -87.439857482910199, 19.910694122314499 ], [ -87.457916259765597, 19.923749923706101 ], [ -87.457359313964801, 19.937360763549702 ], [ -87.471252441406193, 19.943750381469702 ], [ -87.457359313964801, 19.9173603057862 ], [ -87.467086791992102, 19.871805191040199 ], [ -87.458473205566406, 19.873193740844702 ], [ -87.459587097167997, 19.884025573730501 ], [ -87.447364807128807, 19.8898601531982 ], [ -87.458473205566406, 19.8801383972168 ], [ -87.454864501953097, 19.874860763549801 ], [ -87.458747863769503, 19.858472824096701 ], [ -87.474304199218807, 19.855972290039102 ], [ -87.496528625488295, 19.807361602783299 ], [ -87.514862060546804, 19.798749923706101 ], [ -87.525413513183594, 19.798194885253899 ], [ -87.503196716308594, 19.810693740844801 ], [ -87.520141601562401, 19.80930519104 ], [ -87.528747558593807, 19.7976379394531 ], [ -87.525138854980497, 19.797082901001001 ], [ -87.525413513183594, 19.795415878296001 ], [ -87.538192749023395, 19.797082901001001 ], [ -87.526252746582003, 19.8068046569825 ], [ -87.535110473632699, 19.804582595825298 ] ] ] }, { "type": "Polygon", "coordinates": [ [ [ -86.942916870117202, 20.523750305175799 ], [ -86.927360534667997, 20.5512504577638 ], [ -86.897636413574205, 20.5659713745118 ], [ -86.882637023925795, 20.559583663940401 ], [ -86.880691528320298, 20.545694351196399 ], [ -86.868469238281193, 20.537361145019599 ], [ -86.857917785644503, 20.5431938171387 ], [ -86.868194580078097, 20.549861907958999 ], [ -86.8326416015625, 20.5512504577638 ], [ -86.844863891601605, 20.5431938171387 ], [ -86.836524963378807, 20.539304733276499 ], [ -86.815971374511705, 20.549861907958999 ], [ -86.813751220702997, 20.5437526702881 ], [ -86.814857482910199, 20.550971984863398 ], [ -86.830970764160199, 20.550138473510899 ], [ -86.823196411132699, 20.554582595825298 ], [ -86.778747558593693, 20.5631942749025 ], [ -86.785697937011705, 20.556251525878999 ], [ -86.775138854980497, 20.5540275573731 ], [ -86.774864196777301, 20.565139770507798 ], [ -86.768470764160199, 20.560972213745199 ], [ -86.769027709960795, 20.568748474121101 ], [ -86.752639770507798, 20.5765285491943 ], [ -86.762916564941307, 20.5668048858643 ], [ -86.758750915527301, 20.564306259155199 ], [ -86.731246948242102, 20.5912494659425 ], [ -86.722640991210895, 20.589582443237401 ], [ -86.737358093261705, 20.552637100219702 ], [ -86.794586181640497, 20.462917327881001 ], [ -86.818473815917997, 20.437915802001999 ], [ -86.832359313964801, 20.435970306396499 ], [ -86.898193359375, 20.344305038452202 ], [ -86.905693054199205, 20.345972061157301 ], [ -86.932357788085895, 20.3120841979982 ], [ -86.989028930664006, 20.271526336669901 ], [ -87.002639770507798, 20.297361373901399 ], [ -87.016807556152301, 20.2995834350587 ], [ -87.009864807128906, 20.315416336059599 ], [ -87.024581909179602, 20.3556938171387 ], [ -87.021804809570298, 20.3909721374512 ], [ -87.005691528320298, 20.432916641235401 ], [ -86.942916870117202, 20.523750305175799 ] ] ] }, { "type": "Polygon", "coordinates": [ [ [ -87.482917785644503, 19.814861297607401 ], [ -87.484580993652301, 19.811527252197301 ], [ -87.486251831054602, 19.812082290649499 ], [ -87.485694885253807, 19.814027786255 ], [ -87.482917785644503, 19.814861297607401 ] ] ] } ] } },
{ "type": "Feature", "properties": { "NAME_1": "Quintana Roo", "NAME_2": "Felipe Carrillo" }, "geometry": { "type": "Polygon", "coordinates": [ [ [ -87.517364501953097, 19.370693206787099 ], [ -87.503196716308594, 19.363193511962798 ], [ -87.478469848632798, 19.335695266723601 ], [ -87.513748168945199, 19.355138778686602 ], [ -87.517364501953097, 19.370693206787099 ] ] ] } },
{ "type": "Feature", "properties": { "NAME_1": "Quintana Roo", "NAME_2": "Felipe Carrillo Puerto" }, "geometry": { "type": "GeometryCollection", "geometries": [ { "type": "Polygon", "coordinates": [ [ [ -87.472640991210895, 19.444583892822401 ], [ -87.496803283691406, 19.432361602783299 ], [ -87.530136108398395, 19.392915725708001 ], [ -87.555137634277202, 19.3909721374512 ], [ -87.573471069335895, 19.396804809570401 ], [ -87.542083740234403, 19.398193359374901 ], [ -87.538192749023395, 19.4131965637207 ], [ -87.548751831054602, 19.420139312744201 ], [ -87.538475036621094, 19.426803588867099 ], [ -87.538475036621094, 19.427917480468899 ], [ -87.595695495605497, 19.403194427490298 ], [ -87.636253356933594, 19.372917175293001 ], [ -87.656524658203097, 19.302360534668001 ], [ -87.684028625488295, 19.315694808960099 ], [ -87.670974731445298, 19.303192138671999 ], [ -87.681526184082003, 19.295139312744102 ], [ -87.670417785644503, 19.298194885253999 ], [ -87.659584045410199, 19.2868061065675 ], [ -87.660697937011705, 19.2623615264893 ], [ -87.686531066894503, 19.231250762939499 ], [ -87.696525573730497, 19.230138778686499 ], [ -87.706802368164105, 19.226806640625099 ], [ -87.673751831054602, 19.228195190429801 ], [ -87.675697326660199, 19.221250534057699 ], [ -87.685417175292997, 19.221805572509901 ], [ -87.677085876464801, 19.218194961547798 ], [ -87.682083129882798, 19.2079162597657 ], [ -87.674026489257798, 19.206249237060501 ], [ -87.677917480468807, 19.199306488037202 ], [ -87.670135498046804, 19.198474884033299 ], [ -87.670692443847599, 19.187360763549901 ], [ -87.657913208007798, 19.190416336059599 ], [ -87.653472900390597, 19.180416107177798 ], [ -87.652359008789105, 19.199583053588999 ], [ -87.635414123535099, 19.208471298217798 ], [ -87.621246337890597, 19.199583053588999 ], [ -87.607360839843807, 19.229860305786101 ], [ -87.589584350585895, 19.2359714508057 ], [ -87.592636108398395, 19.241527557373001 ], [ -87.578475952148395, 19.2559719085694 ], [ -87.583473205566406, 19.2623615264893 ], [ -87.570419311523395, 19.2643032073975 ], [ -87.567085266113295, 19.275417327881001 ], [ -87.586807250976605, 19.2640285491944 ], [ -87.599861145019503, 19.242082595825199 ], [ -87.602081298828097, 19.247638702392599 ], [ -87.609863281249901, 19.240139007568501 ], [ -87.612083435058594, 19.240417480468899 ], [ -87.546249389648395, 19.303192138671999 ], [ -87.520973205566307, 19.305973052978501 ], [ -87.506805419921903, 19.3218078613282 ], [ -87.489028930664006, 19.3256950378419 ], [ -87.4959716796875, 19.302639007568398 ], [ -87.492919921875, 19.295417785644499 ], [ -87.511253356933494, 19.274860382080199 ], [ -87.514305114745994, 19.259027481079102 ], [ -87.511253356933494, 19.255695343017599 ], [ -87.483474731445298, 19.302082061767599 ], [ -87.492362976074205, 19.303192138671999 ], [ -87.475135803222699, 19.3065280914307 ], [ -87.476249694824205, 19.319860458374102 ], [ -87.470970153808594, 19.313472747802699 ], [ -87.475135803222699, 19.322639465332099 ], [ -87.480972290039105, 19.319585800170898 ], [ -87.482360839843693, 19.324306488037099 ], [ -87.46875, 19.324306488037099 ], [ -87.46875, 19.313749313354499 ], [ -87.476249694824205, 19.3029174804688 ], [ -87.457641601562401, 19.312360763549801 ], [ -87.466529846191307, 19.325416564941499 ], [ -87.445419311523395, 19.312360763549801 ], [ -87.514305114745994, 19.235416412353501 ], [ -87.527359008789006, 19.229305267333899 ], [ -87.536529541015597, 19.211250305175898 ], [ -87.540969848632798, 19.154027938842798 ], [ -87.549026489257798, 19.144306182861399 ], [ -87.549026489257798, 19.085971832275401 ], [ -87.587837219238196, 19.021669387817401 ], [ -87.643173217773395, 19.039821624755898 ], [ -87.6505126953125, 19.083879470825298 ], [ -87.658546447753906, 19.086500167846701 ], [ -87.675071716308594, 19.0854606628419 ], [ -87.712806701660199, 19.056749343872099 ], [ -87.733230590820298, 19.067140579223601 ], [ -87.843292236328097, 19.037639617919901 ], [ -87.868949890136705, 19.006820678710898 ], [ -87.906288146972699, 19.0119304656982 ], [ -87.917182922363295, 19.055530548095799 ], [ -87.947090148925696, 19.0683498382569 ], [ -87.996818542480497, 19.0788898468018 ], [ -88.046676635742202, 19.0524101257325 ], [ -88.047653198242202, 19.0978298187256 ], [ -88.099197387695298, 19.073249816894499 ], [ -88.145927429199205, 19.107919692993299 ], [ -88.161300659179702, 19.106082916259702 ], [ -88.156570434570298, 19.094841003418001 ], [ -88.184837341308494, 19.072530746460099 ], [ -88.210380554199205, 19.083421707153398 ], [ -88.214492797851506, 19.091739654541101 ], [ -88.207893371582003, 19.094770431518601 ], [ -88.231147766113295, 19.110580444335898 ], [ -88.297225952148395, 19.086490631103501 ], [ -88.348365783691406, 19.085821151733501 ], [ -88.379631042480497, 19.105920791626001 ], [ -88.414115905761605, 19.1161308288575 ], [ -88.494911193847699, 19.174331665039102 ], [ -88.589866638183494, 19.2765998840331 ], [ -88.628059387207003, 19.273681640625 ], [ -88.703826904296804, 19.294639587402301 ], [ -88.706657409667997, 19.347812652587901 ], [ -88.694137573242202, 19.5111808776857 ], [ -88.673858642578097, 19.521869659423899 ], [ -88.611656188964801, 19.520360946655401 ], [ -88.594032287597699, 19.593570709228601 ], [ -88.615081787109403, 19.619871139526399 ], [ -88.612350463867102, 19.628110885620199 ], [ -88.558387756347599, 19.673831939697301 ], [ -88.501281738281094, 19.6724529266357 ], [ -88.464431762695298, 19.727441787719801 ], [ -88.427513122558594, 19.75465965271 ], [ -88.491798400878906, 19.860572814941399 ], [ -88.502258300781193, 19.939990997314499 ], [ -88.466529846191307, 20.174030303955099 ], [ -88.412849426269503, 20.200559616088999 ], [ -88.381889343261705, 20.285219192504901 ], [ -88.363937377929602, 20.3113708496094 ], [ -88.340637207031193, 20.3196105957032 ], [ -88.313308715820199, 20.316440582275501 ], [ -88.298126220703097, 20.304950714111399 ], [ -88.276168823242202, 20.2529296875 ], [ -88.261962890625, 20.254810333251999 ], [ -88.260200500488295, 20.310768127441499 ], [ -88.270149230957003, 20.350151062011701 ], [ -88.212158203125, 20.441560745239201 ], [ -88.165138244628906, 20.462560653686602 ], [ -88.147987365722699, 20.456300735473601 ], [ -88.120010375976605, 20.424829483032202 ], [ -88.058502197265597, 20.441400527954102 ], [ -88.018791198730398, 20.434921264648501 ], [ -87.983695983886705, 20.414680480956999 ], [ -87.952186584472699, 20.352939605712901 ], [ -87.973838806152301, 20.3107109069825 ], [ -87.972702026367202, 20.2947311401368 ], [ -87.948272705078097, 20.286170959472699 ], [ -87.886268615722699, 20.211910247802798 ], [ -87.835662841796903, 20.204931259155401 ], [ -87.616043090820298, 20.235860824584901 ], [ -87.588508605957003, 20.2294311523438 ], [ -87.577186584472699, 20.2145900726319 ], [ -87.568916320800795, 20.1485900878906 ], [ -87.580062866210895, 20.049810409546001 ], [ -87.571342468261705, 20.050380706787202 ], [ -87.571189880371094, 20.038431167602599 ], [ -87.562538146972699, 20.033670425415099 ], [ -87.535392761230398, 20.036260604858501 ], [ -87.545722961425795, 20.0246810913087 ], [ -87.510032653808494, 19.950218200683601 ], [ -87.538299560546903, 19.897621154785199 ], [ -87.534164428710895, 19.809583663940401 ], [ -87.542358398437401, 19.804029464721602 ], [ -87.537086486816307, 19.810972213745199 ], [ -87.545135498046903, 19.810693740844801 ], [ -87.543472290039006, 19.7959728240968 ], [ -87.556251525878807, 19.807916641235501 ], [ -87.579307556152301, 19.7895832061769 ], [ -87.643196105957003, 19.687360763549801 ], [ -87.650970458984304, 19.654027938842798 ], [ -87.667083740234304, 19.615417480468899 ], [ -87.677635192871094, 19.6148605346681 ], [ -87.684303283691406, 19.621528625488398 ], [ -87.680419921874901, 19.620416641235501 ], [ -87.676528930664006, 19.621528625488398 ], [ -87.689308166503807, 19.626804351806602 ], [ -87.67236328125, 19.625415802002099 ], [ -87.679306030273295, 19.629306793212901 ], [ -87.660972595214801, 19.6345825195312 ], [ -87.665695190429702, 19.637638092041101 ], [ -87.665969848632798, 19.638750076294102 ], [ -87.6593017578125, 19.638471603393501 ], [ -87.650138854980497, 19.688749313354499 ], [ -87.655975341796903, 19.681249618530298 ], [ -87.697639465332003, 19.680139541626101 ], [ -87.733474731445199, 19.6634712219238 ], [ -87.739585876464801, 19.672082901001101 ], [ -87.740135192870994, 19.621250152588001 ], [ -87.748191833496094, 19.600139617919901 ], [ -87.739585876464801, 19.5868034362793 ], [ -87.723747253417898, 19.587638854980501 ], [ -87.732917785644503, 19.583194732666101 ], [ -87.727912902832003, 19.5768051147462 ], [ -87.7076416015625, 19.573474884033299 ], [ -87.713470458984403, 19.5604152679444 ], [ -87.700973510742202, 19.550418853759801 ], [ -87.680419921874901, 19.559585571289102 ], [ -87.680419921874901, 19.5531940460206 ], [ -87.676803588867102, 19.551528930664201 ], [ -87.6754150390625, 19.564029693603601 ], [ -87.682640075683494, 19.5668048858644 ], [ -87.691253662109403, 19.5620841979982 ], [ -87.691802978515497, 19.5629177093507 ], [ -87.688194274902301, 19.567083358764801 ], [ -87.676528930664006, 19.569026947021499 ], [ -87.667083740234304, 19.5493068695069 ], [ -87.669860839843693, 19.538194656372202 ], [ -87.687080383300795, 19.53125 ], [ -87.672080993652301, 19.533750534057699 ], [ -87.663192749023295, 19.5215282440187 ], [ -87.672637939453097, 19.518474578857401 ], [ -87.664024353027301, 19.512083053588899 ], [ -87.670974731445298, 19.509025573730501 ], [ -87.683471679687401, 19.4923610687257 ], [ -87.680969238281193, 19.491249084472798 ], [ -87.669303894042997, 19.506250381469702 ], [ -87.671249389648395, 19.495136260986399 ], [ -87.665969848632798, 19.5034713745118 ], [ -87.650970458984304, 19.5048637390138 ], [ -87.632637023925696, 19.5387496948243 ], [ -87.614585876464801, 19.5531940460206 ], [ -87.5504150390625, 19.566249847412202 ], [ -87.543472290039006, 19.560972213745199 ], [ -87.550140380859403, 19.55597114563 ], [ -87.531806945800795, 19.561525344848601 ], [ -87.5343017578125, 19.546249389648398 ], [ -87.513191223144503, 19.542638778686602 ], [ -87.509582519531193, 19.5481967926025 ], [ -87.523750305175696, 19.5484714508057 ], [ -87.51513671875, 19.563194274902301 ], [ -87.505416870117102, 19.559585571289102 ], [ -87.507080078125, 19.568195343017699 ], [ -87.488471984863196, 19.5765285491943 ], [ -87.498191833495994, 19.573749542236399 ], [ -87.502914428710895, 19.587085723877099 ], [ -87.514030456542898, 19.5865268707275 ], [ -87.520690917968693, 19.5948600769044 ], [ -87.496803283691406, 19.586250305175898 ], [ -87.460136413574205, 19.593194961547901 ], [ -87.458747863769503, 19.598192214965799 ], [ -87.442359924316406, 19.593194961547901 ], [ -87.452362060546903, 19.597639083862401 ], [ -87.452079772949205, 19.602079391479499 ], [ -87.427360534667997, 19.582639694213899 ], [ -87.422363281249901, 19.598192214965799 ], [ -87.431808471679602, 19.618473052978601 ], [ -87.453750610351506, 19.615972518920799 ], [ -87.455139160156193, 19.6009731292725 ], [ -87.462364196777301, 19.6073608398438 ], [ -87.456253051757798, 19.6156959533693 ], [ -87.445419311523395, 19.622360229492202 ], [ -87.455696105957003, 19.6345825195312 ], [ -87.453475952148295, 19.6481952667237 ], [ -87.447914123535099, 19.631528854370199 ], [ -87.425415039062401, 19.615972518920799 ], [ -87.410140991210895, 19.592082977294901 ], [ -87.439857482910199, 19.469306945800898 ], [ -87.472640991210895, 19.444583892822401 ] ] ] }, { "type": "Polygon", "coordinates": [ [ [ -87.535324096679702, 19.803472518920898 ], [ -87.535697937011705, 19.804029464721602 ], [ -87.535110473632699, 19.804582595825298 ], [ -87.535324096679702, 19.803472518920898 ] ] ] }, { "type": "Polygon", "coordinates": [ [ [ -87.538192749023395, 19.7973937988282 ], [ -87.540138244628807, 19.799303054809702 ], [ -87.540138244628807, 19.8004169464112 ], [ -87.536247253417898, 19.7995834350587 ], [ -87.538192749023395, 19.7973937988282 ] ] ] }, { "type": "Polygon", "coordinates": [ [ [ -87.504859924316307, 19.711250305175799 ], [ -87.471252441406193, 19.704027175903299 ], [ -87.457641601562401, 19.691249847412202 ], [ -87.478195190429702, 19.704027175903299 ], [ -87.504859924316307, 19.711250305175799 ] ] ] }, { "type": "Polygon", "coordinates": [ [ [ -87.657638549804602, 19.668472290038999 ], [ -87.656524658203097, 19.668472290038999 ], [ -87.656524658203097, 19.664861679077099 ], [ -87.659027099609403, 19.6656932830812 ], [ -87.657638549804602, 19.668472290038999 ] ] ] }, { "type": "Polygon", "coordinates": [ [ [ -87.709587097167997, 19.649860382080199 ], [ -87.705696105957003, 19.649583816528398 ], [ -87.703750610351605, 19.6462497711182 ], [ -87.712638854980497, 19.647638320922901 ], [ -87.709587097167997, 19.649860382080199 ] ] ] }, { "type": "Polygon", "coordinates": [ [ [ -87.518196105957003, 19.6290283203125 ], [ -87.515419006347699, 19.627361297607401 ], [ -87.520416259765597, 19.622360229492202 ], [ -87.520690917968693, 19.625415802002099 ], [ -87.518196105957003, 19.6290283203125 ] ] ] }, { "type": "Polygon", "coordinates": [ [ [ -87.522918701171903, 19.613471984863299 ], [ -87.517913818359304, 19.6109714508057 ], [ -87.5234756469725, 19.604305267333999 ], [ -87.521804809570298, 19.607084274291999 ], [ -87.522918701171903, 19.613471984863299 ] ] ] }, { "type": "Polygon", "coordinates": [ [ [ -87.466247558593693, 19.611803054809599 ], [ -87.464859008789105, 19.6129169464112 ], [ -87.463470458984304, 19.6054172515869 ], [ -87.466247558593693, 19.607084274291999 ], [ -87.466247558593693, 19.611803054809599 ] ] ] }, { "type": "Polygon", "coordinates": [ [ [ -87.493751525878906, 19.610416412353501 ], [ -87.493469238281193, 19.606805801391701 ], [ -87.4959716796875, 19.606805801391701 ], [ -87.4959716796875, 19.6093063354493 ], [ -87.493751525878906, 19.610416412353501 ] ] ] }, { "type": "Polygon", "coordinates": [ [ [ -87.490974426269503, 19.604860305786101 ], [ -87.478752136230398, 19.603195190429801 ], [ -87.478752136230398, 19.600139617919901 ], [ -87.492362976074205, 19.6006965637207 ], [ -87.490974426269503, 19.604860305786101 ] ] ] }, { "type": "Polygon", "coordinates": [ [ [ -87.477363586425795, 19.603195190429801 ], [ -87.476249694824205, 19.602636337280298 ], [ -87.476806640624901, 19.598749160766602 ], [ -87.477638244628906, 19.599582672119102 ], [ -87.477363586425795, 19.603195190429801 ] ] ] }, { "type": "Polygon", "coordinates": [ [ [ -87.464584350585895, 19.602918624878001 ], [ -87.462913513183494, 19.6006965637207 ], [ -87.461807250976605, 19.594028472900401 ], [ -87.469863891601506, 19.6006965637207 ], [ -87.464584350585895, 19.602918624878001 ] ] ] }, { "type": "Polygon", "coordinates": [ [ [ -87.491249084472699, 19.598472595214801 ], [ -87.491249084472699, 19.5956935882569 ], [ -87.494026184082003, 19.595138549804702 ], [ -87.493469238281193, 19.597639083862401 ], [ -87.491249084472699, 19.598472595214801 ] ] ] }, { "type": "Polygon", "coordinates": [ [ [ -87.432640075683594, 19.594305038452202 ], [ -87.430694580078097, 19.593194961547901 ], [ -87.430969238281094, 19.591529846191499 ], [ -87.435142517089801, 19.594028472900401 ], [ -87.432640075683594, 19.594305038452202 ] ] ] }, { "type": "Polygon", "coordinates": [ [ [ -87.541809082031193, 19.594028472900401 ], [ -87.525970458984403, 19.592639923095799 ], [ -87.521804809570298, 19.589582443237401 ], [ -87.550140380859403, 19.5881958007812 ], [ -87.541809082031193, 19.594028472900401 ] ] ] }, { "type": "Polygon", "coordinates": [ [ [ -87.702079772949205, 19.592361450195298 ], [ -87.693748474121094, 19.588750839233398 ], [ -87.688751220702997, 19.587915420532301 ], [ -87.704864501952997, 19.589860916137798 ], [ -87.702079772949205, 19.592361450195298 ] ] ] }, { "type": "Polygon", "coordinates": [ [ [ -87.429580688476605, 19.590694427490298 ], [ -87.427360534667997, 19.588472366333001 ], [ -87.430419921875, 19.5865268707275 ], [ -87.431808471679602, 19.588750839233398 ], [ -87.429580688476605, 19.590694427490298 ] ] ] }, { "type": "Polygon", "coordinates": [ [ [ -87.6370849609375, 19.589307785034201 ], [ -87.635696411132798, 19.588472366333001 ], [ -87.639030456542898, 19.587360382080099 ], [ -87.639030456542898, 19.5881958007812 ], [ -87.6370849609375, 19.589307785034201 ] ] ] }, { "type": "Polygon", "coordinates": [ [ [ -87.507919311523395, 19.581527709960898 ], [ -87.502082824707003, 19.580694198608398 ], [ -87.500137329101605, 19.574861526489201 ], [ -87.508193969726506, 19.575696945190501 ], [ -87.507919311523395, 19.581527709960898 ] ] ] }, { "type": "Polygon", "coordinates": [ [ [ -87.469863891601506, 19.334306716919102 ], [ -87.465415954589801, 19.332639694213899 ], [ -87.464859008789105, 19.3265285491944 ], [ -87.466804504394503, 19.332639694213899 ], [ -87.469863891601506, 19.334306716919102 ] ] ] }, { "type": "Polygon", "coordinates": [ [ [ -87.669029235839801, 19.3012504577637 ], [ -87.668746948242202, 19.302360534668001 ], [ -87.661247253417898, 19.3001384735107 ], [ -87.666252136230497, 19.297082901001001 ], [ -87.669029235839801, 19.3012504577637 ] ] ] }, { "type": "Polygon", "coordinates": [ [ [ -87.671524047851605, 19.234861373901499 ], [ -87.672920227050696, 19.2315273284913 ], [ -87.677360534667997, 19.233749389648601 ], [ -87.676246643066307, 19.235416412353501 ], [ -87.671524047851605, 19.234861373901499 ] ] ] }, { "type": "Polygon", "coordinates": [ [ [ -87.617637634277301, 19.233749389648601 ], [ -87.617080688476605, 19.232639312744201 ], [ -87.620140075683594, 19.230138778686499 ], [ -87.618469238281193, 19.2331943511963 ], [ -87.617637634277301, 19.233749389648601 ] ] ] }, { "type": "Polygon", "coordinates": [ [ [ -87.621528625488295, 19.229028701782301 ], [ -87.625137329101406, 19.2256965637207 ], [ -87.626525878906193, 19.2256965637207 ], [ -87.620414733886705, 19.230138778686499 ], [ -87.621528625488295, 19.229028701782301 ] ] ] }, { "type": "Polygon", "coordinates": [ [ [ -87.633193969726605, 19.222917556762798 ], [ -87.628753662109304, 19.2256965637207 ], [ -87.628196716308594, 19.2254142761231 ], [ -87.631530761718594, 19.222917556762798 ], [ -87.633193969726605, 19.222917556762798 ] ] ] }, { "type": "Polygon", "coordinates": [ [ [ -87.630142211914105, 19.222360610961999 ], [ -87.630973815917997, 19.222639083862401 ], [ -87.627082824707003, 19.225139617919901 ], [ -87.627639770507798, 19.224027633666999 ], [ -87.630142211914105, 19.222360610961999 ] ] ] }, { "type": "Polygon", "coordinates": [ [ [ -87.638748168945298, 19.218471527099599 ], [ -87.634307861328097, 19.222917556762798 ], [ -87.632080078124901, 19.222360610961999 ], [ -87.631805419921804, 19.221250534057699 ], [ -87.638748168945298, 19.218471527099599 ] ] ] }, { "type": "Polygon", "coordinates": [ [ [ -87.638748168945298, 19.218471527099599 ], [ -87.642364501953097, 19.2162494659425 ], [ -87.647087097167997, 19.2162494659425 ], [ -87.644859313964801, 19.217361450195401 ], [ -87.638748168945298, 19.218471527099599 ] ] ] } ] } },
{ "type": "Feature", "properties": { "NAME_1": "Quintana Roo", "NAME_2": "Isla Mujeres" }, "geometry": { "type": "GeometryCollection", "geometries": [ { "type": "Polygon", "coordinates": [ [ [ -87.064826965332003, 21.5937519073487 ], [ -87.049583435058494, 21.589027404785199 ], [ -87.045692443847699, 21.585416793823299 ], [ -87.049308776855398, 21.580972671508899 ], [ -87.064826965332003, 21.5937519073487 ] ] ] }, { "type": "Polygon", "coordinates": [ [ [ -87.039306640625, 21.585416793823299 ], [ -87.017364501952997, 21.580417633056701 ], [ -86.999305725097599, 21.570972442626999 ], [ -86.992362976074205, 21.564304351806602 ], [ -87.003471374511705, 21.569860458373999 ], [ -87.010414123535199, 21.560138702392599 ], [ -87.018470764160099, 21.5781955718994 ], [ -87.030975341796804, 21.5740280151368 ], [ -87.039306640625, 21.585416793823299 ] ] ] }, { "type": "Polygon", "coordinates": [ [ [ -87.024307250976506, 21.575138092041101 ], [ -87.019859313964801, 21.5723590850831 ], [ -87.018753051757798, 21.567918777465799 ], [ -87.025695800781193, 21.573194503784201 ], [ -87.024307250976506, 21.575138092041101 ] ] ] }, { "type": "Polygon", "coordinates": [ [ [ -86.947914123535099, 21.482915878295898 ], [ -86.888191223144503, 21.40625 ], [ -86.877082824707003, 21.3509731292725 ], [ -86.862358093261705, 21.322639465332099 ], [ -86.854583740234403, 21.262638092041101 ], [ -86.849586486816307, 21.252082824707099 ], [ -86.825973510742202, 21.2448616027832 ], [ -86.836524963378807, 21.2740287780762 ], [ -86.831527709960895, 21.282363891601602 ], [ -86.821250915527301, 21.281803131103501 ], [ -86.828193664550795, 21.2951393127443 ], [ -86.822082519531193, 21.3159713745118 ], [ -86.799583435058594, 21.3284721374513 ], [ -86.792640686035099, 21.3429164886475 ], [ -86.794860839843693, 21.373470306396499 ], [ -86.826530456542898, 21.414304733276399 ], [ -86.822914123535199, 21.420139312744102 ], [ -86.806526184082003, 21.409860610961999 ], [ -86.798194885253807, 21.387916564941499 ], [ -86.799583435058594, 21.4034748077393 ], [ -86.795692443847599, 21.406528472900501 ], [ -86.791252136230497, 21.342361450195298 ], [ -86.816802978515497, 21.286527633666999 ], [ -86.800971984863196, 21.237916946411101 ], [ -86.807083129882798, 21.185693740844801 ], [ -86.799858093261705, 21.1585292816163 ], [ -87.036872863769503, 21.161979675293001 ], [ -87.063278198242202, 21.569860458373999 ], [ -87.009582519531193, 21.5565280914307 ], [ -86.975135803222699, 21.513471603393601 ], [ -86.975418090820298, 21.540695190429801 ], [ -86.997917175292997, 21.5440273284913 ], [ -86.986526489257798, 21.553472518920898 ], [ -86.992919921874901, 21.560138702392599 ], [ -86.990692138671903, 21.562915802002099 ], [ -86.95263671875, 21.5148620605469 ], [ -86.947914123535099, 21.482915878295898 ] ] ] }, { "type": "Polygon", "coordinates": [ [ [ -86.804031372070298, 21.534305572509901 ], [ -86.792358398437401, 21.497360229492202 ], [ -86.785140991210795, 21.4604187011718 ], [ -86.797080993652301, 21.503749847412202 ], [ -86.795974731445298, 21.4915275573731 ], [ -86.799583435058594, 21.493471145629801 ], [ -86.804031372070298, 21.534305572509901 ] ] ] }, { "type": "Polygon", "coordinates": [ [ [ -86.921806335449105, 21.4779167175293 ], [ -86.917640686035199, 21.476249694824201 ], [ -86.918746948242102, 21.472085952758899 ], [ -86.923469543457003, 21.476528167724702 ], [ -86.921806335449105, 21.4779167175293 ] ] ] }, { "type": "Polygon", "coordinates": [ [ [ -86.934585571288906, 21.4754161834718 ], [ -86.931808471679602, 21.474861145019599 ], [ -86.927635192871094, 21.4681930541993 ], [ -86.933746337890597, 21.467638015747099 ], [ -86.934585571288906, 21.4754161834718 ] ] ] }, { "type": "Polygon", "coordinates": [ [ [ -86.915412902831903, 21.4745826721193 ], [ -86.909858703613196, 21.468471527099702 ], [ -86.910697937011705, 21.4659729003906 ], [ -86.9173583984375, 21.470138549804801 ], [ -86.915412902831903, 21.4745826721193 ] ] ] }, { "type": "Polygon", "coordinates": [ [ [ -86.853752136230497, 21.436527252197301 ], [ -86.853752136230497, 21.433195114135799 ], [ -86.888191223144503, 21.416528701782301 ], [ -86.877639770507798, 21.423194885253999 ], [ -86.885414123535199, 21.433195114135799 ], [ -86.853752136230497, 21.436527252197301 ] ] ] }, { "type": "Polygon", "coordinates": [ [ [ -86.879859924316406, 21.425970077514702 ], [ -86.879859924316406, 21.424028396606602 ], [ -86.882919311523395, 21.4243049621582 ], [ -86.882637023925795, 21.4251384735107 ], [ -86.879859924316406, 21.425970077514702 ] ] ] }, { "type": "Polygon", "coordinates": [ [ [ -86.748474121093807, 21.265693664550799 ], [ -86.740974426269503, 21.249305725097699 ], [ -86.710418701171903, 21.201250076294102 ], [ -86.748748779296903, 21.244306564331101 ], [ -86.740135192871094, 21.239305496215898 ], [ -86.752639770507798, 21.257638931274499 ], [ -86.748474121093807, 21.265693664550799 ] ] ] } ] } },
{ "type": "Feature", "properties": { "NAME_1": "Quintana Roo", "NAME_2": "José María Morelos" }, "geometry": { "type": "Polygon", "coordinates": [ [ [ -88.703826904296804, 19.294639587402301 ], [ -88.732032775878807, 19.2703380584718 ], [ -88.748451232910099, 19.266080856323299 ], [ -88.832572937011705, 19.282051086425799 ], [ -88.851776123046903, 19.292190551757798 ], [ -88.986968994140597, 19.276159286499102 ], [ -89.038276672363196, 19.288129806518601 ], [ -89.150276184082003, 19.421739578247099 ], [ -89.234428405761705, 19.495130538940501 ], [ -89.304237365722599, 19.5348510742188 ], [ -89.361862182617102, 19.582599639892599 ], [ -89.412208557128807, 19.6428127288819 ], [ -89.415336608886705, 19.6510906219482 ], [ -89.383583068847599, 19.711870193481399 ], [ -89.367179870605398, 19.770610809326101 ], [ -89.372093200683594, 19.8148593902588 ], [ -89.360420227050696, 19.831871032715 ], [ -89.326339721679702, 19.8270797729493 ], [ -89.208412170410099, 19.839351654052798 ], [ -89.182975769042997, 19.8524608612062 ], [ -89.152656555175795, 19.8920593261719 ], [ -89.087593078613196, 19.912469863891499 ], [ -89.055732727050696, 19.931819915771499 ], [ -88.958526611328097, 19.933139801025401 ], [ -88.925697326660199, 19.942329406738398 ], [ -88.873497009277202, 19.977939605712798 ], [ -88.834472656249901, 20.016069412231399 ], [ -88.822486877441406, 20.015399932861399 ], [ -88.805206298828097, 19.9863605499268 ], [ -88.791442871093807, 19.981250762939499 ], [ -88.779159545898395, 19.993341445922798 ], [ -88.789993286132798, 20.019029617309702 ], [ -88.782760620117202, 20.0288906097413 ], [ -88.715187072753807, 20.0795593261719 ], [ -88.690162658691406, 20.085870742797901 ], [ -88.643859863281193, 20.118629455566399 ], [ -88.557327270507798, 20.1373500823975 ], [ -88.513427734375, 20.165950775146602 ], [ -88.463195800781193, 20.181230545043899 ], [ -88.495468139648395, 19.998580932617301 ], [ -88.501358032226506, 19.8998126983643 ], [ -88.482200622558494, 19.838039398193398 ], [ -88.427513122558594, 19.75465965271 ], [ -88.464431762695298, 19.727441787719801 ], [ -88.501281738281094, 19.6724529266357 ], [ -88.558387756347599, 19.673831939697301 ], [ -88.612350463867102, 19.628110885620199 ], [ -88.615081787109403, 19.619871139526399 ], [ -88.594032287597699, 19.593570709228601 ], [ -88.611656188964801, 19.520360946655401 ], [ -88.673858642578097, 19.521869659423899 ], [ -88.694137573242202, 19.5111808776857 ], [ -88.706657409667997, 19.347812652587901 ], [ -88.703826904296804, 19.294639587402301 ] ] ] } },
{ "type": "Feature", "properties": { "NAME_1": "Quintana Roo", "NAME_2": "Lázaro Cárdenas" }, "geometry": { "type": "GeometryCollection", "geometries": [ { "type": "Polygon", "coordinates": [ [ [ -87.241531372070298, 21.517084121704201 ], [ -87.260139465332003, 21.5193061828613 ], [ -87.261253356933594, 21.5212497711182 ], [ -87.250137329101506, 21.521528244018601 ], [ -87.249031066894503, 21.5243034362794 ], [ -87.263191223144503, 21.528194427490298 ], [ -87.271247863769503, 21.5148620605469 ], [ -87.2701416015625, 21.526525497436602 ], [ -87.288192749023395, 21.511806488037202 ], [ -87.299858093261705, 21.529306411743299 ], [ -87.317359924316307, 21.534305572509901 ], [ -87.319305419921903, 21.5259723663331 ], [ -87.3245849609375, 21.537639617919901 ], [ -87.318191528320298, 21.539306640625099 ], [ -87.332359313964702, 21.5484714508057 ], [ -87.357086181640597, 21.520971298217901 ], [ -87.356246948242202, 21.534305572509901 ], [ -87.364860534667898, 21.530694961547901 ], [ -87.360694885253906, 21.521804809570401 ], [ -87.374580383300696, 21.520139694213899 ], [ -87.371528625488196, 21.509582519531399 ], [ -87.380416870117102, 21.5140285491943 ], [ -87.390136718749901, 21.50319480896 ], [ -87.395973205566307, 21.5112495422363 ], [ -87.335418701171903, 21.563474655151399 ], [ -87.302917480468807, 21.544584274291999 ], [ -87.237358093261705, 21.539861679077301 ], [ -87.149307250976605, 21.569305419921999 ], [ -87.105415344238295, 21.6045856475831 ], [ -87.064842224120994, 21.594030380249102 ], [ -87.088470458984304, 21.589860916137798 ], [ -87.105697631835895, 21.601528167724599 ], [ -87.120414733886705, 21.589305877685501 ], [ -87.125968933105398, 21.570972442626999 ], [ -87.151252746582003, 21.5590286254882 ], [ -87.150970458984304, 21.552639007568299 ], [ -87.156524658203097, 21.557361602783299 ], [ -87.158195495605398, 21.548749923706101 ], [ -87.174583435058594, 21.549863815307599 ], [ -87.209587097167898, 21.519027709960898 ], [ -87.218193054199205, 21.5259723663331 ], [ -87.241531372070298, 21.517084121704201 ] ] ] }, { "type": "Polygon", "coordinates": [ [ [ -87.036872863769503, 21.161979675293001 ], [ -87.032859802246094, 21.07230758667 ], [ -87.186988830566307, 21.068559646606399 ], [ -87.197311401367102, 21.004938125610501 ], [ -87.234725952148395, 20.99764251709 ], [ -87.227737426757798, 20.907129287719801 ], [ -87.108177185058594, 20.908760070800898 ], [ -87.109161376953097, 20.828769683838001 ], [ -87.112998962402301, 20.816629409790099 ], [ -87.238990783691307, 20.685400009155401 ], [ -87.490097045898295, 20.668060302734499 ], [ -87.517517089843807, 20.681690216064599 ], [ -87.5377197265625, 20.653070449829201 ], [ -87.554176330566307, 20.6585502624512 ], [ -87.552436828613196, 20.675251007080199 ], [ -87.563941955566406, 20.684352874755898 ], [ -87.586830139160199, 20.665941238403398 ], [ -87.612167358398295, 20.658929824829201 ], [ -87.631698608398395, 20.678939819336101 ], [ -87.646110534667898, 20.683000564575298 ], [ -87.635490417480497, 20.742570877075199 ], [ -87.600807189941307, 20.783220291137699 ], [ -87.596298217773395, 20.841171264648398 ], [ -87.529533386230497, 20.966350555419901 ], [ -87.546218872070298, 21.030321121215898 ], [ -87.588142395019503, 21.1214199066163 ], [ -87.566581726074105, 21.195629119873001 ], [ -87.569396972656193, 21.220018386840799 ], [ -87.530967712402301, 21.2594394683837 ], [ -87.525459289550696, 21.2877502441407 ], [ -87.530891418457003, 21.460931777954201 ], [ -87.538398742675795, 21.486421585083001 ], [ -87.488197326660199, 21.4851379394532 ], [ -87.479026794433494, 21.4587497711181 ], [ -87.428474426269503, 21.4681930541993 ], [ -87.354309082031193, 21.4468078613282 ], [ -87.340972900390597, 21.432361602783299 ], [ -87.317085266113196, 21.441528320312599 ], [ -87.272087097167898, 21.432638168335 ], [ -87.273750305175795, 21.440139770507901 ], [ -87.272918701171804, 21.4423637390138 ], [ -87.234024047851506, 21.4190273284912 ], [ -87.226806640625, 21.430139541625898 ], [ -87.221801757812401, 21.416528701782301 ], [ -87.221527099609304, 21.438194274902401 ], [ -87.204864501953097, 21.444860458374102 ], [ -87.185974121093594, 21.433471679687599 ], [ -87.174858093261705, 21.435693740844702 ], [ -87.168472290039105, 21.420972824096701 ], [ -87.171249389648395, 21.433471679687599 ], [ -87.185974121093594, 21.4426383972168 ], [ -87.167083740234304, 21.449583053588899 ], [ -87.158752441406193, 21.463750839233501 ], [ -87.133193969726605, 21.4595832824707 ], [ -87.112358093261705, 21.471525192260799 ], [ -87.110969543457003, 21.519861221313501 ], [ -87.099586486816406, 21.533470153808501 ], [ -87.104026794433494, 21.546249389648398 ], [ -87.128753662109304, 21.554582595825298 ], [ -87.102912902832003, 21.5837497711182 ], [ -87.084030151367202, 21.589305877685501 ], [ -87.063278198242202, 21.569860458373999 ], [ -87.036872863769503, 21.161979675293001 ] ] ] }, { "type": "Polygon", "coordinates": [ [ [ -87.217918395995994, 21.5184726715088 ], [ -87.221527099609304, 21.516527175903398 ], [ -87.225418090820298, 21.516527175903398 ], [ -87.223747253417997, 21.5184726715088 ], [ -87.217918395995994, 21.5184726715088 ] ] ] } ] } },
{ "type": "Feature", "properties": { "NAME_1": "Quintana Roo", "NAME_2": "Othón P. Blanco" }, "geometry": { "type": "GeometryCollection", "geometries": [ { "type": "Polygon", "coordinates": [ [ [ -88.012916564941406, 18.460416793823299 ], [ -88.023193359374901, 18.458194732666001 ], [ -88.049858093261705, 18.475416183471701 ], [ -88.074028015136705, 18.479583740234499 ], [ -88.064025878906193, 18.4876384735107 ], [ -88.072364807128906, 18.484859466552699 ], [ -88.065696716308594, 18.494861602783299 ], [ -88.072639465332003, 18.4931945800781 ], [ -88.077636718749901, 18.509859085083001 ], [ -88.044303894042997, 18.5331935882568 ], [ -88.032913208007798, 18.5684738159181 ], [ -88.045135498046804, 18.5731945037843 ], [ -88.044303894042997, 18.582084655761701 ], [ -88.029304504394403, 18.6020832061769 ], [ -88.034584045410199, 18.605140686035199 ], [ -88.018470764160199, 18.617082595825298 ], [ -88.004859924316307, 18.664304733276399 ], [ -87.997642517089702, 18.6679172515869 ], [ -88.019302368164105, 18.6970825195312 ], [ -88.010414123535099, 18.707361221313601 ], [ -88.008750915527301, 18.733472824096701 ], [ -88.001251220703097, 18.7376384735107 ], [ -88.013191223144403, 18.755695343017699 ], [ -88.000968933105398, 18.770694732666101 ], [ -88.014579772949205, 18.768749237060501 ], [ -88.012641906738295, 18.775417327880898 ], [ -88.022636413574205, 18.777360916137798 ], [ -88.017639160156193, 18.7920837402344 ], [ -88.038475036621094, 18.8129177093506 ], [ -88.04736328125, 18.8112506866456 ], [ -88.037086486816406, 18.850694656372099 ], [ -88.051803588867102, 18.866527557373001 ], [ -88.053474426269503, 18.858749389648601 ], [ -88.069862365722699, 18.861251831054801 ], [ -88.0826416015625, 18.842082977295 ], [ -88.078750610351605, 18.834863662719702 ], [ -88.106246948242102, 18.819305419921999 ], [ -88.108749389648295, 18.801805496215898 ], [ -88.146530151367202, 18.741806030273501 ], [ -88.141525268554602, 18.724859237670799 ], [ -88.160140991210895, 18.726251602173001 ], [ -88.150413513183494, 18.759582519531399 ], [ -88.149307250976605, 18.771528244018601 ], [ -88.150413513183494, 18.773750305175799 ], [ -88.171524047851605, 18.722360610961999 ], [ -88.182083129882699, 18.724306106567401 ], [ -88.20263671875, 18.710971832275401 ], [ -88.20263671875, 18.682083129882901 ], [ -88.193191528320298, 18.706806182861399 ], [ -88.165412902832003, 18.7179164886475 ], [ -88.1531982421875, 18.7079162597657 ], [ -88.191528320312401, 18.6806945800781 ], [ -88.230972290039006, 18.5865268707275 ], [ -88.285140991210895, 18.494583129882901 ], [ -88.376266479492202, 18.485509872436499 ], [ -88.395347595214801, 18.4970798492432 ], [ -88.442092895507798, 18.480329513549702 ], [ -88.472183227539006, 18.495479583740298 ], [ -88.518089294433594, 18.460817337036101 ], [ -88.550163269042997, 18.3768825531006 ], [ -88.550308227539105, 18.350288391113398 ], [ -88.595619201660199, 18.3028678894044 ], [ -88.609107971191307, 18.232782363891701 ], [ -88.632392883300696, 18.212202072143601 ], [ -88.657058715820298, 18.173009872436602 ], [ -88.702857971191307, 18.0625400543212 ], [ -88.759162902832003, 18.032886505126999 ], [ -88.782760620117202, 17.9787216186525 ], [ -88.813446044921903, 17.947698593139702 ], [ -88.847396850585895, 17.928228378295898 ], [ -88.843147277832003, 17.867259979248001 ], [ -88.874847412109403, 17.902851104736399 ], [ -88.916587829589801, 17.9217529296875 ], [ -88.941566467285099, 17.957881927490199 ], [ -88.983581542968807, 17.9563312530518 ], [ -88.997917175292898, 17.980150222778299 ], [ -89.028106689453097, 18.004400253296001 ], [ -89.093582153320298, 17.986021041870099 ], [ -89.106063842773395, 17.968570709228501 ], [ -89.128128051757699, 17.964862823486399 ], [ -89.145812988281193, 17.941999435424901 ], [ -89.15625, 18.036319732666001 ], [ -89.058372497558594, 18.144350051879801 ], [ -89.032577514648395, 18.21222114563 ], [ -89.048446655273395, 18.384901046753001 ], [ -89.065666198730398, 18.424491882324201 ], [ -89.042991638183594, 18.488449096679702 ], [ -89.049285888671903, 18.4982395172119 ], [ -89.078025817870994, 18.5093307495118 ], [ -89.059226989746094, 18.537229537963899 ], [ -89.057136535644503, 18.5666618347169 ], [ -89.067947387695298, 18.5967807769775 ], [ -89.101081848144503, 18.6320610046388 ], [ -89.107879638671804, 18.696041107177699 ], [ -89.078857421875, 18.839820861816499 ], [ -89.084342956542898, 18.9715690612794 ], [ -89.068252563476605, 18.9971008300781 ], [ -89.032035827636705, 19.0094318389893 ], [ -89.021102905273395, 19.022331237793001 ], [ -89.021972656249901, 19.1478805541993 ], [ -89.012145996093693, 19.231901168823299 ], [ -89.038276672363196, 19.288129806518601 ], [ -88.986968994140597, 19.276159286499102 ], [ -88.851776123046903, 19.292190551757798 ], [ -88.760086059570298, 19.265991210937599 ], [ -88.732032775878807, 19.2703380584718 ], [ -88.703826904296804, 19.294639587402301 ], [ -88.628059387207003, 19.273681640625 ], [ -88.599403381347599, 19.2798175811768 ], [ -88.583488464355398, 19.271738052368299 ], [ -88.552970886230398, 19.232191085815501 ], [ -88.480842590332003, 19.163551330566499 ], [ -88.414115905761605, 19.1161308288575 ], [ -88.340179443359304, 19.0841598510743 ], [ -88.297225952148395, 19.086490631103501 ], [ -88.231147766113295, 19.110580444335898 ], [ -88.207893371582003, 19.094770431518601 ], [ -88.214492797851506, 19.091739654541101 ], [ -88.210380554199205, 19.083421707153398 ], [ -88.184837341308494, 19.072530746460099 ], [ -88.156570434570298, 19.094841003418001 ], [ -88.161300659179702, 19.106082916259702 ], [ -88.145927429199205, 19.107919692993299 ], [ -88.099197387695298, 19.073249816894499 ], [ -88.047653198242202, 19.0978298187256 ], [ -88.046676635742202, 19.0524101257325 ], [ -87.996818542480497, 19.0788898468018 ], [ -87.947090148925696, 19.0683498382569 ], [ -87.917182922363295, 19.055530548095799 ], [ -87.906288146972699, 19.0119304656982 ], [ -87.868949890136705, 19.006820678710898 ], [ -87.843292236328097, 19.037639617919901 ], [ -87.733230590820298, 19.067140579223601 ], [ -87.712806701660199, 19.056749343872099 ], [ -87.667800903320298, 19.087249755859499 ], [ -87.6505126953125, 19.083879470825298 ], [ -87.643173217773395, 19.039821624755898 ], [ -87.587837219238196, 19.021669387817401 ], [ -87.581253051757798, 19.032131195068398 ], [ -87.627639770507798, 18.939306259155298 ], [ -87.641807556152301, 18.860416412353501 ], [ -87.662361145019503, 18.828193664550799 ], [ -87.669303894042997, 18.800693511963001 ], [ -87.669303894042997, 18.762638092041001 ], [ -87.711524963378807, 18.710971832275401 ], [ -87.725418090820298, 18.6681938171387 ], [ -87.740692138671804, 18.538473129272599 ], [ -87.762359619140597, 18.495695114135799 ], [ -87.763748168945298, 18.417640686035099 ], [ -87.825416564941406, 18.318195343017599 ], [ -87.844024658203097, 18.191528320312599 ], [ -87.853195190429702, 18.209304809570401 ], [ -87.863746643066307, 18.209028244018601 ], [ -87.863197326660199, 18.219028472900401 ], [ -87.870971679687401, 18.2098617553712 ], [ -87.869583129882798, 18.2159729003907 ], [ -87.879302978515597, 18.2176399230956 ], [ -87.864585876464801, 18.222639083862401 ], [ -87.859024047851605, 18.238471984863299 ], [ -87.881530761718807, 18.2304172515869 ], [ -87.866249084472699, 18.2312526702881 ], [ -87.872917175292997, 18.222082138061499 ], [ -87.892639160156193, 18.215137481689599 ], [ -87.891250610351605, 18.225416183471701 ], [ -87.894584655761705, 18.2287483215332 ], [ -87.898475646972699, 18.220138549804702 ], [ -87.898750305175696, 18.243473052978601 ], [ -87.894302368164105, 18.250139236450298 ], [ -87.885414123535199, 18.243473052978601 ], [ -87.874031066894503, 18.264583587646499 ], [ -87.875968933105497, 18.284584045410199 ], [ -87.883193969726506, 18.279582977295 ], [ -87.886802673339801, 18.2831935882569 ], [ -87.877914428710895, 18.287361145019499 ], [ -87.8790283203125, 18.296247482299901 ], [ -87.889862060546804, 18.2937507629394 ], [ -87.894584655761705, 18.2784729003907 ], [ -87.899307250976506, 18.299583435058601 ], [ -87.897087097167997, 18.315971374511701 ], [ -87.896247863769503, 18.299583435058601 ], [ -87.889579772949205, 18.318195343017599 ], [ -87.879302978515597, 18.319583892822301 ], [ -87.889862060546804, 18.325416564941499 ], [ -87.880416870117102, 18.328472137451101 ], [ -87.889030456542997, 18.336526870727599 ], [ -87.880691528320298, 18.3431930541993 ], [ -87.881805419921903, 18.3556938171388 ], [ -87.890419006347599, 18.3504161834718 ], [ -87.903747558593807, 18.3590278625488 ], [ -87.895973205566307, 18.371805191040099 ], [ -87.903747558593807, 18.383750915527301 ], [ -87.912918090820298, 18.389030456542901 ], [ -87.929580688476605, 18.384582519531399 ], [ -87.939308166503906, 18.3934726715088 ], [ -87.935417175292997, 18.4370841979981 ], [ -88.012916564941406, 18.460416793823299 ] ] ] }, { "type": "Polygon", "coordinates": [ [ [ -88.0826416015625, 18.829584121704201 ], [ -88.080970764160099, 18.823194503784201 ], [ -88.082084655761705, 18.811527252197301 ], [ -88.089027404785199, 18.797084808349702 ], [ -88.093193054199205, 18.810972213745199 ], [ -88.0826416015625, 18.829584121704201 ] ] ] }, { "type": "Polygon", "coordinates": [ [ [ -88.099029541015597, 18.8012504577638 ], [ -88.101806640625, 18.775693893432699 ], [ -88.111526489257798, 18.760139465332099 ], [ -88.107917785644503, 18.793470382690501 ], [ -88.099029541015597, 18.8012504577638 ] ] ] }, { "type": "Polygon", "coordinates": [ [ [ -88.115692138671804, 18.785972595214801 ], [ -88.116531372070298, 18.783472061157301 ], [ -88.117637634277301, 18.782638549804702 ], [ -88.117919921875, 18.7848606109619 ], [ -88.115692138671804, 18.785972595214801 ] ] ] }, { "type": "Polygon", "coordinates": [ [ [ -88.096527099609304, 18.776250839233501 ], [ -88.095970153808494, 18.7759723663331 ], [ -88.095695495605497, 18.769584655761701 ], [ -88.098197937011705, 18.774583816528299 ], [ -88.096527099609304, 18.776250839233501 ] ] ] }, { "type": "Polygon", "coordinates": [ [ [ -88.114585876464801, 18.755416870117099 ], [ -88.114860534667997, 18.7520542144775 ], [ -88.115974426269503, 18.751806259155298 ], [ -88.117080688476605, 18.7543048858644 ], [ -88.114585876464801, 18.755416870117099 ] ] ] }, { "type": "Polygon", "coordinates": [ [ [ -87.299583435058594, 18.751249313354499 ], [ -87.298469543457003, 18.747917175293001 ], [ -87.303474426269503, 18.7448616027832 ], [ -87.302635192871094, 18.750137329101602 ], [ -87.299583435058594, 18.751249313354499 ] ] ] }, { "type": "Polygon", "coordinates": [ [ [ -87.264862060546903, 18.742084503173899 ], [ -87.258468627929702, 18.7351379394532 ], [ -87.253196716308494, 18.7237472534181 ], [ -87.267082214355497, 18.7415275573731 ], [ -87.264862060546903, 18.742084503173899 ] ] ] }, { "type": "Polygon", "coordinates": [ [ [ -87.304306030273395, 18.741806030273501 ], [ -87.303474426269503, 18.738193511962901 ], [ -87.305969238281193, 18.737361907959102 ], [ -87.306808471679702, 18.740140914916999 ], [ -87.304306030273395, 18.741806030273501 ] ] ] }, { "type": "Polygon", "coordinates": [ [ [ -87.249305725097699, 18.719028472900401 ], [ -87.242080688476605, 18.710971832275401 ], [ -87.230697631835795, 18.674863815307699 ], [ -87.231246948242102, 18.662639617919901 ], [ -87.249305725097699, 18.719028472900401 ] ] ] }, { "type": "Polygon", "coordinates": [ [ [ -87.231803894042997, 18.657917022705099 ], [ -87.230415344238196, 18.6543064117432 ], [ -87.233192443847699, 18.6526393890381 ], [ -87.233474731445298, 18.657917022705099 ], [ -87.231803894042997, 18.657917022705099 ] ] ] }, { "type": "Polygon", "coordinates": [ [ [ -87.232635498046903, 18.650972366333001 ], [ -87.232086181640597, 18.64986038208 ], [ -87.234024047851506, 18.645694732666001 ], [ -87.234863281249901, 18.647081375122202 ], [ -87.232635498046903, 18.650972366333001 ] ] ] }, { "type": "Polygon", "coordinates": [ [ [ -87.235694885253906, 18.6429157257081 ], [ -87.234306335449205, 18.641527175903398 ], [ -87.237083435058494, 18.6359748840332 ], [ -87.237640380859304, 18.6390285491943 ], [ -87.235694885253906, 18.6429157257081 ] ] ] }, { "type": "Polygon", "coordinates": [ [ [ -88.198753356933494, 18.6154174804687 ], [ -88.192146301269503, 18.635992050170898 ], [ -88.185974121093693, 18.639305114746101 ], [ -88.196525573730497, 18.607362747192401 ], [ -88.221527099609403, 18.564027786254901 ], [ -88.228195190429702, 18.564582824707099 ], [ -88.198753356933494, 18.6154174804687 ] ] ] }, { "type": "Polygon", "coordinates": [ [ [ -87.237083435058494, 18.634580612182699 ], [ -87.239860534667997, 18.623472213745199 ], [ -87.243194580077997, 18.617916107177798 ], [ -87.239585876464801, 18.632083892822401 ], [ -87.237083435058494, 18.634580612182699 ] ] ] }, { "type": "Polygon", "coordinates": [ [ [ -87.309585571289105, 18.6037483215332 ], [ -87.305137634277301, 18.597639083862202 ], [ -87.317916870117202, 18.577083587646499 ], [ -87.340972900390597, 18.573472976684702 ], [ -87.309585571289105, 18.6037483215332 ] ] ] }, { "type": "Polygon", "coordinates": [ [ [ -88.053192138671903, 18.587083816528299 ], [ -88.053474426269503, 18.584028244018601 ], [ -88.054862976074105, 18.5829162597657 ], [ -88.054862976074105, 18.5865268707275 ], [ -88.053192138671903, 18.587083816528299 ] ] ] }, { "type": "Polygon", "coordinates": [ [ [ -87.311248779296804, 18.508193969726701 ], [ -87.308746337890597, 18.500972747802798 ], [ -87.307914733886705, 18.491249084472599 ], [ -87.313194274902202, 18.507638931274499 ], [ -87.311248779296804, 18.508193969726701 ] ] ] }, { "type": "Polygon", "coordinates": [ [ [ -87.906806945800795, 18.384027481079201 ], [ -87.906524658203097, 18.382083892822301 ], [ -87.907638549804702, 18.381250381469702 ], [ -87.908752441406193, 18.383195877075199 ], [ -87.906806945800795, 18.384027481079201 ] ] ] }, { "type": "Polygon", "coordinates": [ [ [ -87.90625, 18.366806030273501 ], [ -87.905418395995994, 18.3645839691162 ], [ -87.905693054199205, 18.364027023315401 ], [ -87.907363891601605, 18.364862442016602 ], [ -87.90625, 18.366806030273501 ] ] ] }, { "type": "Polygon", "coordinates": [ [ [ -87.905693054199205, 18.359582901001001 ], [ -87.902915954589801, 18.3565273284913 ], [ -87.908470153808494, 18.3520832061768 ], [ -87.907081604003906, 18.3590278625488 ], [ -87.905693054199205, 18.359582901001001 ] ] ] }, { "type": "Polygon", "coordinates": [ [ [ -87.915138244628807, 18.355138778686602 ], [ -87.912918090820298, 18.3529167175293 ], [ -87.913192749023395, 18.3520832061768 ], [ -87.915695190429602, 18.354028701782202 ], [ -87.915138244628807, 18.355138778686602 ] ] ] }, { "type": "Polygon", "coordinates": [ [ [ -87.897361755371094, 18.325969696045 ], [ -87.897087097167997, 18.322637557983398 ], [ -87.898193359375, 18.3220825195312 ], [ -87.898193359375, 18.3256950378419 ], [ -87.897361755371094, 18.325969696045 ] ] ] }, { "type": "Polygon", "coordinates": [ [ [ -87.897087097167997, 18.321250915527401 ], [ -87.896530151367102, 18.318195343017599 ], [ -87.896804809570298, 18.317083358764599 ], [ -87.898193359375, 18.317916870117202 ], [ -87.897087097167997, 18.321250915527401 ] ] ] }, { "type": "Polygon", "coordinates": [ [ [ -87.887084960937401, 18.267084121704201 ], [ -87.886802673339801, 18.265138626098601 ], [ -87.893753051757798, 18.2584724426269 ], [ -87.895416259765597, 18.266525268554801 ], [ -87.887084960937401, 18.267084121704201 ] ] ] }, { "type": "Polygon", "coordinates": [ [ [ -87.881805419921903, 18.216806411743299 ], [ -87.876251220703097, 18.212915420532301 ], [ -87.877082824707003, 18.2112503051757 ], [ -87.880691528320298, 18.212360382080099 ], [ -87.881805419921903, 18.216806411743299 ] ] ] }, { "type": "Polygon", "coordinates": [ [ [ -87.876251220703097, 18.207639694213899 ], [ -87.879585266113295, 18.187360763549702 ], [ -87.896804809570298, 18.172082901001001 ], [ -87.894027709960895, 18.204584121704201 ], [ -87.882919311523295, 18.203193664550898 ], [ -87.889030456542997, 18.209028244018601 ], [ -87.879859924316307, 18.2070827484131 ], [ -87.873748779296804, 18.212638854980501 ], [ -87.876251220703097, 18.207639694213899 ] ] ] } ] } },
{ "type": "Feature", "properties": { "NAME_1": "Quintana Roo", "NAME_2": "Puerto Morelos" }, "geometry": { "type": "Polygon", "coordinates": [ [ [ -86.934570312499901, 20.787984848022599 ], [ -87.110099792480497, 20.8248100280762 ], [ -87.108177185058594, 20.908760070800898 ], [ -87.227737426757798, 20.907129287719801 ], [ -87.234725952148395, 20.99764251709 ], [ -87.197311401367102, 21.004938125610501 ], [ -87.186988830566307, 21.068559646606399 ], [ -87.062896728515597, 21.071577072143601 ], [ -87.060928344726506, 20.959590911865298 ], [ -86.840415954589801, 20.9264316558838 ], [ -86.877639770507798, 20.8398628234863 ], [ -86.904304504394503, 20.812639236450298 ], [ -86.919860839843693, 20.808195114135899 ], [ -86.934570312499901, 20.787984848022599 ] ] ] } }
]
}
