{
"type": "FeatureCollection",
"name": "san-luis-potosi",
"crs": { "type": "name", "properties": { "name": "urn:ogc:def:crs:OGC:1.3:CRS84" } },
"features": [
{ "type": "Feature", "properties": { "NAME_1": "San Luis Potosí", "NAME_2": "Ahualulco" }, "geometry": { "type": "Polygon", "coordinates": [ [ [ -101.39737701416, 22.313819885253899 ], [ -101.344612121582003, 22.406290054321399 ], [ -101.28328704834, 22.542270660400401 ], [ -101.274108886719006, 22.577222824096701 ], [ -101.280380249022997, 22.613388061523601 ], [ -101.263748168945, 22.620252609252901 ], [ -101.220275878905994, 22.6085605621338 ], [ -101.19367980957, 22.5487880706788 ], [ -101.166442871094006, 22.5275497436525 ], [ -101.13249206543, 22.5341396331788 ], [ -101.144836425780994, 22.473699569702301 ], [ -101.135711669922003, 22.418270111083999 ], [ -101.16773223877, 22.36602973938 ], [ -101.198677062987997, 22.3527526855469 ], [ -101.210121154785, 22.3182811737062 ], [ -101.237358093262003, 22.3096408843994 ], [ -101.267532348632997, 22.330852508544901 ], [ -101.314109802245994, 22.333150863647599 ], [ -101.317611694335994, 22.3219890594482 ], [ -101.295112609862997, 22.2958698272706 ], [ -101.307998657227003, 22.2771606445312 ], [ -101.334030151367003, 22.2811794281006 ], [ -101.364639282227003, 22.303859710693398 ], [ -101.39737701416, 22.313819885253899 ] ] ] } },
{ "type": "Feature", "properties": { "NAME_1": "San Luis Potosí", "NAME_2": "Alaquines" }, "geometry": { "type": "Polygon", "coordinates": [ [ [ -99.4473876953125, 22.0076503753662 ], [ -99.502159118652301, 22.0169601440431 ], [ -99.515541076660099, 22.046009063720799 ], [ -99.530853271484403, 22.055940628051701 ], [ -99.562927246093693, 22.049640655517699 ], [ -99.578880310058594, 22.017259597778299 ], [ -99.606773376464801, 22.007997512817401 ], [ -99.620956420898395, 22.0302028656006 ], [ -99.623062133789105, 22.072710037231602 ], [ -99.652076721191406, 22.0779914855957 ], [ -99.687393188476506, 22.046159744262798 ], [ -99.772743225097599, 22.030332565307599 ], [ -99.806213378906193, 22.0382595062257 ], [ -99.816169738769503, 22.008621215820298 ], [ -99.845993041992102, 21.980182647705099 ], [ -99.866012573242102, 22.0773410797119 ], [ -99.874366760253906, 22.0879516601562 ], [ -99.829727172851605, 22.106281280517599 ], [ -99.764266967773295, 22.119279861450199 ], [ -99.751235961914105, 22.131881713867202 ], [ -99.761489868164006, 22.154300689697301 ], [ -99.745597839355497, 22.185779571533299 ], [ -99.696937561035, 22.179082870483398 ], [ -99.633758544921903, 22.187442779541001 ], [ -99.588600158691307, 22.151800155639599 ], [ -99.548248291015597, 22.165660858154201 ], [ -99.515487670898395, 22.161741256713899 ], [ -99.4473876953125, 22.0076503753662 ] ] ] } },
{ "type": "Feature", "properties": { "NAME_1": "San Luis Potosí", "NAME_2": "Aquismón" }, "geometry": { "type": "Polygon", "coordinates": [ [ [ -99.276206970214801, 21.5654106140138 ], [ -99.262886047363196, 21.579341888427699 ], [ -99.268646240234403, 21.619230270385899 ], [ -99.229362487792997, 21.630920410156399 ], [ -99.209747314453097, 21.679042816162202 ], [ -99.173446655273395, 21.689781188964901 ], [ -99.191001892089801, 21.7157497406007 ], [ -99.174537658691406, 21.793239593505898 ], [ -99.17626953125, 21.8171501159669 ], [ -99.199691772460795, 21.8282794952393 ], [ -99.246978759765597, 21.881040573120199 ], [ -99.249916076660099, 21.955471038818299 ], [ -99.248870849609304, 21.986192703247099 ], [ -99.226600646972699, 22.030178070068398 ], [ -99.171096801757798, 22.049682617187599 ], [ -99.163497924804702, 22.0169601440431 ], [ -99.149017333984304, 22.002029418945401 ], [ -99.144752502441307, 21.9593410491943 ], [ -99.109519958496094, 21.869340896606499 ], [ -99.081581115722699, 21.8643398284913 ], [ -99.068176269531193, 21.8661594390869 ], [ -99.055389404296804, 21.8791408538819 ], [ -99.016746520995994, 21.878900527954201 ], [ -98.986846923828097, 21.758251190185501 ], [ -99.009330749511705, 21.743110656738299 ], [ -99.028923034667997, 21.697309494018601 ], [ -99.013732910156193, 21.638700485229599 ], [ -99.032447814941406, 21.604730606079102 ], [ -99.136222839355497, 21.539529800415099 ], [ -99.210372924804602, 21.512332916259801 ], [ -99.243232727050795, 21.489240646362301 ], [ -99.271652221679702, 21.533250808715898 ], [ -99.276206970214801, 21.5654106140138 ] ] ] } },
{ "type": "Feature", "properties": { "NAME_1": "San Luis Potosí", "NAME_2": "Armadillo de los Infante" }, "geometry": { "type": "Polygon", "coordinates": [ [ [ -100.715766906737997, 22.1769695281982 ], [ -100.719299316405994, 22.2076206207275 ], [ -100.74291229248, 22.2487201690675 ], [ -100.75853729248, 22.252010345459102 ], [ -100.777496337890994, 22.240249633789102 ], [ -100.795097351074006, 22.248939514160199 ], [ -100.807052612305, 22.243230819702202 ], [ -100.810966491699006, 22.253131866455099 ], [ -100.840476989745994, 22.264080047607401 ], [ -100.851821899414006, 22.278379440307699 ], [ -100.817268371582003, 22.283649444580099 ], [ -100.793685913085994, 22.321821212768601 ], [ -100.765747070312003, 22.34236907959 ], [ -100.68871307373, 22.3412094116212 ], [ -100.640609741210994, 22.362230300903398 ], [ -100.59684753418, 22.361160278320401 ], [ -100.588188171387003, 22.401952743530298 ], [ -100.562118530272997, 22.3913497924806 ], [ -100.505950927734006, 22.433139801025401 ], [ -100.494018554687003, 22.432371139526399 ], [ -100.48616027832, 22.411100387573299 ], [ -100.503150939940994, 22.3972702026368 ], [ -100.502738952637003, 22.3820419311525 ], [ -100.461296081542997, 22.362079620361399 ], [ -100.464172363280994, 22.339090347290099 ], [ -100.440162658690994, 22.320289611816399 ], [ -100.440322875977003, 22.292560577392599 ], [ -100.459815979004006, 22.276649475097699 ], [ -100.493125915527003, 22.279890060424901 ], [ -100.582672119140994, 22.232679367065401 ], [ -100.591331481934006, 22.2009811401368 ], [ -100.618377685547003, 22.169050216674901 ], [ -100.582168579102003, 22.158351898193398 ], [ -100.57266998291, 22.129369735717798 ], [ -100.624351501465, 22.095319747924901 ], [ -100.64054107666, 22.092851638793999 ], [ -100.652770996094006, 22.119300842285199 ], [ -100.684272766112997, 22.1284694671632 ], [ -100.699928283690994, 22.165790557861399 ], [ -100.715766906737997, 22.1769695281982 ] ] ] } },
{ "type": "Feature", "properties": { "NAME_1": "San Luis Potosí", "NAME_2": "Axtla de Terrazas" }, "geometry": { "type": "Polygon", "coordinates": [ [ [ -98.824386596679602, 21.3707695007325 ], [ -98.886550903320298, 21.3638000488282 ], [ -98.890922546386705, 21.375299453735401 ], [ -98.969146728515597, 21.442390441894599 ], [ -99.009178161621094, 21.494499206543001 ], [ -98.975448608398395, 21.5204696655275 ], [ -98.942672729492102, 21.529542922973601 ], [ -98.872657775878807, 21.5259609222413 ], [ -98.858833312988196, 21.434150695800799 ], [ -98.824386596679602, 21.3707695007325 ] ] ] } },
{ "type": "Feature", "properties": { "NAME_1": "San Luis Potosí", "NAME_2": "Cárdenas" }, "geometry": { "type": "Polygon", "coordinates": [ [ [ -99.4473876953125, 22.0076503753662 ], [ -99.430397033691406, 21.9435710906982 ], [ -99.430679321289105, 21.914659500122099 ], [ -99.480476379394503, 21.9237880706788 ], [ -99.518600463867102, 21.984359741211101 ], [ -99.545692443847699, 21.980810165405298 ], [ -99.597946166992102, 21.941850662231602 ], [ -99.624320983886705, 21.9373798370362 ], [ -99.670227050781193, 21.940059661865199 ], [ -99.705879211425696, 21.952560424804702 ], [ -99.752357482910199, 21.9497394561768 ], [ -99.758766174316406, 21.954919815063501 ], [ -99.756347656249901, 21.974269866943398 ], [ -99.765716552734403, 21.980802536010799 ], [ -99.840766906738295, 21.979320526123001 ], [ -99.816169738769503, 22.008621215820298 ], [ -99.806213378906193, 22.0382595062257 ], [ -99.772743225097599, 22.030332565307599 ], [ -99.687393188476506, 22.046159744262798 ], [ -99.652076721191406, 22.0779914855957 ], [ -99.623062133789105, 22.072710037231602 ], [ -99.620956420898395, 22.0302028656006 ], [ -99.606773376464801, 22.007997512817401 ], [ -99.578880310058594, 22.017259597778299 ], [ -99.562927246093693, 22.049640655517699 ], [ -99.530853271484403, 22.055940628051701 ], [ -99.515541076660099, 22.046009063720799 ], [ -99.502159118652301, 22.0169601440431 ], [ -99.4473876953125, 22.0076503753662 ] ] ] } },
{ "type": "Feature", "properties": { "NAME_1": "San Luis Potosí", "NAME_2": "Catorce" }, "geometry": { "type": "Polygon", "coordinates": [ [ [ -101.230583190917997, 23.508939743041999 ], [ -101.263046264647997, 23.5647296905518 ], [ -101.251441955565994, 23.579811096191499 ], [ -101.274223327637003, 23.630090713501001 ], [ -101.289390563965, 23.645530700683601 ], [ -101.317848205565994, 23.656620025634901 ], [ -101.335609436035, 23.703069686889599 ], [ -101.339569091797003, 23.7518405914307 ], [ -101.372016906737997, 23.761791229248001 ], [ -101.381988525390994, 23.778400421142599 ], [ -101.386276245117003, 23.799030303955099 ], [ -101.344917297362997, 23.853090286254901 ], [ -101.334831237792997, 23.878799438476602 ], [ -101.27368927002, 23.872859954833999 ], [ -101.228561401367003, 23.8365402221681 ], [ -101.168586730957003, 23.805589675903299 ], [ -101.135551452637003, 23.800289154052699 ], [ -101.06468963623, 23.810260772705099 ], [ -101.024406433105, 23.800251007080199 ], [ -100.972183227539006, 23.754329681396499 ], [ -100.910713195800994, 23.792030334472699 ], [ -100.885971069335994, 23.815841674804702 ], [ -100.867897033690994, 23.802049636840898 ], [ -100.864273071289006, 23.7699909210206 ], [ -100.854286193847997, 23.760271072387798 ], [ -100.827217102050994, 23.792480468750099 ], [ -100.807876586914006, 23.802568435668899 ], [ -100.794296264647997, 23.6869316101075 ], [ -100.802238464355, 23.680301666259801 ], [ -100.802406311035, 23.614389419555799 ], [ -100.819496154785, 23.598148345947301 ], [ -100.793952941895, 23.557199478149499 ], [ -100.776016235352003, 23.5514106750488 ], [ -100.790435791015994, 23.48929977417 ], [ -100.796630859375, 23.4806308746338 ], [ -100.814796447754006, 23.4816207885743 ], [ -100.864456176757997, 23.461900711059599 ], [ -100.886421203612997, 23.467149734497202 ], [ -100.900108337402003, 23.460700988769499 ], [ -100.913803100585994, 23.442419052124102 ], [ -100.918792724609006, 23.393020629882901 ], [ -100.946922302245994, 23.393760681152301 ], [ -100.971687316894005, 23.439359664916999 ], [ -100.992027282715, 23.454269409179702 ], [ -101.038146972655994, 23.477710723877099 ], [ -101.117347717285, 23.496940612793001 ], [ -101.148986816405994, 23.5189304351807 ], [ -101.20703125, 23.525600433349599 ], [ -101.230583190917997, 23.508939743041999 ] ] ] } },
{ "type": "Feature", "properties": { "NAME_1": "San Luis Potosí", "NAME_2": "Cedral" }, "geometry": { "type": "Polygon", "coordinates": [ [ [ -100.807876586914006, 23.802568435668899 ], [ -100.804916381835994, 23.855970382690501 ], [ -100.823097229004006, 23.877727508544901 ], [ -100.809776306152003, 23.953769683838001 ], [ -100.855979919434006, 24.038049697876101 ], [ -100.818260192870994, 24.0618801116944 ], [ -100.76473236084, 24.048040390014801 ], [ -100.754470825195, 24.149471282959102 ], [ -100.701736450195, 24.17160987854 ], [ -100.684188842772997, 24.161422729492099 ], [ -100.65397644043, 24.167989730835099 ], [ -100.552536010742003, 24.047082901001001 ], [ -100.517112731934006, 23.964759826660298 ], [ -100.519416809082003, 23.845970153808601 ], [ -100.526657104492003, 23.8155403137207 ], [ -100.515892028809006, 23.788499832153398 ], [ -100.540306091309006, 23.7476100921632 ], [ -100.587211608887003, 23.766410827636701 ], [ -100.593528747559006, 23.740331649780298 ], [ -100.582908630370994, 23.7081394195557 ], [ -100.589790344237997, 23.689310073852599 ], [ -100.608695983887003, 23.689050674438501 ], [ -100.62223815918, 23.709430694580199 ], [ -100.650436401367003, 23.7229709625244 ], [ -100.674797058105, 23.719720840453999 ], [ -100.686408996582003, 23.7017498016357 ], [ -100.775131225585994, 23.681129455566499 ], [ -100.794296264647997, 23.6869316101075 ], [ -100.807876586914006, 23.802568435668899 ] ] ] } },
{ "type": "Feature", "properties": { "NAME_1": "San Luis Potosí", "NAME_2": "Cerritos" }, "geometry": { "type": "Polygon", "coordinates": [ [ [ -100.461296081542997, 22.362079620361399 ], [ -100.438301086425994, 22.385749816894599 ], [ -100.42561340332, 22.432929992675898 ], [ -100.446556091309006, 22.471309661865298 ], [ -100.442207336425994, 22.534980773925898 ], [ -100.423561096190994, 22.552679061889801 ], [ -100.354438781737997, 22.542329788208001 ], [ -100.304145812987997, 22.549690246582099 ], [ -100.290588378905994, 22.521448135376001 ], [ -100.148376464844006, 22.552240371703999 ], [ -100.097869873047003, 22.608150482177798 ], [ -100.094207763672003, 22.590248107910199 ], [ -100.064010620117003, 22.558069229126001 ], [ -100.040916442870994, 22.5471706390382 ], [ -100.003562927245994, 22.555461883545 ], [ -99.977378845214801, 22.514600753784201 ], [ -99.989486694335895, 22.485202789306602 ], [ -99.986602783203097, 22.4679698944093 ], [ -100.033042907715, 22.480030059814499 ], [ -100.058471679687003, 22.470472335815501 ], [ -100.070236206055, 22.454919815063601 ], [ -100.106636047362997, 22.4416103363038 ], [ -100.12964630127, 22.463640213012798 ], [ -100.155647277832003, 22.442478179931602 ], [ -100.174575805664006, 22.438421249389801 ], [ -100.191825866699006, 22.377590179443398 ], [ -100.205642700195, 22.356319427490298 ], [ -100.229232788085994, 22.364011764526399 ], [ -100.255897521972997, 22.354860305786101 ], [ -100.283477783202997, 22.401588439941499 ], [ -100.312911987305, 22.388090133667099 ], [ -100.331047058105, 22.391059875488299 ], [ -100.34139251709, 22.366870880127099 ], [ -100.397666931152003, 22.312139511108501 ], [ -100.419509887695, 22.280300140380799 ], [ -100.439582824707003, 22.290519714355501 ], [ -100.440162658690994, 22.320289611816399 ], [ -100.464172363280994, 22.339090347290099 ], [ -100.461296081542997, 22.362079620361399 ] ] ] } },
{ "type": "Feature", "properties": { "NAME_1": "San Luis Potosí", "NAME_2": "Cerro de San Pedro" }, "geometry": { "type": "Polygon", "coordinates": [ [ [ -100.715766906737997, 22.1769695281982 ], [ -100.72737121582, 22.1497707366944 ], [ -100.751731872559006, 22.147661209106602 ], [ -100.763031005859006, 22.1297912597657 ], [ -100.797882080077997, 22.120399475097699 ], [ -100.819892883300994, 22.099229812622202 ], [ -100.843910217285, 22.187250137329201 ], [ -100.839340209960994, 22.202339172363398 ], [ -100.808120727539006, 22.230039596557599 ], [ -100.804046630859006, 22.246698379516602 ], [ -100.777496337890994, 22.240249633789102 ], [ -100.75853729248, 22.252010345459102 ], [ -100.74291229248, 22.2487201690675 ], [ -100.719299316405994, 22.2076206207275 ], [ -100.715766906737997, 22.1769695281982 ] ] ] } },
{ "type": "Feature", "properties": { "NAME_1": "San Luis Potosí", "NAME_2": "Charcas" }, "geometry": { "type": "Polygon", "coordinates": [ [ [ -100.864456176757997, 23.461900711059599 ], [ -100.864906311035, 23.3648605346681 ], [ -100.884483337402003, 23.339450836181602 ], [ -100.866828918457003, 23.2246494293213 ], [ -100.886436462402003, 23.205579757690501 ], [ -100.886627197265994, 23.1755905151368 ], [ -100.866722106934006, 23.160139083862401 ], [ -100.851760864257997, 23.127609252929801 ], [ -100.835090637207003, 23.111909866333001 ], [ -100.833076477050994, 23.071508407592699 ], [ -100.807952880859006, 23.039360046386701 ], [ -100.807685852050994, 23.008499145507901 ], [ -100.836296081542997, 23.031288146972798 ], [ -100.860168457030994, 23.025079727172901 ], [ -100.886276245117003, 23.030651092529201 ], [ -100.95189666748, 22.9911994934082 ], [ -100.987869262695, 23.013500213623001 ], [ -100.99267578125, 22.998661041259801 ], [ -101.004676818847997, 22.997840881347699 ], [ -101.048248291015994, 23.025560379028398 ], [ -101.078666687012003, 22.999080657958999 ], [ -101.09790802002, 22.993890762329201 ], [ -101.149597167969006, 22.9881782531738 ], [ -101.209251403809006, 23.0007019042969 ], [ -101.242385864257997, 22.996641159057699 ], [ -101.267677307129006, 23.007209777832099 ], [ -101.314109802245994, 23.050540924072301 ], [ -101.341972351074006, 23.059801101684599 ], [ -101.364669799805, 23.0829696655275 ], [ -101.393775939940994, 23.087450027465799 ], [ -101.425399780272997, 23.1290607452393 ], [ -101.411140441894005, 23.1605129241944 ], [ -101.380828857422003, 23.1863098144532 ], [ -101.314247131347997, 23.209470748901399 ], [ -101.304420471190994, 23.237279891967798 ], [ -101.319038391112997, 23.265697479248001 ], [ -101.238220214844006, 23.320432662963899 ], [ -101.224319458007997, 23.338941574096701 ], [ -101.210266113280994, 23.395719528198399 ], [ -101.230583190917997, 23.508939743041999 ], [ -101.219245910645, 23.5207824707031 ], [ -101.166542053222997, 23.523889541626001 ], [ -101.117347717285, 23.496940612793001 ], [ -101.027770996094006, 23.472980499267599 ], [ -100.974243164062003, 23.442529678344801 ], [ -100.948196411132997, 23.395339965820401 ], [ -100.936981201172003, 23.389041900634702 ], [ -100.918792724609006, 23.393020629882901 ], [ -100.915046691894005, 23.4374103546144 ], [ -100.904342651367003, 23.457490921020501 ], [ -100.886421203612997, 23.467149734497202 ], [ -100.864456176757997, 23.461900711059599 ] ] ] } },
{ "type": "Feature", "properties": { "NAME_1": "San Luis Potosí", "NAME_2": "Ciudad del Maíz" }, "geometry": { "type": "Polygon", "coordinates": [ [ [ -99.265792846679702, 22.187879562377901 ], [ -99.307418823242202, 22.193851470947401 ], [ -99.382156372070298, 22.163400650024499 ], [ -99.394691467285099, 22.1486206054688 ], [ -99.408058166503807, 22.154020309448399 ], [ -99.423255920410199, 22.175329208374102 ], [ -99.465797424316406, 22.1651496887207 ], [ -99.548248291015597, 22.165660858154201 ], [ -99.588600158691307, 22.151800155639599 ], [ -99.633758544921903, 22.187442779541001 ], [ -99.696937561035, 22.179082870483398 ], [ -99.745597839355497, 22.185779571533299 ], [ -99.761489868164006, 22.154300689697301 ], [ -99.751235961914105, 22.131881713867202 ], [ -99.764266967773295, 22.119279861450199 ], [ -99.829727172851605, 22.106281280517599 ], [ -99.874366760253906, 22.0879516601562 ], [ -99.907035827636705, 22.1042709350587 ], [ -99.927726745605398, 22.128179550170898 ], [ -99.911293029785099, 22.1644611358644 ], [ -99.920051574707003, 22.2216606140137 ], [ -99.914306640625, 22.2598781585694 ], [ -99.929656982421903, 22.303361892700199 ], [ -99.958419799804602, 22.3167304992675 ], [ -99.948158264160199, 22.3647575378419 ], [ -99.972007751464801, 22.452209472656399 ], [ -99.989776611328097, 22.476800918579201 ], [ -99.977378845214801, 22.514600753784201 ], [ -100.003562927245994, 22.555461883545 ], [ -100.040916442870994, 22.5471706390382 ], [ -100.064010620117003, 22.558069229126001 ], [ -100.094207763672003, 22.590248107910199 ], [ -100.097862243652003, 22.6102008819581 ], [ -100.069236755370994, 22.612060546875099 ], [ -100.015022277832003, 22.666429519653398 ], [ -100.01148223877, 22.683000564575298 ], [ -100.027816772460994, 22.701601028442401 ], [ -99.975372314453097, 22.761070251464801 ], [ -99.870117187499901, 22.734331130981602 ], [ -99.800010681152301, 22.706560134887699 ], [ -99.6650390625, 22.696630477905298 ], [ -99.581787109375, 22.669929504394499 ], [ -99.564888000488295, 22.673469543457099 ], [ -99.555496215820298, 22.68577003479 ], [ -99.557426452636705, 22.7239799499512 ], [ -99.541763305664006, 22.724399566650401 ], [ -99.508277893066307, 22.7457904815675 ], [ -99.467453002929602, 22.688261032104499 ], [ -99.393936157226506, 22.6639118194581 ], [ -99.329841613769503, 22.613719940185501 ], [ -99.305847167968807, 22.580640792846701 ], [ -99.268806457519503, 22.486991882324201 ], [ -99.204269409179602, 22.395820617675799 ], [ -99.226821899414105, 22.359680175781399 ], [ -99.265792846679702, 22.187879562377901 ] ] ] } },
{ "type": "Feature", "properties": { "NAME_1": "San Luis Potosí", "NAME_2": "Ciudad Fernández" }, "geometry": { "type": "Polygon", "coordinates": [ [ [ -100.40357208252, 21.983865737915 ], [ -100.414672851562003, 21.9623908996582 ], [ -100.457176208495994, 21.943790435791101 ], [ -100.479827880859006, 21.921739578247099 ], [ -100.512222290039006, 21.940628051757901 ], [ -100.506706237792997, 21.972370147705099 ], [ -100.483711242675994, 21.9910697937012 ], [ -100.479972839355, 22.023849487304599 ], [ -100.452461242675994, 22.045101165771602 ], [ -100.446746826172003, 22.075639724731399 ], [ -100.420356750487997, 22.081182479858501 ], [ -100.356666564940994, 22.120121002197301 ], [ -100.325538635254006, 22.0947780609131 ], [ -100.266166687012003, 22.087499618530401 ], [ -100.245635986327997, 22.0731811523438 ], [ -100.231079101562003, 22.0915203094482 ], [ -100.196617126465, 22.078029632568398 ], [ -100.099212646484006, 22.1031417846681 ], [ -99.999519348144503, 21.9845294952393 ], [ -99.993026733398395, 21.9593410491943 ], [ -100.055816650390994, 21.913030624389599 ], [ -100.086860656737997, 21.916589736938501 ], [ -100.085731506347997, 21.931840896606399 ], [ -100.05549621582, 21.950332641601602 ], [ -100.044868469237997, 21.971809387206999 ], [ -100.074890136719006, 21.978570938110401 ], [ -100.080451965332003, 21.996021270751999 ], [ -100.11075592041, 21.997760772705199 ], [ -100.133018493652003, 22.012311935424901 ], [ -100.15438079834, 22.0141410827637 ], [ -100.192459106445, 22.039651870727599 ], [ -100.259689331055, 22.057329177856399 ], [ -100.351272583007997, 22.0465202331543 ], [ -100.387992858887003, 22.057010650634801 ], [ -100.40357208252, 21.983865737915 ] ] ] } },
{ "type": "Feature", "properties": { "NAME_1": "San Luis Potosí", "NAME_2": "Ciudad Valles" }, "geometry": { "type": "Polygon", "coordinates": [ [ [ -98.937248229980497, 22.379240036010799 ], [ -98.920608520507798, 22.282159805297798 ], [ -98.919853210449205, 22.209728240966701 ], [ -98.907211303710895, 22.184640884399499 ], [ -98.908050537109304, 22.127439498901399 ], [ -98.888755798339801, 22.054679870605501 ], [ -98.887817382812401, 22.0267105102538 ], [ -98.907096862792898, 21.961900711059702 ], [ -98.837852478027301, 21.9096794128419 ], [ -98.843620300292997, 21.902980804443501 ], [ -98.829887390136705, 21.8914508819581 ], [ -98.834815979003807, 21.871200561523501 ], [ -98.826210021972599, 21.861749649048001 ], [ -98.902320861816307, 21.791339874267599 ], [ -98.927375793457003, 21.785350799560501 ], [ -98.939002990722699, 21.765811920166101 ], [ -98.986846923828097, 21.758251190185501 ], [ -99.016746520995994, 21.878900527954201 ], [ -99.055389404296804, 21.8791408538819 ], [ -99.068176269531193, 21.8661594390869 ], [ -99.081581115722699, 21.8643398284913 ], [ -99.109519958496094, 21.869340896606499 ], [ -99.138282775878906, 21.938539505004901 ], [ -99.149017333984304, 22.002029418945401 ], [ -99.163497924804702, 22.0169601440431 ], [ -99.168876647949205, 22.048521041870199 ], [ -99.182762145996094, 22.049381256103501 ], [ -99.229606628417898, 22.0265007019044 ], [ -99.287216186523395, 22.045942306518601 ], [ -99.251396179199205, 22.0805397033693 ], [ -99.250717163085895, 22.099880218505898 ], [ -99.260246276855398, 22.1159782409669 ], [ -99.249160766601506, 22.134159088134901 ], [ -99.265922546386705, 22.173360824585 ], [ -99.265228271484403, 22.1951293945312 ], [ -99.226821899414105, 22.359680175781399 ], [ -99.204269409179602, 22.395820617675799 ], [ -99.171722412109304, 22.379869461059599 ], [ -99.111396789550795, 22.389400482177699 ], [ -99.031700134277301, 22.374942779541001 ], [ -98.937248229980497, 22.379240036010799 ] ] ] } },
{ "type": "Feature", "properties": { "NAME_1": "San Luis Potosí", "NAME_2": "Coxcatlán" }, "geometry": { "type": "Polygon", "coordinates": [ [ [ -98.975448608398395, 21.5204696655275 ], [ -98.975875854492202, 21.548999786377099 ], [ -98.958312988281193, 21.5695095062256 ], [ -98.959686279296903, 21.6014518737794 ], [ -98.864097595214801, 21.604629516601602 ], [ -98.861976623535099, 21.572950363159201 ], [ -98.872657775878807, 21.5259609222413 ], [ -98.925559997558594, 21.532020568847699 ], [ -98.975448608398395, 21.5204696655275 ] ] ] } },
{ "type": "Feature", "properties": { "NAME_1": "San Luis Potosí", "NAME_2": "Ebano" }, "geometry": { "type": "Polygon", "coordinates": [ [ [ -98.539260864257798, 21.9640827178956 ], [ -98.6196670532225, 22.1037406921387 ], [ -98.643272399902301, 22.159200668335099 ], [ -98.663612365722599, 22.178260803222699 ], [ -98.696395874023395, 22.192489624023398 ], [ -98.715591430664006, 22.2471599578857 ], [ -98.732421875, 22.2506198883057 ], [ -98.727027893066307, 22.289831161499102 ], [ -98.699645996093693, 22.338640213012699 ], [ -98.682746887207003, 22.329759597778398 ], [ -98.584266662597599, 22.330869674682699 ], [ -98.449211120605398, 22.2982711791993 ], [ -98.407142639160199, 22.2796306610107 ], [ -98.381210327148395, 22.252628326416101 ], [ -98.363151550292997, 22.178310394287099 ], [ -98.342910766601406, 22.158920288085898 ], [ -98.333381652832003, 22.1202125549318 ], [ -98.374046325683594, 22.114089965820298 ], [ -98.417861938476506, 22.122020721435501 ], [ -98.4490966796875, 22.111991882324201 ], [ -98.463951110839801, 22.094419479370099 ], [ -98.476799011230398, 22.091611862182699 ], [ -98.464347839355497, 21.996620178222699 ], [ -98.4686279296875, 21.9774494171143 ], [ -98.490951538085895, 21.961429595947301 ], [ -98.539260864257798, 21.9640827178956 ] ] ] } },
{ "type": "Feature", "properties": { "NAME_1": "San Luis Potosí", "NAME_2": "Guadalcazar" }, "geometry": { "type": "Polygon", "coordinates": [ [ [ -100.097869873047003, 22.608150482177798 ], [ -100.148376464844006, 22.552240371703999 ], [ -100.290588378905994, 22.521448135376001 ], [ -100.304145812987997, 22.549690246582099 ], [ -100.354438781737997, 22.542329788208001 ], [ -100.423561096190994, 22.552679061889801 ], [ -100.442207336425994, 22.534980773925898 ], [ -100.498428344727003, 22.5566005706788 ], [ -100.546989440917997, 22.5435504913331 ], [ -100.560546875, 22.576791763305799 ], [ -100.583671569824006, 22.5776596069337 ], [ -100.588310241699006, 22.679460525512599 ], [ -100.561576843262003, 22.719020843505898 ], [ -100.566383361815994, 22.790420532226499 ], [ -100.539962768555, 22.808429718017699 ], [ -100.517646789550994, 22.9276218414307 ], [ -100.523590087890994, 22.964628219604499 ], [ -100.502182006835994, 22.9858703613282 ], [ -100.552017211914006, 23.203210830688398 ], [ -100.457946777344006, 23.1956996917725 ], [ -100.435676574707003, 23.208032608032202 ], [ -100.401298522949006, 23.1861495971681 ], [ -100.356056213379006, 23.173120498657202 ], [ -100.324920654297003, 23.219230651855501 ], [ -100.268501281737997, 23.276720046997099 ], [ -100.122932434082003, 23.2504997253419 ], [ -100.087760925292997, 23.225349426269499 ], [ -100.075347900390994, 23.133268356323399 ], [ -100.034187316895, 23.104131698608299 ], [ -100.014869689940994, 23.061740875244102 ], [ -100.029357910155994, 22.9534206390382 ], [ -100.019096374512003, 22.817180633545 ], [ -100.006416320800994, 22.784530639648398 ], [ -99.975372314453097, 22.761070251464801 ], [ -100.027816772460994, 22.701601028442401 ], [ -100.01148223877, 22.683000564575298 ], [ -100.015022277832003, 22.666429519653398 ], [ -100.069236755370994, 22.612060546875099 ], [ -100.097869873047003, 22.608150482177798 ] ] ] } },
{ "type": "Feature", "properties": { "NAME_1": "San Luis Potosí", "NAME_2": "Huehuetlán" }, "geometry": { "type": "Polygon", "coordinates": [ [ [ -99.009178161621094, 21.494499206543001 ], [ -99.033081054687401, 21.503879547119102 ], [ -99.056076049804702, 21.550460815429702 ], [ -99.084609985351605, 21.547269821166999 ], [ -99.099281311035199, 21.5637111663819 ], [ -99.032447814941406, 21.604730606079102 ], [ -98.994636535644503, 21.5967102050782 ], [ -98.959686279296903, 21.6014518737794 ], [ -98.958312988281193, 21.5695095062256 ], [ -98.975875854492202, 21.548999786377099 ], [ -98.975448608398395, 21.5204696655275 ], [ -99.009178161621094, 21.494499206543001 ] ] ] } },
{ "type": "Feature", "properties": { "NAME_1": "San Luis Potosí", "NAME_2": "Lagunillas" }, "geometry": { "type": "Polygon", "coordinates": [ [ [ -99.497695922851506, 21.697170257568501 ], [ -99.507942199707003, 21.644269943237301 ], [ -99.475860595703097, 21.537490844726602 ], [ -99.479881286620994, 21.510560989379901 ], [ -99.427032470703097, 21.458879470825298 ], [ -99.495117187499901, 21.4416408538819 ], [ -99.594642639160199, 21.450691223144499 ], [ -99.619689941406094, 21.475009918212798 ], [ -99.647636413574205, 21.552860260009801 ], [ -99.681381225585895, 21.5761108398438 ], [ -99.717269897460895, 21.584978103637798 ], [ -99.727935791015597, 21.610490798950298 ], [ -99.788436889648395, 21.641281127929702 ], [ -99.801033020019503, 21.6717128753662 ], [ -99.784278869628807, 21.707809448242099 ], [ -99.760848999023395, 21.716630935668899 ], [ -99.733268737792898, 21.694049835205099 ], [ -99.700500488281193, 21.693809509277401 ], [ -99.668586730957003, 21.6598396301269 ], [ -99.652702331542997, 21.682939529418999 ], [ -99.621139526367202, 21.6863098144531 ], [ -99.5672607421875, 21.713020324706999 ], [ -99.559356689453097, 21.731969833374102 ], [ -99.532752990722699, 21.737331390380898 ], [ -99.521148681640597, 21.731920242309599 ], [ -99.497695922851506, 21.697170257568501 ] ] ] } },
{ "type": "Feature", "properties": { "NAME_1": "San Luis Potosí", "NAME_2": "Matehuala" }, "geometry": { "type": "Polygon", "coordinates": [ [ [ -100.552017211914006, 23.203210830688398 ], [ -100.594383239745994, 23.206720352172901 ], [ -100.617042541504006, 23.2169494628906 ], [ -100.653411865234006, 23.2417812347413 ], [ -100.661422729492003, 23.263469696045 ], [ -100.67610168457, 23.266740798950199 ], [ -100.681617736815994, 23.288000106811499 ], [ -100.670455932617003, 23.3060111999513 ], [ -100.675247192382997, 23.329090118408299 ], [ -100.663101196289006, 23.3448295593262 ], [ -100.661041259765994, 23.4103603363038 ], [ -100.647163391112997, 23.425420761108501 ], [ -100.651672363280994, 23.4351406097413 ], [ -100.68229675293, 23.4433307647706 ], [ -100.70491027832, 23.501031875610401 ], [ -100.706268310547003, 23.5300598144532 ], [ -100.722557067870994, 23.560609817505 ], [ -100.698722839355, 23.6238403320313 ], [ -100.672592163085994, 23.624179840088001 ], [ -100.654685974120994, 23.678480148315401 ], [ -100.65796661377, 23.688230514526399 ], [ -100.685897827147997, 23.699480056762798 ], [ -100.679016113280994, 23.716760635376001 ], [ -100.646446228027003, 23.7227497100831 ], [ -100.62223815918, 23.709430694580199 ], [ -100.608695983887003, 23.689050674438501 ], [ -100.589790344237997, 23.689310073852599 ], [ -100.582908630370994, 23.7081394195557 ], [ -100.593528747559006, 23.740331649780298 ], [ -100.587211608887003, 23.766410827636701 ], [ -100.540306091309006, 23.7476100921632 ], [ -100.515892028809006, 23.788499832153398 ], [ -100.487106323242003, 23.7506427764893 ], [ -100.482376098632997, 23.7175903320312 ], [ -100.498710632324006, 23.624139785766701 ], [ -100.522872924805, 23.569789886474702 ], [ -100.528541564940994, 23.511299133300799 ], [ -100.508003234862997, 23.464420318603501 ], [ -100.511177062987997, 23.421369552612301 ], [ -100.498260498047003, 23.3843994140625 ], [ -100.495040893555, 23.303659439086999 ], [ -100.468650817870994, 23.239990234375 ], [ -100.435676574707003, 23.208032608032202 ], [ -100.457946777344006, 23.1956996917725 ], [ -100.552017211914006, 23.203210830688398 ] ] ] } },
{ "type": "Feature", "properties": { "NAME_1": "San Luis Potosí", "NAME_2": "Mexquitic de Carmona" }, "geometry": { "type": "Polygon", "coordinates": [ [ [ -101.13688659668, 22.440790176391701 ], [ -101.099868774414006, 22.446699142456101 ], [ -101.080688476562003, 22.405540466308601 ], [ -101.063667297362997, 22.390079498291101 ], [ -101.058135986327997, 22.366960525512798 ], [ -101.030830383300994, 22.3441696166993 ], [ -101.011459350585994, 22.243951797485501 ], [ -101.041526794434006, 22.190450668335099 ], [ -101.040367126465, 22.165901184082099 ], [ -101.064598083495994, 22.1398010253907 ], [ -101.09317779541, 22.142322540283299 ], [ -101.113861083984006, 22.130420684814499 ], [ -101.147796630859006, 22.131111145019499 ], [ -101.17147064209, 22.098718643188501 ], [ -101.204292297362997, 22.1104507446288 ], [ -101.243278503417997, 22.102830886840898 ], [ -101.255577087402003, 22.121650695800898 ], [ -101.283737182617003, 22.128320693969801 ], [ -101.360603332519005, 22.1302604675294 ], [ -101.369911193847997, 22.174789428710898 ], [ -101.415252685547003, 22.255880355835099 ], [ -101.39737701416, 22.313819885253899 ], [ -101.364639282227003, 22.303859710693398 ], [ -101.334030151367003, 22.2811794281006 ], [ -101.307998657227003, 22.2771606445312 ], [ -101.295112609862997, 22.2958698272706 ], [ -101.317611694335994, 22.3219890594482 ], [ -101.314109802245994, 22.333150863647599 ], [ -101.267532348632997, 22.330852508544901 ], [ -101.237358093262003, 22.3096408843994 ], [ -101.214385986327997, 22.315280914306701 ], [ -101.198677062987997, 22.3527526855469 ], [ -101.170257568359006, 22.3637313842775 ], [ -101.143096923827997, 22.402940750122099 ], [ -101.13688659668, 22.440790176391701 ] ] ] } },
{ "type": "Feature", "properties": { "NAME_1": "San Luis Potosí", "NAME_2": "Moctezuma" }, "geometry": { "type": "Polygon", "coordinates": [ [ [ -101.508712768555, 22.610059738159201 ], [ -101.520530700684006, 22.625770568847798 ], [ -101.52758026123, 22.676771163940501 ], [ -101.522315979004006, 22.730730056762798 ], [ -101.46703338623, 22.802049636840898 ], [ -101.451232910155994, 22.8341808319093 ], [ -101.424118041992003, 22.836730957031399 ], [ -101.391555786132997, 22.8643398284913 ], [ -101.299667358397997, 22.853651046753001 ], [ -101.277732849120994, 22.8377990722657 ], [ -101.232192993164006, 22.772701263427798 ], [ -101.197189331055, 22.8036708831788 ], [ -101.128562927245994, 22.8067817687988 ], [ -101.015518188477003, 22.7953395843506 ], [ -100.952789306640994, 22.805730819702202 ], [ -100.878776550292997, 22.781141281128001 ], [ -100.860122680664006, 22.783241271972699 ], [ -100.830383300780994, 22.7439708709718 ], [ -100.836853027344006, 22.735469818115298 ], [ -100.886840820312003, 22.726049423217901 ], [ -100.908943176269005, 22.7345600128175 ], [ -100.922370910645, 22.73118019104 ], [ -100.963493347167997, 22.681930541992202 ], [ -100.96630859375, 22.647569656372202 ], [ -101.000816345215, 22.630460739135799 ], [ -101.014945983887003, 22.608659744262798 ], [ -101.0625, 22.596870422363299 ], [ -101.08748626709, 22.580858230590799 ], [ -101.097938537597997, 22.564582824706999 ], [ -101.089378356934006, 22.542392730712901 ], [ -101.098281860352003, 22.536819458007901 ], [ -101.170196533202997, 22.529800415039102 ], [ -101.196662902832003, 22.551498413086001 ], [ -101.217300415039006, 22.6060600280763 ], [ -101.263748168945, 22.620252609252901 ], [ -101.281578063965, 22.612287521362301 ], [ -101.354522705077997, 22.6993103027344 ], [ -101.383087158202997, 22.697639465332099 ], [ -101.441566467285, 22.671550750732401 ], [ -101.508712768555, 22.610059738159201 ] ] ] } },
{ "type": "Feature", "properties": { "NAME_1": "San Luis Potosí", "NAME_2": "Pinos" }, "geometry": { "type": "Polygon", "coordinates": [ [ [ -101.37467956543, 22.0665702819825 ], [ -101.37092590332, 22.0489692687988 ], [ -101.389602661132997, 22.0417499542237 ], [ -101.396621704102003, 22.0595111846925 ], [ -101.390396118164006, 22.067590713501001 ], [ -101.37467956543, 22.0665702819825 ] ] ] } },
{ "type": "Feature", "properties": { "NAME_1": "San Luis Potosí", "NAME_2": "Rayón" }, "geometry": { "type": "Polygon", "coordinates": [ [ [ -99.784278869628807, 21.707809448242099 ], [ -99.750480651855497, 21.783870697021499 ], [ -99.773208618164006, 21.8212604522706 ], [ -99.773910522460895, 21.850389480590799 ], [ -99.783050537109304, 21.856010437011701 ], [ -99.768608093261705, 21.885690689086999 ], [ -99.769943237304702, 21.929140090942401 ], [ -99.758766174316406, 21.954919815063501 ], [ -99.747146606445298, 21.948179244995199 ], [ -99.705879211425696, 21.952560424804702 ], [ -99.670227050781193, 21.940059661865199 ], [ -99.614875793457003, 21.9381198883057 ], [ -99.597946166992102, 21.941850662231602 ], [ -99.553932189941406, 21.9769001007081 ], [ -99.522819519042997, 21.985019683838001 ], [ -99.507759094238295, 21.976451873779201 ], [ -99.480476379394503, 21.9237880706788 ], [ -99.430679321289105, 21.914659500122099 ], [ -99.429168701171903, 21.893049240112401 ], [ -99.444442749023395, 21.8791007995606 ], [ -99.450401306152301, 21.854730606079102 ], [ -99.460327148437401, 21.854000091552699 ], [ -99.469650268554602, 21.864660263061602 ], [ -99.482742309570199, 21.846849441528398 ], [ -99.490592956542997, 21.807439804077202 ], [ -99.504898071289105, 21.790519714355501 ], [ -99.501815795898295, 21.754331588745099 ], [ -99.5155029296875, 21.7276210784912 ], [ -99.529281616210795, 21.737119674682699 ], [ -99.559356689453097, 21.731969833374102 ], [ -99.5672607421875, 21.713020324706999 ], [ -99.628120422363295, 21.683540344238398 ], [ -99.652702331542997, 21.682939529418999 ], [ -99.668586730957003, 21.6598396301269 ], [ -99.702972412109403, 21.695159912109499 ], [ -99.733268737792898, 21.694049835205099 ], [ -99.760848999023395, 21.716630935668899 ], [ -99.784278869628807, 21.707809448242099 ] ] ] } },
{ "type": "Feature", "properties": { "NAME_1": "San Luis Potosí", "NAME_2": "Rioverde" }, "geometry": { "type": "Polygon", "coordinates": [ [ [ -100.223739624022997, 21.608129501342798 ], [ -100.179626464844006, 21.669431686401399 ], [ -100.177841186522997, 21.724760055541999 ], [ -100.21216583252, 21.773780822753999 ], [ -100.218643188477003, 21.800561904907202 ], [ -100.238487243652003, 21.8312892913819 ], [ -100.283386230469006, 21.868089675903299 ], [ -100.30744934082, 21.9033107757568 ], [ -100.323188781737997, 21.893569946289201 ], [ -100.345748901367003, 21.929700851440501 ], [ -100.389671325684006, 21.9394226074219 ], [ -100.40357208252, 21.983865737915 ], [ -100.394760131835994, 22.0489597320557 ], [ -100.380760192870994, 22.058679580688501 ], [ -100.351272583007997, 22.0465202331543 ], [ -100.243537902832003, 22.055471420288001 ], [ -100.184028625487997, 22.036100387573299 ], [ -100.15438079834, 22.0141410827637 ], [ -100.133018493652003, 22.012311935424901 ], [ -100.11075592041, 21.997760772705199 ], [ -100.080451965332003, 21.996021270751999 ], [ -100.074890136719006, 21.978570938110401 ], [ -100.043159484862997, 21.9681911468506 ], [ -100.090270996094006, 21.923610687256001 ], [ -100.068267822265994, 21.9108581542969 ], [ -100.034103393555, 21.924608230590898 ], [ -99.994293212890497, 21.956832885742202 ], [ -99.999519348144503, 21.9845294952393 ], [ -100.099212646484006, 22.1031417846681 ], [ -100.196617126465, 22.078029632568398 ], [ -100.231079101562003, 22.0915203094482 ], [ -100.245635986327997, 22.0731811523438 ], [ -100.266166687012003, 22.087499618530401 ], [ -100.325538635254006, 22.0947780609131 ], [ -100.346519470215, 22.115909576416001 ], [ -100.272239685059006, 22.139940261840898 ], [ -100.226539611815994, 22.1327095031738 ], [ -100.177223205565994, 22.1459693908693 ], [ -100.165702819824006, 22.156999588012798 ], [ -100.132736206055, 22.2098503112794 ], [ -100.12712097168, 22.265119552612301 ], [ -100.076812744140994, 22.2783527374268 ], [ -100.0634765625, 22.297338485717798 ], [ -100.056129455565994, 22.320127487182699 ], [ -100.058952331542997, 22.3432712554932 ], [ -100.038192749022997, 22.3657417297363 ], [ -100.06005859375, 22.467100143432599 ], [ -100.029556274414006, 22.4793815612794 ], [ -99.986602783203097, 22.4679698944093 ], [ -99.972007751464801, 22.452209472656399 ], [ -99.947448730468693, 22.3588600158693 ], [ -99.958419799804602, 22.3167304992675 ], [ -99.929656982421903, 22.303361892700199 ], [ -99.915977478027301, 22.268720626831101 ], [ -99.920051574707003, 22.2216606140137 ], [ -99.910720825195298, 22.171741485595799 ], [ -99.927726745605398, 22.128179550170898 ], [ -99.923820495605497, 22.119350433349599 ], [ -99.868713378906193, 22.082540512085099 ], [ -99.845993041992102, 21.980182647705099 ], [ -99.765716552734403, 21.980802536010799 ], [ -99.756347656249901, 21.974269866943398 ], [ -99.769943237304702, 21.929140090942401 ], [ -99.768608093261705, 21.885690689086999 ], [ -99.783050537109304, 21.856010437011701 ], [ -99.773910522460895, 21.850389480590799 ], [ -99.773208618164006, 21.8212604522706 ], [ -99.750480651855497, 21.783870697021499 ], [ -99.762268066406193, 21.747129440307699 ], [ -99.800956726074205, 21.679000854492099 ], [ -99.831275939941307, 21.6762580871582 ], [ -99.852287292480398, 21.686351776123001 ], [ -99.850669860839702, 21.724840164184599 ], [ -99.882362365722699, 21.733921051025401 ], [ -99.900802612304602, 21.702802658081001 ], [ -99.929046630859304, 21.686170578003001 ], [ -99.945449829101506, 21.6361598968506 ], [ -99.981178283691406, 21.6155796051025 ], [ -99.998527526855497, 21.619979858398501 ], [ -100.025299072265994, 21.673698425293001 ], [ -100.041915893555, 21.676500320434599 ], [ -100.083106994629006, 21.6314811706543 ], [ -100.139366149902003, 21.620670318603601 ], [ -100.169448852539006, 21.575769424438501 ], [ -100.185859680175994, 21.579048156738398 ], [ -100.223739624022997, 21.608129501342798 ] ] ] } },
{ "type": "Feature", "properties": { "NAME_1": "San Luis Potosí", "NAME_2": "Salinas" }, "geometry": { "type": "Polygon", "coordinates": [ [ [ -101.819450378417997, 22.493209838867301 ], [ -101.858406066894005, 22.550090789795 ], [ -101.89518737793, 22.624679565429702 ], [ -101.886695861815994, 22.634702682495199 ], [ -101.878295898437997, 22.685329437255898 ], [ -101.90453338623, 22.723131179809499 ], [ -101.908988952637003, 22.743698120117202 ], [ -101.863990783690994, 22.7588005065919 ], [ -101.844223022460994, 22.789899826049901 ], [ -101.818283081055, 22.793600082397599 ], [ -101.808158874512003, 22.825151443481602 ], [ -101.788391113280994, 22.835750579833999 ], [ -101.758758544922003, 22.876939773559599 ], [ -101.72144317627, 22.881391525268601 ], [ -101.678932189940994, 22.8660411834718 ], [ -101.664596557617003, 22.8518791198732 ], [ -101.649780273437997, 22.8131427764894 ], [ -101.634979248047003, 22.8094196319581 ], [ -101.607330322265994, 22.884710311889702 ], [ -101.573028564452997, 22.909498214721701 ], [ -101.553802490234006, 22.9580612182618 ], [ -101.592323303222997, 22.966030120849599 ], [ -101.617538452147997, 22.987440109252901 ], [ -101.64673614502, 23.0294609069825 ], [ -101.652938842772997, 23.043720245361399 ], [ -101.616462707519005, 23.095960617065401 ], [ -101.623413085937997, 23.114538192749102 ], [ -101.561225891112997, 23.1523628234863 ], [ -101.51505279541, 23.162372589111399 ], [ -101.491149902344006, 23.187032699585 ], [ -101.460289001465, 23.184570312500099 ], [ -101.39476776123, 23.0913200378418 ], [ -101.385597229004006, 23.0064182281494 ], [ -101.399147033690994, 22.985900878906399 ], [ -101.457122802734006, 22.9841995239257 ], [ -101.468215942382997, 22.975990295410298 ], [ -101.451232910155994, 22.8341808319093 ], [ -101.525787353515994, 22.721620559692401 ], [ -101.522003173827997, 22.633510589599702 ], [ -101.508712768555, 22.610059738159201 ], [ -101.559089660645, 22.5636711120607 ], [ -101.600151062012003, 22.511550903320401 ], [ -101.619049072265994, 22.500160217285199 ], [ -101.760192871094006, 22.4675827026368 ], [ -101.788841247559006, 22.4705505371093 ], [ -101.819450378417997, 22.493209838867301 ] ] ] } },
{ "type": "Feature", "properties": { "NAME_1": "San Luis Potosí", "NAME_2": "San Antonio" }, "geometry": { "type": "Polygon", "coordinates": [ [ [ -98.8524169921875, 21.629512786865199 ], [ -98.856269836425696, 21.639778137206999 ], [ -98.886787414550696, 21.632560729980501 ], [ -98.923637390136705, 21.636280059814499 ], [ -98.943710327148395, 21.6550197601319 ], [ -98.945198059082003, 21.677820205688501 ], [ -98.902427673339801, 21.694160461425799 ], [ -98.892562866210895, 21.669967651367202 ], [ -98.877746582031193, 21.665830612182599 ], [ -98.864456176757798, 21.681079864501999 ], [ -98.827362060546804, 21.6993427276612 ], [ -98.820236206054702, 21.694669723510799 ], [ -98.820007324218693, 21.67160987854 ], [ -98.779296874999901, 21.682430267333999 ], [ -98.759078979492102, 21.677150726318501 ], [ -98.747436523437401, 21.657062530517599 ], [ -98.8524169921875, 21.629512786865199 ] ] ] } },
{ "type": "Feature", "properties": { "NAME_1": "San Luis Potosí", "NAME_2": "San Ciro de Acosta" }, "geometry": { "type": "Polygon", "coordinates": [ [ [ -100.169448852539006, 21.575769424438501 ], [ -100.139366149902003, 21.620670318603601 ], [ -100.083106994629006, 21.6314811706543 ], [ -100.041915893555, 21.676500320434599 ], [ -100.025299072265994, 21.673698425293001 ], [ -99.991127014160099, 21.6139011383057 ], [ -99.969436645507798, 21.621379852295 ], [ -99.945449829101506, 21.6361598968506 ], [ -99.929046630859304, 21.686170578003001 ], [ -99.900802612304602, 21.702802658081001 ], [ -99.882362365722699, 21.733921051025401 ], [ -99.850669860839702, 21.724840164184599 ], [ -99.852287292480398, 21.686351776123001 ], [ -99.831275939941307, 21.6762580871582 ], [ -99.800956726074205, 21.679000854492099 ], [ -99.788436889648395, 21.641281127929702 ], [ -99.727935791015597, 21.610490798950298 ], [ -99.717269897460895, 21.584978103637798 ], [ -99.752647399902301, 21.582149505615298 ], [ -99.756652832031193, 21.570930480957099 ], [ -99.747489929199205, 21.547121047973601 ], [ -99.801406860351605, 21.5417594909669 ], [ -99.802917480468807, 21.5271511077881 ], [ -99.781570434570298, 21.5146999359132 ], [ -99.794998168945298, 21.5053806304932 ], [ -99.840248107910099, 21.4809799194337 ], [ -99.896156311035099, 21.4646110534669 ], [ -99.951820373535099, 21.466451644897599 ], [ -99.975158691406193, 21.4981994628906 ], [ -99.994056701660199, 21.4776000976562 ], [ -100.061172485352003, 21.468942642211999 ], [ -100.131942749022997, 21.548820495605501 ], [ -100.15357208252, 21.5477504730225 ], [ -100.169448852539006, 21.575769424438501 ] ] ] } },
{ "type": "Feature", "properties": { "NAME_1": "San Luis Potosí", "NAME_2": "San Luis Potosí" }, "geometry": { "type": "Polygon", "coordinates": [ [ [ -101.13688659668, 22.440790176391701 ], [ -101.144866943359006, 22.466190338134801 ], [ -101.138847351074006, 22.520420074463001 ], [ -101.130966186522997, 22.5371208190919 ], [ -101.092185974120994, 22.539398193359499 ], [ -101.096656799315994, 22.569829940796001 ], [ -101.068618774414006, 22.594289779663001 ], [ -101.01212310791, 22.6114311218262 ], [ -100.971496582030994, 22.573389053344801 ], [ -100.943969726562003, 22.559280395507798 ], [ -100.951232910155994, 22.542800903320401 ], [ -100.930519104004006, 22.503152847290099 ], [ -100.927146911620994, 22.477300643921001 ], [ -100.857711791992003, 22.3890781402588 ], [ -100.882202148437997, 22.362712860107401 ], [ -100.909568786620994, 22.353101730346701 ], [ -100.911437988280994, 22.326259613037099 ], [ -100.928207397460994, 22.299800872802699 ], [ -100.965087890625, 22.188169479370199 ], [ -100.953765869140994, 22.171329498291101 ], [ -100.920631408690994, 22.1485805511475 ], [ -100.866355895995994, 22.131790161132901 ], [ -100.830848693847997, 22.131219863891701 ], [ -100.813583374022997, 22.074171066284201 ], [ -100.81566619873, 22.057991027831999 ], [ -100.868186950684006, 22.0417804718019 ], [ -100.897178649902003, 22.012939453125099 ], [ -100.941528320312003, 21.991041183471701 ], [ -101.036331176757997, 22.0151081085206 ], [ -101.05753326416, 22.033411026001101 ], [ -101.065483093262003, 22.033279418945401 ], [ -101.06999206543, 22.0058898925782 ], [ -101.132011413574006, 21.987880706787202 ], [ -101.15291595459, 22.0024108886719 ], [ -101.195739746094006, 22.002590179443299 ], [ -101.201683044434006, 22.013919830322301 ], [ -101.176643371582003, 22.040599822998001 ], [ -101.187797546387003, 22.064620971679801 ], [ -101.151123046875, 22.128339767456101 ], [ -101.113861083984006, 22.130420684814499 ], [ -101.09317779541, 22.142322540283299 ], [ -101.059455871582003, 22.1421508789062 ], [ -101.038818359375, 22.168430328369201 ], [ -101.041526794434006, 22.190450668335099 ], [ -101.011741638184006, 22.2405395507812 ], [ -101.034126281737997, 22.352300643920898 ], [ -101.058135986327997, 22.366960525512798 ], [ -101.063667297362997, 22.390079498291101 ], [ -101.080688476562003, 22.405540466308601 ], [ -101.099868774414006, 22.446699142456101 ], [ -101.13688659668, 22.440790176391701 ] ] ] } },
{ "type": "Feature", "properties": { "NAME_1": "San Luis Potosí", "NAME_2": "San Martín Chalchicuautla" }, "geometry": { "type": "Polygon", "coordinates": [ [ [ -98.711639404296903, 21.244970321655298 ], [ -98.719329833984403, 21.2322711944581 ], [ -98.731208801269503, 21.2381706237793 ], [ -98.762878417968693, 21.2853603363038 ], [ -98.722923278808494, 21.352359771728601 ], [ -98.729026794433494, 21.3585529327393 ], [ -98.746887207031094, 21.3538208007812 ], [ -98.727966308593807, 21.409950256347699 ], [ -98.730041503906193, 21.424129486083999 ], [ -98.746292114257798, 21.430351257324201 ], [ -98.746696472167898, 21.438579559326101 ], [ -98.712303161621094, 21.46150970459 ], [ -98.695411682128906, 21.5764904022218 ], [ -98.611778259277301, 21.580158233642599 ], [ -98.587997436523395, 21.5376911163331 ], [ -98.552398681640597, 21.542299270629801 ], [ -98.541267395019503, 21.536359786987401 ], [ -98.535980224609403, 21.410989761352599 ], [ -98.591148376464801, 21.415870666503999 ], [ -98.608230590820298, 21.4080410003663 ], [ -98.665977478027301, 21.342710494995099 ], [ -98.711639404296903, 21.244970321655298 ] ] ] } },
{ "type": "Feature", "properties": { "NAME_1": "San Luis Potosí", "NAME_2": "San Nicolás Tolentino" }, "geometry": { "type": "Polygon", "coordinates": [ [ [ -100.512222290039006, 21.940628051757901 ], [ -100.529731750487997, 21.922971725463899 ], [ -100.572761535644005, 21.917659759521602 ], [ -100.529098510742003, 22.002799987793001 ], [ -100.54662322998, 22.051700592041101 ], [ -100.574630737305, 22.0629596710206 ], [ -100.602638244629006, 22.108310699462901 ], [ -100.57266998291, 22.129369735717798 ], [ -100.576736450195, 22.15092086792 ], [ -100.585388183594006, 22.160591125488398 ], [ -100.618377685547003, 22.169050216674901 ], [ -100.591331481934006, 22.2009811401368 ], [ -100.582672119140994, 22.232679367065401 ], [ -100.493125915527003, 22.279890060424901 ], [ -100.459815979004006, 22.276649475097699 ], [ -100.440322875977003, 22.292560577392599 ], [ -100.423477172852003, 22.280941009521499 ], [ -100.383003234862997, 22.273679733276399 ], [ -100.367706298827997, 22.252950668335 ], [ -100.336151123047003, 22.246940612793001 ], [ -100.321678161620994, 22.255060195923001 ], [ -100.316596984862997, 22.2335300445557 ], [ -100.346878051757997, 22.170232772827301 ], [ -100.357650756835994, 22.123052597045898 ], [ -100.420356750487997, 22.081182479858501 ], [ -100.446746826172003, 22.075639724731399 ], [ -100.452461242675994, 22.045101165771602 ], [ -100.479972839355, 22.023849487304599 ], [ -100.483711242675994, 21.9910697937012 ], [ -100.506706237792997, 21.972370147705099 ], [ -100.512222290039006, 21.940628051757901 ] ] ] } },
{ "type": "Feature", "properties": { "NAME_1": "San Luis Potosí", "NAME_2": "San Vicente Tancuayalab" }, "geometry": { "type": "Polygon", "coordinates": [ [ [ -98.759078979492102, 21.677150726318501 ], [ -98.759407043457003, 21.691289901733501 ], [ -98.741943359375, 21.725650787353501 ], [ -98.686515808105398, 21.748680114746101 ], [ -98.662567138671804, 21.7870903015137 ], [ -98.687629699707003, 21.844221115112401 ], [ -98.711036682128906, 21.874151229858501 ], [ -98.741836547851605, 21.8855495452881 ], [ -98.748573303222599, 21.903081893920898 ], [ -98.699958801269503, 21.912860870361399 ], [ -98.659400939941307, 21.909509658813501 ], [ -98.588478088378807, 21.957511901855501 ], [ -98.573165893554702, 21.941659927368299 ], [ -98.528152465820298, 21.941440582275401 ], [ -98.519783020019503, 21.929700851440501 ], [ -98.527061462402301, 21.907060623168999 ], [ -98.534736633300795, 21.905899047851602 ], [ -98.541282653808594, 21.929700851440501 ], [ -98.550926208496094, 21.9256896972656 ], [ -98.535636901855398, 21.907712936401399 ], [ -98.548545837402301, 21.890230178833001 ], [ -98.542648315429702, 21.865850448608501 ], [ -98.518722534179702, 21.8392009735107 ], [ -98.500656127929702, 21.843160629272599 ], [ -98.499465942382798, 21.825351715088001 ], [ -98.460212707519403, 21.801481246948299 ], [ -98.455558776855497, 21.780029296875099 ], [ -98.479789733886705, 21.7777404785157 ], [ -98.490959167480497, 21.758050918579102 ], [ -98.520393371582003, 21.754259109497099 ], [ -98.535285949707003, 21.720880508422901 ], [ -98.5552978515625, 21.730791091918899 ], [ -98.571868896484304, 21.728389739990298 ], [ -98.569442749023395, 21.704029083252099 ], [ -98.579101562499901, 21.696720123291101 ], [ -98.619636535644503, 21.701940536499102 ], [ -98.623870849609403, 21.6874103546144 ], [ -98.631576538085895, 21.687219619751101 ], [ -98.650772094726605, 21.696269989013601 ], [ -98.670646667480497, 21.6879997253419 ], [ -98.694801330566307, 21.695739746093899 ], [ -98.742752075195298, 21.656410217285199 ], [ -98.759078979492102, 21.677150726318501 ] ] ] } },
{ "type": "Feature", "properties": { "NAME_1": "San Luis Potosí", "NAME_2": "Santa Catarina" }, "geometry": { "type": "Polygon", "coordinates": [ [ [ -99.497695922851506, 21.697170257568501 ], [ -99.436988830566406, 21.7129001617432 ], [ -99.374786376952997, 21.708330154418999 ], [ -99.349403381347599, 21.694950103759801 ], [ -99.279457092285199, 21.6951198577882 ], [ -99.222518920898395, 21.644599914550799 ], [ -99.233856201171903, 21.628181457519599 ], [ -99.268646240234403, 21.619230270385899 ], [ -99.262886047363196, 21.579341888427699 ], [ -99.276206970214801, 21.5654106140138 ], [ -99.298149108886705, 21.5549011230469 ], [ -99.329650878906193, 21.5641708374025 ], [ -99.348007202148395, 21.5564498901368 ], [ -99.3834228515625, 21.4575004577637 ], [ -99.397315979003906, 21.446849822998001 ], [ -99.427032470703097, 21.458879470825298 ], [ -99.479156494140597, 21.508510589599702 ], [ -99.475860595703097, 21.537490844726602 ], [ -99.507942199707003, 21.644269943237301 ], [ -99.497695922851506, 21.697170257568501 ] ] ] } },
{ "type": "Feature", "properties": { "NAME_1": "San Luis Potosí", "NAME_2": "Santa María del Río" }, "geometry": { "type": "Polygon", "coordinates": [ [ [ -100.290412902832003, 21.648199081421001 ], [ -100.274513244629006, 21.698450088501101 ], [ -100.284660339355, 21.728828430175799 ], [ -100.343063354492003, 21.756160736083899 ], [ -100.36247253418, 21.751390457153299 ], [ -100.443008422852003, 21.804130554199201 ], [ -100.468238830565994, 21.788129806518601 ], [ -100.483840942382997, 21.7670097351075 ], [ -100.498008728027003, 21.765928268432599 ], [ -100.525207519530994, 21.781072616577202 ], [ -100.535720825195, 21.7729816436768 ], [ -100.543128967285, 21.749689102172901 ], [ -100.597442626952997, 21.759941101074201 ], [ -100.609146118164006, 21.754560470581101 ], [ -100.614280700684006, 21.736070632934702 ], [ -100.603340148925994, 21.6809005737306 ], [ -100.618530273437997, 21.648849487304801 ], [ -100.609016418457003, 21.629390716552798 ], [ -100.585296630859006, 21.61625289917 ], [ -100.617248535155994, 21.536069869995199 ], [ -100.67798614502, 21.534570693969801 ], [ -100.71524810791, 21.548160552978601 ], [ -100.799713134765994, 21.595409393310501 ], [ -100.896369934082003, 21.668350219726602 ], [ -100.89185333252, 21.703620910644499 ], [ -100.864646911620994, 21.752080917358501 ], [ -100.864196777344006, 21.778690338134801 ], [ -100.831253051757997, 21.800678253173899 ], [ -100.826683044434006, 21.846250534057599 ], [ -100.81160736084, 21.868900299072301 ], [ -100.816246032715, 21.878099441528398 ], [ -100.844535827637003, 21.878971099853601 ], [ -100.848350524902003, 21.901140213012798 ], [ -100.836669921875, 21.916429519653398 ], [ -100.781661987305, 21.8880329132081 ], [ -100.750358581542997, 21.889770507812401 ], [ -100.720497131347997, 21.897422790527301 ], [ -100.691749572754006, 21.920520782470799 ], [ -100.657600402832003, 21.9034328460694 ], [ -100.597312927245994, 21.8939304351807 ], [ -100.572761535644005, 21.917659759521602 ], [ -100.529731750487997, 21.922971725463899 ], [ -100.512222290039006, 21.940628051757901 ], [ -100.479827880859006, 21.921739578247099 ], [ -100.457176208495994, 21.943790435791101 ], [ -100.414672851562003, 21.9623908996582 ], [ -100.40357208252, 21.983865737915 ], [ -100.383003234862997, 21.933139801025501 ], [ -100.345748901367003, 21.929700851440501 ], [ -100.323188781737997, 21.893569946289201 ], [ -100.30744934082, 21.9033107757568 ], [ -100.279708862305, 21.864271163940501 ], [ -100.242668151855, 21.836240768432699 ], [ -100.222778320312003, 21.809160232543899 ], [ -100.21216583252, 21.773780822753999 ], [ -100.177841186522997, 21.724760055541999 ], [ -100.179626464844006, 21.669431686401399 ], [ -100.223739624022997, 21.608129501342798 ], [ -100.290412902832003, 21.648199081421001 ] ] ] } },
{ "type": "Feature", "properties": { "NAME_1": "San Luis Potosí", "NAME_2": "Santo Domingo" }, "geometry": { "type": "Polygon", "coordinates": [ [ [ -102.231773376465, 23.093931198120199 ], [ -102.271682739257997, 23.1996593475343 ], [ -102.247108459472997, 23.250801086425898 ], [ -102.276412963867003, 23.292209625244102 ], [ -102.238372802734006, 23.3580226898193 ], [ -102.215507507324006, 23.361120223999102 ], [ -102.189567565917997, 23.344221115112401 ], [ -102.122596740722997, 23.3271503448487 ], [ -102.012908935547003, 23.344062805175898 ], [ -101.998687744140994, 23.357059478759801 ], [ -101.98420715332, 23.4015102386475 ], [ -101.949981689452997, 23.439271926879901 ], [ -101.76651763916, 23.5115680694581 ], [ -101.726226806640994, 23.5394191741943 ], [ -101.686950683594006, 23.583589553833001 ], [ -101.62622833252, 23.684392929077099 ], [ -101.57820892334, 23.7381401062012 ], [ -101.527442932129006, 23.7576599121094 ], [ -101.405548095702997, 23.7865390777588 ], [ -101.386276245117003, 23.799030303955099 ], [ -101.372016906737997, 23.761791229248001 ], [ -101.339569091797003, 23.7518405914307 ], [ -101.335609436035, 23.703069686889599 ], [ -101.317848205565994, 23.656620025634901 ], [ -101.282180786132997, 23.6403102874756 ], [ -101.252197265625, 23.583450317382901 ], [ -101.263046264647997, 23.5647296905518 ], [ -101.2275390625, 23.5017795562744 ], [ -101.210266113280994, 23.395719528198399 ], [ -101.231018066405994, 23.3277492523194 ], [ -101.320510864257997, 23.263200759887798 ], [ -101.304420471190994, 23.237279891967798 ], [ -101.316223144530994, 23.207639694213999 ], [ -101.380828857422003, 23.1863098144532 ], [ -101.411140441894005, 23.1605129241944 ], [ -101.425399780272997, 23.1290607452393 ], [ -101.457572937012003, 23.182519912719801 ], [ -101.491149902344006, 23.187032699585 ], [ -101.519248962402003, 23.160081863403398 ], [ -101.561225891112997, 23.1523628234863 ], [ -101.601676940917997, 23.1220302581788 ], [ -101.621429443359006, 23.1166095733644 ], [ -101.624893188477003, 23.108619689941399 ], [ -101.616462707519005, 23.095960617065401 ], [ -101.652938842772997, 23.043720245361399 ], [ -101.731796264647997, 23.0342407226562 ], [ -101.755821228027003, 23.044992446899499 ], [ -101.766166687012003, 23.033439636230501 ], [ -101.755256652832003, 23.0159015655519 ], [ -101.768356323242003, 23.008399963378999 ], [ -101.795860290527003, 23.026319503784201 ], [ -101.814888000487997, 23.012311935424901 ], [ -101.842628479004006, 23.018569946289102 ], [ -101.853828430175994, 23.039020538330199 ], [ -101.891021728515994, 23.053220748901399 ], [ -101.911659240722997, 23.077070236206101 ], [ -101.932479858397997, 23.074979782104499 ], [ -101.940933227539006, 23.082960128784102 ], [ -101.947380065917997, 23.082120895385799 ], [ -101.957176208495994, 23.048681259155298 ], [ -101.974739074707003, 23.036870956421001 ], [ -101.991722106934006, 23.069639205932599 ], [ -102.03483581543, 23.1203727722169 ], [ -102.094497680664006, 23.1378612518312 ], [ -102.174217224120994, 23.135810852050898 ], [ -102.179786682129006, 23.108762741088899 ], [ -102.160850524902003, 23.0931510925294 ], [ -102.164527893065994, 23.0843906402587 ], [ -102.211807250977003, 23.1007404327394 ], [ -102.231773376465, 23.093931198120199 ] ] ] } },
{ "type": "Feature", "properties": { "NAME_1": "San Luis Potosí", "NAME_2": "Soledad de Graciano Sánchez" }, "geometry": { "type": "Polygon", "coordinates": [ [ [ -100.830848693847997, 22.131219863891701 ], [ -100.866355895995994, 22.131790161132901 ], [ -100.924842834472997, 22.150539398193501 ], [ -100.959442138672003, 22.1769008636475 ], [ -100.965538024902003, 22.195430755615199 ], [ -100.928207397460994, 22.299800872802699 ], [ -100.911437988280994, 22.326259613037099 ], [ -100.909568786620994, 22.353101730346701 ], [ -100.882202148437997, 22.362712860107401 ], [ -100.800331115722997, 22.437200546264702 ], [ -100.784507751465, 22.4198112487794 ], [ -100.784683227539006, 22.3814601898193 ], [ -100.765747070312003, 22.34236907959 ], [ -100.793685913085994, 22.321821212768601 ], [ -100.817268371582003, 22.283649444580099 ], [ -100.851821899414006, 22.278379440307699 ], [ -100.840476989745994, 22.264080047607401 ], [ -100.810966491699006, 22.253131866455099 ], [ -100.807052612305, 22.243230819702202 ], [ -100.815139770507997, 22.219671249389801 ], [ -100.842346191405994, 22.198411941528398 ], [ -100.843482971190994, 22.175220489501999 ], [ -100.830848693847997, 22.131219863891701 ] ] ] } },
{ "type": "Feature", "properties": { "NAME_1": "San Luis Potosí", "NAME_2": "Tamasopo" }, "geometry": { "type": "Polygon", "coordinates": [ [ [ -99.519203186035199, 21.72829246521 ], [ -99.511741638183594, 21.730140686035199 ], [ -99.501815795898295, 21.754331588745099 ], [ -99.507217407226506, 21.7818603515625 ], [ -99.490592956542997, 21.807439804077202 ], [ -99.482742309570199, 21.846849441528398 ], [ -99.469650268554602, 21.864660263061602 ], [ -99.460327148437401, 21.854000091552699 ], [ -99.450401306152301, 21.854730606079102 ], [ -99.444442749023395, 21.8791007995606 ], [ -99.429145812988196, 21.895099639892599 ], [ -99.430397033691406, 21.9435710906982 ], [ -99.449996948242102, 22.019468307495099 ], [ -99.515487670898395, 22.161741256713899 ], [ -99.423255920410199, 22.175329208374102 ], [ -99.408058166503807, 22.154020309448399 ], [ -99.394691467285099, 22.1486206054688 ], [ -99.382156372070298, 22.163400650024499 ], [ -99.307418823242202, 22.193851470947401 ], [ -99.265792846679702, 22.187879562377901 ], [ -99.249160766601506, 22.134159088134901 ], [ -99.260246276855398, 22.1159782409669 ], [ -99.250099182128906, 22.087551116943398 ], [ -99.257240295410199, 22.068149566650501 ], [ -99.287216186523395, 22.045942306518601 ], [ -99.229606628417898, 22.0265007019044 ], [ -99.249641418457003, 21.982770919799901 ], [ -99.249130249023395, 21.888549804687599 ], [ -99.199691772460795, 21.8282794952393 ], [ -99.17626953125, 21.8171501159669 ], [ -99.174537658691406, 21.793239593505898 ], [ -99.191001892089801, 21.7157497406007 ], [ -99.174720764160199, 21.687280654907202 ], [ -99.209747314453097, 21.679042816162202 ], [ -99.222518920898395, 21.644599914550799 ], [ -99.279457092285199, 21.6951198577882 ], [ -99.349403381347599, 21.694950103759801 ], [ -99.374786376952997, 21.708330154418999 ], [ -99.436988830566406, 21.7129001617432 ], [ -99.497695922851506, 21.697170257568501 ], [ -99.519203186035199, 21.72829246521 ] ] ] } },
{ "type": "Feature", "properties": { "NAME_1": "San Luis Potosí", "NAME_2": "Tamazunchale" }, "geometry": { "type": "Polygon", "coordinates": [ [ [ -98.947647094726605, 21.3196525573731 ], [ -98.928771972656193, 21.333570480346701 ], [ -98.884742736816406, 21.330270767211999 ], [ -98.886550903320298, 21.3638000488282 ], [ -98.878402709960895, 21.366809844970799 ], [ -98.824386596679602, 21.3707695007325 ], [ -98.817436218261705, 21.350641250610401 ], [ -98.786537170410099, 21.325168609619201 ], [ -98.750762939453097, 21.33943939209 ], [ -98.746887207031094, 21.3538208007812 ], [ -98.722892761230497, 21.354410171508899 ], [ -98.735572814941406, 21.323841094970799 ], [ -98.754806518554702, 21.306999206543001 ], [ -98.768798828124901, 21.2794208526612 ], [ -98.764366149902301, 21.256111145019599 ], [ -98.784210205078097, 21.222620010375898 ], [ -98.815437316894503, 21.190910339355401 ], [ -98.859039306640497, 21.193210601806701 ], [ -98.906562805175795, 21.231630325317401 ], [ -98.920120239257798, 21.276609420776399 ], [ -98.947647094726605, 21.3196525573731 ] ] ] } },
{ "type": "Feature", "properties": { "NAME_1": "San Luis Potosí", "NAME_2": "Tampacan" }, "geometry": { "type": "Polygon", "coordinates": [ [ [ -98.746887207031094, 21.3538208007812 ], [ -98.750762939453097, 21.33943939209 ], [ -98.786537170410099, 21.325168609619201 ], [ -98.817436218261705, 21.350641250610401 ], [ -98.858833312988196, 21.434150695800799 ], [ -98.872657775878807, 21.5259609222413 ], [ -98.858818054199205, 21.523649215698399 ], [ -98.838851928710895, 21.539342880248999 ], [ -98.799392700195298, 21.5268993377687 ], [ -98.767471313476506, 21.5706100463868 ], [ -98.705009460449205, 21.5808506011963 ], [ -98.695411682128906, 21.5764904022218 ], [ -98.712303161621094, 21.46150970459 ], [ -98.746696472167898, 21.438579559326101 ], [ -98.746292114257798, 21.430351257324201 ], [ -98.730041503906193, 21.424129486083999 ], [ -98.727966308593807, 21.409950256347699 ], [ -98.746887207031094, 21.3538208007812 ] ] ] } },
{ "type": "Feature", "properties": { "NAME_1": "San Luis Potosí", "NAME_2": "Tampamolón Corona" }, "geometry": { "type": "Polygon", "coordinates": [ [ [ -98.864097595214801, 21.604629516601602 ], [ -98.853111267089801, 21.6121711730957 ], [ -98.8524169921875, 21.629512786865199 ], [ -98.747436523437401, 21.657062530517599 ], [ -98.720947265624901, 21.616310119628899 ], [ -98.719245910644503, 21.589759826660199 ], [ -98.705009460449205, 21.5808506011963 ], [ -98.767471313476506, 21.5706100463868 ], [ -98.799392700195298, 21.5268993377687 ], [ -98.838851928710895, 21.539342880248999 ], [ -98.865509033203097, 21.5229797363281 ], [ -98.872657775878807, 21.5259609222413 ], [ -98.861976623535099, 21.572950363159201 ], [ -98.864097595214801, 21.604629516601602 ] ] ] } },
{ "type": "Feature", "properties": { "NAME_1": "San Luis Potosí", "NAME_2": "Tamuín" }, "geometry": { "type": "Polygon", "coordinates": [ [ [ -98.746490478515597, 21.890581130981399 ], [ -98.809547424316406, 21.8739318847656 ], [ -98.826210021972599, 21.861749649048001 ], [ -98.834815979003807, 21.871200561523501 ], [ -98.829887390136705, 21.8914508819581 ], [ -98.843620300292997, 21.902980804443501 ], [ -98.837852478027301, 21.9096794128419 ], [ -98.907096862792898, 21.961900711059702 ], [ -98.887817382812401, 22.0267105102538 ], [ -98.888755798339801, 22.054679870605501 ], [ -98.908050537109304, 22.127439498901399 ], [ -98.907211303710895, 22.184640884399499 ], [ -98.919853210449205, 22.209728240966701 ], [ -98.920608520507798, 22.282159805297798 ], [ -98.937248229980497, 22.379240036010799 ], [ -98.906051635742102, 22.408901214599599 ], [ -98.85888671875, 22.370941162109499 ], [ -98.835083007812401, 22.3632507324219 ], [ -98.7417373657225, 22.380220413208001 ], [ -98.711471557617102, 22.3731594085694 ], [ -98.710998535156193, 22.356250762939499 ], [ -98.699645996093693, 22.338640213012699 ], [ -98.727027893066307, 22.289831161499102 ], [ -98.732421875, 22.2506198883057 ], [ -98.715591430664006, 22.2471599578857 ], [ -98.696395874023395, 22.192489624023398 ], [ -98.663612365722599, 22.178260803222699 ], [ -98.643272399902301, 22.159200668335099 ], [ -98.6196670532225, 22.1037406921387 ], [ -98.539260864257798, 21.9640827178956 ], [ -98.583496093749901, 21.970209121704201 ], [ -98.588478088378807, 21.957511901855501 ], [ -98.659400939941307, 21.909509658813501 ], [ -98.699958801269503, 21.912860870361399 ], [ -98.743347167968693, 21.905420303344801 ], [ -98.751342773437401, 21.898880004882901 ], [ -98.746490478515597, 21.890581130981399 ] ] ] } },
{ "type": "Feature", "properties": { "NAME_1": "San Luis Potosí", "NAME_2": "Tancanhuitz de Santos" }, "geometry": { "type": "Polygon", "coordinates": [ [ [ -98.864097595214801, 21.604629516601602 ], [ -98.994636535644503, 21.5967102050782 ], [ -99.032447814941406, 21.604730606079102 ], [ -99.0145263671875, 21.6332206726075 ], [ -99.029975891113295, 21.690921783447202 ], [ -99.007827758789105, 21.745161056518601 ], [ -98.986846923828097, 21.758251190185501 ], [ -98.980888366699205, 21.7405681610107 ], [ -98.953323364257798, 21.7257099151612 ], [ -98.943572998046903, 21.6894512176513 ], [ -98.945396423339801, 21.660041809082099 ], [ -98.926826477050696, 21.638111114501999 ], [ -98.9073486328125, 21.631921768188601 ], [ -98.854042053222699, 21.638629913330199 ], [ -98.853111267089801, 21.6121711730957 ], [ -98.864097595214801, 21.604629516601602 ] ] ] } },
{ "type": "Feature", "properties": { "NAME_1": "San Luis Potosí", "NAME_2": "Tanlajás" }, "geometry": { "type": "Polygon", "coordinates": [ [ [ -98.759078979492102, 21.677150726318501 ], [ -98.784736633300696, 21.682451248169102 ], [ -98.816818237304702, 21.670000076293999 ], [ -98.820236206054702, 21.694669723510799 ], [ -98.827362060546804, 21.6993427276612 ], [ -98.864456176757798, 21.681079864501999 ], [ -98.877746582031193, 21.665830612182599 ], [ -98.892562866210895, 21.669967651367202 ], [ -98.902427673339801, 21.694160461425799 ], [ -98.945198059082003, 21.677820205688501 ], [ -98.948455810546903, 21.7170505523682 ], [ -98.961898803710895, 21.733711242675898 ], [ -98.982841491699205, 21.742620468139801 ], [ -98.986846923828097, 21.758251190185501 ], [ -98.939002990722699, 21.765811920166101 ], [ -98.927375793457003, 21.785350799560501 ], [ -98.902320861816307, 21.791339874267599 ], [ -98.818260192871094, 21.869340896606499 ], [ -98.746490478515597, 21.890581130981399 ], [ -98.711036682128906, 21.874151229858501 ], [ -98.682518005371094, 21.836780548095799 ], [ -98.662567138671804, 21.7870903015137 ], [ -98.686515808105398, 21.748680114746101 ], [ -98.741943359375, 21.725650787353501 ], [ -98.759407043457003, 21.691289901733501 ], [ -98.759078979492102, 21.677150726318501 ] ] ] } },
{ "type": "Feature", "properties": { "NAME_1": "San Luis Potosí", "NAME_2": "Tanquián de Escobedo" }, "geometry": { "type": "Polygon", "coordinates": [ [ [ -98.705009460449205, 21.5808506011963 ], [ -98.719245910644503, 21.589759826660199 ], [ -98.720947265624901, 21.616310119628899 ], [ -98.747436523437401, 21.657062530517599 ], [ -98.734786987304702, 21.658851623535199 ], [ -98.694801330566307, 21.695739746093899 ], [ -98.670646667480497, 21.6879997253419 ], [ -98.650772094726605, 21.696269989013601 ], [ -98.623870849609403, 21.6874103546144 ], [ -98.630340576171804, 21.667779922485501 ], [ -98.625709533691406, 21.624679565429702 ], [ -98.611778259277301, 21.580158233642599 ], [ -98.661811828613196, 21.574199676513601 ], [ -98.705009460449205, 21.5808506011963 ] ] ] } },
{ "type": "Feature", "properties": { "NAME_1": "San Luis Potosí", "NAME_2": "Tierra Nueva" }, "geometry": { "type": "Polygon", "coordinates": [ [ [ -100.617248535155994, 21.536069869995199 ], [ -100.585296630859006, 21.61625289917 ], [ -100.609016418457003, 21.629390716552798 ], [ -100.618530273437997, 21.648849487304801 ], [ -100.603340148925994, 21.6809005737306 ], [ -100.614280700684006, 21.736070632934702 ], [ -100.604400634765994, 21.7582607269288 ], [ -100.543128967285, 21.749689102172901 ], [ -100.528198242187997, 21.780349731445298 ], [ -100.498008728027003, 21.765928268432599 ], [ -100.483840942382997, 21.7670097351075 ], [ -100.468238830565994, 21.788129806518601 ], [ -100.443008422852003, 21.804130554199201 ], [ -100.36247253418, 21.751390457153299 ], [ -100.343063354492003, 21.756160736083899 ], [ -100.279762268065994, 21.7216110229493 ], [ -100.274513244629006, 21.698450088501101 ], [ -100.290412902832003, 21.648199081421001 ], [ -100.306182861327997, 21.6473999023438 ], [ -100.35563659668, 21.671949386596701 ], [ -100.445899963379006, 21.695899963378999 ], [ -100.465049743652003, 21.691650390625 ], [ -100.488906860352003, 21.6686305999757 ], [ -100.490898132324006, 21.645830154419102 ], [ -100.513496398925994, 21.600521087646399 ], [ -100.507781982422003, 21.558500289916999 ], [ -100.568656921387003, 21.535419464111399 ], [ -100.617248535155994, 21.536069869995199 ] ] ] } },
{ "type": "Feature", "properties": { "NAME_1": "San Luis Potosí", "NAME_2": "Vanegas" }, "geometry": { "type": "Polygon", "coordinates": [ [ [ -101.334831237792997, 23.878799438476602 ], [ -101.297576904297003, 23.961521148681701 ], [ -101.338272094727003, 24.0052928924562 ], [ -101.320472717285, 24.037269592285199 ], [ -101.322166442870994, 24.099790573120099 ], [ -101.304496765137003, 24.131841659545898 ], [ -101.279258728027003, 24.1545028686525 ], [ -101.214111328125, 24.1679801940919 ], [ -101.149917602539006, 24.204130172729499 ], [ -101.140548706055, 24.235519409179702 ], [ -101.113243103027003, 24.2694625854493 ], [ -101.109420776367003, 24.312450408935501 ], [ -101.092536926269005, 24.336919784546001 ], [ -101.078132629394005, 24.342670440673899 ], [ -101.01505279541, 24.3405990600587 ], [ -100.981178283690994, 24.3520107269288 ], [ -100.948020935059006, 24.421382904052798 ], [ -100.900672912597997, 24.458248138427798 ], [ -100.881813049315994, 24.531709671020501 ], [ -100.849449157715, 24.537189483642599 ], [ -100.806770324707003, 24.467901229858398 ], [ -100.785568237305, 24.454290390014801 ], [ -100.740371704102003, 24.4616203308106 ], [ -100.687683105469006, 24.443250656128001 ], [ -100.687408447265994, 24.425880432128999 ], [ -100.707099914550994, 24.3857326507568 ], [ -100.678031921387003, 24.3720798492432 ], [ -100.729156494140994, 24.306789398193398 ], [ -100.717666625977003, 24.2771892547607 ], [ -100.64631652832, 24.214290618896602 ], [ -100.65397644043, 24.167989730835099 ], [ -100.684188842772997, 24.161422729492099 ], [ -100.701736450195, 24.17160987854 ], [ -100.754470825195, 24.149471282959102 ], [ -100.76473236084, 24.048040390014801 ], [ -100.818260192870994, 24.0618801116944 ], [ -100.855979919434006, 24.038049697876101 ], [ -100.810096740722997, 23.954959869384801 ], [ -100.823097229004006, 23.877727508544901 ], [ -100.804916381835994, 23.855970382690501 ], [ -100.807876586914006, 23.802568435668899 ], [ -100.827217102050994, 23.792480468750099 ], [ -100.849258422852003, 23.7618808746337 ], [ -100.861946105957003, 23.765911102295 ], [ -100.867897033690994, 23.802049636840898 ], [ -100.885971069335994, 23.815841674804702 ], [ -100.910713195800994, 23.792030334472699 ], [ -100.972183227539006, 23.754329681396499 ], [ -101.024406433105, 23.800251007080199 ], [ -101.06468963623, 23.810260772705099 ], [ -101.135551452637003, 23.800289154052699 ], [ -101.168586730957003, 23.805589675903299 ], [ -101.228561401367003, 23.8365402221681 ], [ -101.27368927002, 23.872859954833999 ], [ -101.334831237792997, 23.878799438476602 ] ] ] } },
{ "type": "Feature", "properties": { "NAME_1": "San Luis Potosí", "NAME_2": "Venado" }, "geometry": { "type": "Polygon", "coordinates": [ [ [ -100.808563232422003, 22.965051651001001 ], [ -100.853981018065994, 22.927972793579201 ], [ -100.861740112305, 22.8660907745362 ], [ -100.840209960937997, 22.8030605316163 ], [ -100.863372802734006, 22.781152725219702 ], [ -100.952789306640994, 22.805730819702202 ], [ -101.015518188477003, 22.7953395843506 ], [ -101.136390686035, 22.806709289550799 ], [ -101.203681945800994, 22.8018016815187 ], [ -101.232192993164006, 22.772701263427798 ], [ -101.277732849120994, 22.8377990722657 ], [ -101.30729675293, 22.856821060180799 ], [ -101.391555786132997, 22.8643398284913 ], [ -101.424118041992003, 22.836730957031399 ], [ -101.451232910155994, 22.8341808319093 ], [ -101.468696594237997, 22.971891403198399 ], [ -101.459815979004006, 22.983739852905401 ], [ -101.404342651367003, 22.984300613403299 ], [ -101.391021728515994, 22.994110107421999 ], [ -101.385597229004006, 23.0064182281494 ], [ -101.393775939940994, 23.087450027465799 ], [ -101.364669799805, 23.0829696655275 ], [ -101.341972351074006, 23.059801101684599 ], [ -101.314109802245994, 23.050540924072301 ], [ -101.267677307129006, 23.007209777832099 ], [ -101.242385864257997, 22.996641159057699 ], [ -101.209251403809006, 23.0007019042969 ], [ -101.149597167969006, 22.9881782531738 ], [ -101.09790802002, 22.993890762329201 ], [ -101.078666687012003, 22.999080657958999 ], [ -101.048248291015994, 23.025560379028398 ], [ -101.004676818847997, 22.997840881347699 ], [ -100.99267578125, 22.998661041259801 ], [ -100.987869262695, 23.013500213623001 ], [ -100.95189666748, 22.9911994934082 ], [ -100.886276245117003, 23.030651092529201 ], [ -100.860168457030994, 23.025079727172901 ], [ -100.836296081542997, 23.031288146972798 ], [ -100.807685852050994, 23.008499145507901 ], [ -100.808563232422003, 22.965051651001001 ] ] ] } },
{ "type": "Feature", "properties": { "NAME_1": "San Luis Potosí", "NAME_2": "Villa de Arista" }, "geometry": { "type": "Polygon", "coordinates": [ [ [ -101.01212310791, 22.6114311218262 ], [ -101.000816345215, 22.630460739135799 ], [ -100.96630859375, 22.647569656372202 ], [ -100.963493347167997, 22.681930541992202 ], [ -100.922370910645, 22.73118019104 ], [ -100.908943176269005, 22.7345600128175 ], [ -100.886840820312003, 22.726049423217901 ], [ -100.832878112792997, 22.738479614257901 ], [ -100.83283996582, 22.7511901855469 ], [ -100.854438781737997, 22.768110275268601 ], [ -100.860122680664006, 22.783241271972699 ], [ -100.840209960937997, 22.8030605316163 ], [ -100.817092895507997, 22.797742843628001 ], [ -100.80721282959, 22.764991760253999 ], [ -100.793006896972997, 22.776332855224702 ], [ -100.774642944335994, 22.762790679931701 ], [ -100.749992370605, 22.775650024414102 ], [ -100.747291564940994, 22.759361267089801 ], [ -100.737609863280994, 22.752710342407202 ], [ -100.729103088379006, 22.677350997924901 ], [ -100.715705871582003, 22.658769607543999 ], [ -100.700958251952997, 22.687570571899499 ], [ -100.675827026367003, 22.693199157714801 ], [ -100.664405822754006, 22.683650970459102 ], [ -100.683090209960994, 22.5954303741456 ], [ -100.696105957030994, 22.570722579956101 ], [ -100.715553283690994, 22.559030532836999 ], [ -100.759796142577997, 22.562982559204102 ], [ -100.802101135254006, 22.551988601684702 ], [ -100.865699768065994, 22.558338165283299 ], [ -100.897315979004006, 22.543939590454201 ], [ -100.966789245605, 22.570512771606602 ], [ -101.01212310791, 22.6114311218262 ] ] ] } },
{ "type": "Feature", "properties": { "NAME_1": "San Luis Potosí", "NAME_2": "Villa de Arriaga" }, "geometry": { "type": "Polygon", "coordinates": [ [ [ -101.476249694824006, 21.856689453125099 ], [ -101.38484954834, 22.0406799316406 ], [ -101.37092590332, 22.0489692687988 ], [ -101.37467956543, 22.0665702819825 ], [ -101.360603332519005, 22.1302604675294 ], [ -101.283737182617003, 22.128320693969801 ], [ -101.255577087402003, 22.121650695800898 ], [ -101.243278503417997, 22.102830886840898 ], [ -101.204292297362997, 22.1104507446288 ], [ -101.17147064209, 22.098718643188501 ], [ -101.171058654785, 22.086208343505898 ], [ -101.188827514647997, 22.059370040893601 ], [ -101.177406311035, 22.038089752197301 ], [ -101.201187133789006, 22.011867523193398 ], [ -101.193237304687003, 22.0005702972412 ], [ -101.15291595459, 22.0024108886719 ], [ -101.132011413574006, 21.987880706787202 ], [ -101.145095825195, 21.9640197753906 ], [ -101.187538146972997, 21.953479766845799 ], [ -101.199142456055, 21.943790435791101 ], [ -101.20198059082, 21.932600021362401 ], [ -101.186576843262003, 21.910669326782202 ], [ -101.189956665039006, 21.895370483398501 ], [ -101.198791503905994, 21.889360427856499 ], [ -101.212516784667997, 21.8955898284913 ], [ -101.268562316894005, 21.820400238037202 ], [ -101.274780273437003, 21.7971305847169 ], [ -101.323471069335994, 21.822980880737301 ], [ -101.435417175292997, 21.832710266113398 ], [ -101.476249694824006, 21.856689453125099 ] ] ] } },
{ "type": "Feature", "properties": { "NAME_1": "San Luis Potosí", "NAME_2": "Villa de Guadalupe" }, "geometry": { "type": "Polygon", "coordinates": [ [ [ -100.807685852050994, 23.008499145507901 ], [ -100.807952880859006, 23.039360046386701 ], [ -100.833076477050994, 23.071508407592699 ], [ -100.835090637207003, 23.111909866333001 ], [ -100.851760864257997, 23.127609252929801 ], [ -100.866722106934006, 23.160139083862401 ], [ -100.886627197265994, 23.1755905151368 ], [ -100.886436462402003, 23.205579757690501 ], [ -100.866828918457003, 23.2246494293213 ], [ -100.884483337402003, 23.339450836181602 ], [ -100.864906311035, 23.3648605346681 ], [ -100.864967346190994, 23.464170455932699 ], [ -100.794647216797003, 23.482000350952099 ], [ -100.773056030272997, 23.558019638061602 ], [ -100.729286193847997, 23.563970565796001 ], [ -100.708786010742003, 23.537309646606499 ], [ -100.70491027832, 23.501031875610401 ], [ -100.68229675293, 23.4433307647706 ], [ -100.651672363280994, 23.4351406097413 ], [ -100.647163391112997, 23.425420761108501 ], [ -100.661041259765994, 23.4103603363038 ], [ -100.663101196289006, 23.3448295593262 ], [ -100.675247192382997, 23.329090118408299 ], [ -100.670455932617003, 23.3060111999513 ], [ -100.681617736815994, 23.288000106811499 ], [ -100.67610168457, 23.266740798950199 ], [ -100.661422729492003, 23.263469696045 ], [ -100.653411865234006, 23.2417812347413 ], [ -100.617042541504006, 23.2169494628906 ], [ -100.594383239745994, 23.206720352172901 ], [ -100.552017211914006, 23.203210830688398 ], [ -100.502182006835994, 22.9858703613282 ], [ -100.523590087890994, 22.964628219604499 ], [ -100.598770141602003, 22.931640625000099 ], [ -100.617156982422003, 22.965370178222699 ], [ -100.617156982422003, 22.988689422607401 ], [ -100.631576538085994, 22.999160766601602 ], [ -100.662689208984006, 22.962989807128999 ], [ -100.700492858887003, 22.9842624664307 ], [ -100.804481506347997, 22.957252502441499 ], [ -100.811431884765994, 22.983261108398398 ], [ -100.807685852050994, 23.008499145507901 ] ] ] } },
{ "type": "Feature", "properties": { "NAME_1": "San Luis Potosí", "NAME_2": "Villa de la Paz" }, "geometry": { "type": "Polygon", "coordinates": [ [ [ -100.776016235352003, 23.5514106750488 ], [ -100.793952941895, 23.557199478149499 ], [ -100.819496154785, 23.598148345947301 ], [ -100.802406311035, 23.614389419555799 ], [ -100.800270080565994, 23.685310363769599 ], [ -100.775131225585994, 23.681129455566499 ], [ -100.694107055664006, 23.701721191406399 ], [ -100.655715942382997, 23.686649322509801 ], [ -100.672592163085994, 23.624179840088001 ], [ -100.698722839355, 23.6238403320313 ], [ -100.722557067870994, 23.560609817505 ], [ -100.751686096190994, 23.563381195068398 ], [ -100.776016235352003, 23.5514106750488 ] ] ] } },
{ "type": "Feature", "properties": { "NAME_1": "San Luis Potosí", "NAME_2": "Villa de Ramos" }, "geometry": { "type": "Polygon", "coordinates": [ [ [ -101.94310760498, 22.646249771118299 ], [ -102.036399841309006, 22.660610198974702 ], [ -102.074569702147997, 22.707620620727599 ], [ -102.228385925292997, 22.7923297882081 ], [ -102.285530090332003, 22.850770950317401 ], [ -102.289726257324006, 22.885658264160199 ], [ -102.281036376952997, 22.940910339355401 ], [ -102.263236999512003, 23.000869750976602 ], [ -102.236610412597997, 23.051141738891701 ], [ -102.231773376465, 23.093931198120199 ], [ -102.211807250977003, 23.1007404327394 ], [ -102.179428100585994, 23.084619522094702 ], [ -102.162300109862997, 23.0855903625488 ], [ -102.163101196289006, 23.096490859985401 ], [ -102.179786682129006, 23.108762741088899 ], [ -102.174217224120994, 23.135810852050898 ], [ -102.099967956542997, 23.138389587402401 ], [ -102.04704284668, 23.128690719604599 ], [ -101.994209289550994, 23.072982788086001 ], [ -101.974739074707003, 23.036870956421001 ], [ -101.957176208495994, 23.048681259155298 ], [ -101.944160461425994, 23.083339691162099 ], [ -101.932479858397997, 23.074979782104499 ], [ -101.911659240722997, 23.077070236206101 ], [ -101.891021728515994, 23.053220748901399 ], [ -101.853828430175994, 23.039020538330199 ], [ -101.842628479004006, 23.018569946289102 ], [ -101.814888000487997, 23.012311935424901 ], [ -101.79808807373, 23.0265007019043 ], [ -101.777008056640994, 23.0093803405762 ], [ -101.75821685791, 23.011301040649499 ], [ -101.754508972167997, 23.018640518188501 ], [ -101.766166687012003, 23.033439636230501 ], [ -101.755821228027003, 23.044992446899499 ], [ -101.731796264647997, 23.0342407226562 ], [ -101.652938842772997, 23.043720245361399 ], [ -101.621742248535, 22.992639541625898 ], [ -101.592323303222997, 22.966030120849599 ], [ -101.579727172852003, 22.9586105346681 ], [ -101.553810119629006, 22.962610244751001 ], [ -101.573028564452997, 22.909498214721701 ], [ -101.601905822754006, 22.890661239624102 ], [ -101.617446899414006, 22.865751266479499 ], [ -101.634979248047003, 22.8094196319581 ], [ -101.647315979004006, 22.8099899291993 ], [ -101.664596557617003, 22.8518791198732 ], [ -101.682640075684006, 22.868038177490298 ], [ -101.724899291992003, 22.881788253784201 ], [ -101.76171875, 22.875989913940501 ], [ -101.782211303710994, 22.842451095581101 ], [ -101.808158874512003, 22.825151443481602 ], [ -101.818283081055, 22.793600082397599 ], [ -101.844223022460994, 22.789899826049901 ], [ -101.863990783690994, 22.7588005065919 ], [ -101.908988952637003, 22.743698120117202 ], [ -101.90453338623, 22.723131179809499 ], [ -101.878295898437997, 22.685329437255898 ], [ -101.889411926269005, 22.630790710449201 ], [ -101.89518737793, 22.624679565429702 ], [ -101.91512298584, 22.639520645141701 ], [ -101.94310760498, 22.646249771118299 ] ] ] } },
{ "type": "Feature", "properties": { "NAME_1": "San Luis Potosí", "NAME_2": "Villa de Reyes" }, "geometry": { "type": "Polygon", "coordinates": [ [ [ -100.896369934082003, 21.668350219726602 ], [ -100.978118896484006, 21.7252311706544 ], [ -101.019081115722997, 21.722650527954201 ], [ -101.066047668457003, 21.750101089477599 ], [ -101.152770996094006, 21.762620925903299 ], [ -101.274780273437003, 21.7971305847169 ], [ -101.268562316894005, 21.820400238037202 ], [ -101.212516784667997, 21.8955898284913 ], [ -101.198791503905994, 21.889360427856499 ], [ -101.189956665039006, 21.895370483398501 ], [ -101.186576843262003, 21.910669326782202 ], [ -101.20198059082, 21.932600021362401 ], [ -101.195846557617003, 21.9481506347656 ], [ -101.145095825195, 21.9640197753906 ], [ -101.129219055175994, 21.98996925354 ], [ -101.06999206543, 22.0058898925782 ], [ -101.065483093262003, 22.033279418945401 ], [ -101.036331176757997, 22.0151081085206 ], [ -100.968002319335994, 22.002540588378899 ], [ -100.947227478027003, 21.990921020507798 ], [ -100.88688659668, 22.0211811065675 ], [ -100.866989135742003, 22.000221252441399 ], [ -100.854339599609006, 21.963710784912099 ], [ -100.875358581542997, 21.941390991211001 ], [ -100.874443054199006, 21.931867599487202 ], [ -100.836799621582003, 21.918239593506001 ], [ -100.850875854492003, 21.895170211791999 ], [ -100.847999572754006, 21.88205909729 ], [ -100.811080932617003, 21.8721008300782 ], [ -100.826683044434006, 21.846250534057599 ], [ -100.831253051757997, 21.800678253173899 ], [ -100.864196777344006, 21.778690338134801 ], [ -100.864646911620994, 21.752080917358501 ], [ -100.89185333252, 21.703620910644499 ], [ -100.896369934082003, 21.668350219726602 ] ] ] } },
{ "type": "Feature", "properties": { "NAME_1": "San Luis Potosí", "NAME_2": "Villa Hidalgo" }, "geometry": { "type": "Polygon", "coordinates": [ [ [ -100.461296081542997, 22.362079620361399 ], [ -100.502738952637003, 22.3820419311525 ], [ -100.503150939940994, 22.3972702026368 ], [ -100.485649108887003, 22.4151897430419 ], [ -100.501708984375, 22.4350109100343 ], [ -100.562118530272997, 22.3913497924806 ], [ -100.588188171387003, 22.401952743530298 ], [ -100.59684753418, 22.361160278320401 ], [ -100.640609741210994, 22.362230300903398 ], [ -100.68871307373, 22.3412094116212 ], [ -100.765747070312003, 22.34236907959 ], [ -100.784683227539006, 22.3814601898193 ], [ -100.784507751465, 22.4198112487794 ], [ -100.797607421875, 22.436119079589901 ], [ -100.857711791992003, 22.3890781402588 ], [ -100.927146911620994, 22.477300643921001 ], [ -100.930519104004006, 22.503152847290099 ], [ -100.951232910155994, 22.542800903320401 ], [ -100.943969726562003, 22.559280395507798 ], [ -100.923599243164006, 22.559160232543899 ], [ -100.897315979004006, 22.543939590454201 ], [ -100.865699768065994, 22.558338165283299 ], [ -100.802101135254006, 22.551988601684702 ], [ -100.759796142577997, 22.562982559204102 ], [ -100.715553283690994, 22.559030532836999 ], [ -100.691360473632997, 22.5778293609619 ], [ -100.673538208007997, 22.6261806488037 ], [ -100.666381835937997, 22.6881504058838 ], [ -100.675827026367003, 22.693199157714801 ], [ -100.700958251952997, 22.687570571899499 ], [ -100.715705871582003, 22.658769607543999 ], [ -100.729103088379006, 22.677350997924901 ], [ -100.737609863280994, 22.752710342407202 ], [ -100.747291564940994, 22.759361267089801 ], [ -100.749992370605, 22.775650024414102 ], [ -100.774642944335994, 22.762790679931701 ], [ -100.793006896972997, 22.776332855224702 ], [ -100.80721282959, 22.764991760253999 ], [ -100.817092895507997, 22.797742843628001 ], [ -100.840209960937997, 22.8030605316163 ], [ -100.861740112305, 22.8660907745362 ], [ -100.853981018065994, 22.927972793579201 ], [ -100.812438964844006, 22.963037490844801 ], [ -100.782836914062003, 22.960041046142699 ], [ -100.698257446289006, 22.984291076660199 ], [ -100.662689208984006, 22.962989807128999 ], [ -100.634796142577997, 22.999801635742301 ], [ -100.617156982422003, 22.988689422607401 ], [ -100.617156982422003, 22.965370178222699 ], [ -100.598770141602003, 22.931640625000099 ], [ -100.523590087890994, 22.964628219604499 ], [ -100.517646789550994, 22.9276218414307 ], [ -100.538459777832003, 22.813421249389801 ], [ -100.566383361815994, 22.790420532226499 ], [ -100.561576843262003, 22.719020843505898 ], [ -100.588310241699006, 22.679460525512599 ], [ -100.580535888672003, 22.617460250854499 ], [ -100.585151672362997, 22.580369949340898 ], [ -100.560546875, 22.576791763305799 ], [ -100.546989440917997, 22.5435504913331 ], [ -100.498428344727003, 22.5566005706788 ], [ -100.44303894043, 22.5372409820557 ], [ -100.440238952637003, 22.4922904968262 ], [ -100.446556091309006, 22.471309661865298 ], [ -100.42561340332, 22.432929992675898 ], [ -100.438301086425994, 22.385749816894599 ], [ -100.461296081542997, 22.362079620361399 ] ] ] } },
{ "type": "Feature", "properties": { "NAME_1": "San Luis Potosí", "NAME_2": "Villa Juárez" }, "geometry": { "type": "Polygon", "coordinates": [ [ [ -100.346519470215, 22.115909576416001 ], [ -100.359909057617003, 22.120082855224599 ], [ -100.352470397949006, 22.1526699066163 ], [ -100.316772460937997, 22.243761062622202 ], [ -100.325149536132997, 22.255710601806602 ], [ -100.336151123047003, 22.246940612793001 ], [ -100.367706298827997, 22.252950668335 ], [ -100.383003234862997, 22.273679733276399 ], [ -100.41771697998, 22.2815895080568 ], [ -100.397666931152003, 22.312139511108501 ], [ -100.34139251709, 22.366870880127099 ], [ -100.331047058105, 22.391059875488299 ], [ -100.312911987305, 22.388090133667099 ], [ -100.283477783202997, 22.401588439941499 ], [ -100.255897521972997, 22.354860305786101 ], [ -100.229232788085994, 22.364011764526399 ], [ -100.205642700195, 22.356319427490298 ], [ -100.191825866699006, 22.377590179443398 ], [ -100.174575805664006, 22.438421249389801 ], [ -100.155647277832003, 22.442478179931602 ], [ -100.132637023925994, 22.463380813598601 ], [ -100.106636047362997, 22.4416103363038 ], [ -100.070236206055, 22.454919815063601 ], [ -100.06005859375, 22.467100143432599 ], [ -100.038696289062003, 22.363462448120199 ], [ -100.055938720702997, 22.3507995605469 ], [ -100.056129455565994, 22.320127487182699 ], [ -100.072563171387003, 22.2806701660157 ], [ -100.12712097168, 22.265119552612301 ], [ -100.132736206055, 22.2098503112794 ], [ -100.165702819824006, 22.156999588012798 ], [ -100.177223205565994, 22.1459693908693 ], [ -100.226539611815994, 22.1327095031738 ], [ -100.272239685059006, 22.139940261840898 ], [ -100.346519470215, 22.115909576416001 ] ] ] } },
{ "type": "Feature", "properties": { "NAME_1": "San Luis Potosí", "NAME_2": "Xilitla" }, "geometry": { "type": "Polygon", "coordinates": [ [ [ -98.947647094726605, 21.3196525573731 ], [ -98.974571228027301, 21.318822860717901 ], [ -99.048942565917997, 21.292278289795 ], [ -99.070739746093693, 21.298301696777301 ], [ -99.110305786132798, 21.3578910827638 ], [ -99.243232727050795, 21.489240646362301 ], [ -99.210372924804602, 21.512332916259801 ], [ -99.146926879882798, 21.533821105957099 ], [ -99.099281311035199, 21.5637111663819 ], [ -99.084609985351605, 21.547269821166999 ], [ -99.056076049804702, 21.550460815429702 ], [ -99.033081054687401, 21.503879547119102 ], [ -99.002746582031193, 21.491979598999102 ], [ -98.969146728515597, 21.442390441894599 ], [ -98.888977050781193, 21.372329711914102 ], [ -98.884742736816406, 21.330270767211999 ], [ -98.928771972656193, 21.333570480346701 ], [ -98.947647094726605, 21.3196525573731 ] ] ] } },
{ "type": "Feature", "properties": { "NAME_1": "San Luis Potosí", "NAME_2": "Zaragoza" }, "geometry": { "type": "Polygon", "coordinates": [ [ [ -100.572761535644005, 21.917659759521602 ], [ -100.597312927245994, 21.8939304351807 ], [ -100.657600402832003, 21.9034328460694 ], [ -100.691749572754006, 21.920520782470799 ], [ -100.727226257324006, 21.894609451293899 ], [ -100.781661987305, 21.8880329132081 ], [ -100.838996887207003, 21.922050476074201 ], [ -100.874443054199006, 21.931867599487202 ], [ -100.875358581542997, 21.941390991211001 ], [ -100.854339599609006, 21.963710784912099 ], [ -100.866989135742003, 22.000221252441399 ], [ -100.88688659668, 22.0211811065675 ], [ -100.868186950684006, 22.0417804718019 ], [ -100.81566619873, 22.057991027831999 ], [ -100.81761932373, 22.102001190185501 ], [ -100.797882080077997, 22.120399475097699 ], [ -100.767028808594006, 22.127010345458999 ], [ -100.751731872559006, 22.147661209106602 ], [ -100.72737121582, 22.1497707366944 ], [ -100.715766906737997, 22.1769695281982 ], [ -100.699928283690994, 22.165790557861399 ], [ -100.684272766112997, 22.1284694671632 ], [ -100.652770996094006, 22.119300842285199 ], [ -100.645233154297003, 22.0948390960694 ], [ -100.629089355469006, 22.093219757080099 ], [ -100.602638244629006, 22.108310699462901 ], [ -100.574630737305, 22.0629596710206 ], [ -100.543685913085994, 22.046730041503999 ], [ -100.530403137207003, 21.996641159057699 ], [ -100.572761535644005, 21.917659759521602 ] ] ] } }
]
}
