{
"type": "FeatureCollection",
"name": "tabasco",
"crs": { "type": "name", "properties": { "name": "urn:ogc:def:crs:OGC:1.3:CRS84" } },
"features": [
{ "type": "Feature", "properties": { "NAME_1": "Tabasco", "NAME_2": "Balancán" }, "geometry": { "type": "Polygon", "coordinates": [ [ [ -90.982139587402301, 17.6378498077393 ], [ -91.063392639160099, 17.643699645996101 ], [ -91.082946777343693, 17.635429382324201 ], [ -91.143302917480398, 17.654190063476602 ], [ -91.155487060546903, 17.647970199584901 ], [ -91.159912109374901, 17.631599426269599 ], [ -91.173751831054602, 17.619260787963899 ], [ -91.221786499023395, 17.621650695800898 ], [ -91.243263244628807, 17.6097412109375 ], [ -91.307167053222599, 17.5959796905519 ], [ -91.339965820312401, 17.5966701507568 ], [ -91.353157043457003, 17.613300323486399 ], [ -91.447921752929602, 17.6580104827881 ], [ -91.471458435058594, 17.678810119628999 ], [ -91.513442993164006, 17.6805725097657 ], [ -91.565467834472699, 17.695629119873001 ], [ -91.573081970214801, 17.702489852905401 ], [ -91.565483093261705, 17.7274684906007 ], [ -91.548507690429702, 17.712379455566499 ], [ -91.540100097656193, 17.7164497375488 ], [ -91.572990417480497, 17.763860702514702 ], [ -91.567756652832003, 17.779029846191499 ], [ -91.599998474121094, 17.779830932617202 ], [ -91.604125976562401, 17.7658004760743 ], [ -91.620323181152301, 17.769121170043999 ], [ -91.597656249999901, 17.743150711059599 ], [ -91.606468200683594, 17.732629776001001 ], [ -91.637321472167898, 17.7411098480225 ], [ -91.666969299316307, 17.726581573486399 ], [ -91.690322875976605, 17.755010604858398 ], [ -91.717498779296903, 17.762159347534201 ], [ -91.7412109375, 17.786159515381001 ], [ -91.739631652832003, 17.808170318603501 ], [ -91.719551086425696, 17.848390579223601 ], [ -91.734123229980398, 17.873090744018601 ], [ -91.732933044433594, 17.891780853271499 ], [ -91.727256774902301, 17.899530410766701 ], [ -91.705497741699205, 17.891780853271499 ], [ -91.661460876464801, 17.915260314941399 ], [ -91.594261169433594, 17.919612884521499 ], [ -91.585197448730497, 17.928920745849599 ], [ -91.583381652832003, 17.976741790771399 ], [ -91.597221374511705, 18.024040222168001 ], [ -91.587730407714801, 18.059030532836999 ], [ -91.573410034179602, 18.071710586547901 ], [ -91.471900939941406, 18.071430206298899 ], [ -91.359069824218807, 18.040670394897599 ], [ -91.326011657714801, 18.0410594940187 ], [ -91.254219055175696, 17.974880218505898 ], [ -91.198181152343807, 17.956550598144599 ], [ -91.175941467285099, 17.925319671630898 ], [ -91.161231994628807, 17.9239406585694 ], [ -91.140098571777202, 17.937990188598601 ], [ -91.101692199707003, 17.916351318359499 ], [ -90.981002807617102, 17.8774509429932 ], [ -90.982139587402301, 17.6378498077393 ] ] ] } },
{ "type": "Feature", "properties": { "NAME_1": "Tabasco", "NAME_2": "Cárdenas" }, "geometry": { "type": "GeometryCollection", "geometries": [ { "type": "Polygon", "coordinates": [ [ [ -93.709587097167997, 18.345138549804801 ], [ -93.714859008789105, 18.338193893432699 ], [ -93.726524353027301, 18.342638015747099 ], [ -93.752914428710895, 18.332361221313501 ], [ -93.768753051757798, 18.3112525939943 ], [ -93.775138854980497, 18.317916870117202 ], [ -93.775138854980497, 18.3112525939943 ], [ -93.790138244628807, 18.314306259155298 ], [ -93.797637939453097, 18.303195953369201 ], [ -93.809303283691307, 18.307916641235401 ], [ -93.837081909179602, 18.300416946411101 ], [ -93.839584350585895, 18.290695190429702 ], [ -93.849029541015597, 18.2965297698975 ], [ -93.840972900390597, 18.305973052978501 ], [ -93.625968933105497, 18.379028320312599 ], [ -93.601524353027301, 18.3865261077881 ], [ -93.590415954589801, 18.387636184692401 ], [ -93.615974426269503, 18.380416870117301 ], [ -93.637084960937401, 18.364305496215799 ], [ -93.665412902832003, 18.3645839691162 ], [ -93.683746337890597, 18.355417251586999 ], [ -93.674858093261705, 18.353195190429702 ], [ -93.679580688476605, 18.346250534057599 ], [ -93.695419311523395, 18.352361679077099 ], [ -93.709587097167997, 18.345138549804801 ] ] ] }, { "type": "Polygon", "coordinates": [ [ [ -93.506858825683594, 18.373109817504901 ], [ -93.480682373046804, 18.338569641113299 ], [ -93.492866516113295, 18.257770538330099 ], [ -93.488746643066406, 18.223760604858501 ], [ -93.516586303710895, 18.204740524291999 ], [ -93.516418457031193, 18.1856708526612 ], [ -93.470993041992202, 18.1279296875 ], [ -93.444496154785199, 18.111080169677699 ], [ -93.415466308593594, 18.062150955200099 ], [ -93.364578247070298, 18.035938262939499 ], [ -93.334770202636705, 18.033229827880898 ], [ -93.295021057128807, 18.014238357544102 ], [ -93.293952941894503, 18.001611709594801 ], [ -93.308898925781193, 17.978450775146602 ], [ -93.307876586914006, 17.9597282409669 ], [ -93.319839477539105, 17.946010589599702 ], [ -93.346588134765597, 17.9416103363038 ], [ -93.353492736816406, 17.931140899658299 ], [ -93.374992370605497, 17.9708480834962 ], [ -93.400695800781193, 17.991718292236399 ], [ -93.432647705078097, 17.9736003875732 ], [ -93.555763244628906, 17.957241058349702 ], [ -93.584297180175795, 17.964721679687599 ], [ -93.594291687011705, 17.982570648193398 ], [ -93.632980346679602, 17.976499557495199 ], [ -93.703346252441307, 18.006111145019599 ], [ -93.756401062011705, 18.007400512695298 ], [ -93.787071228027301, 18.045660018920799 ], [ -93.84130859375, 18.057609558105501 ], [ -93.862373352050795, 18.124101638794102 ], [ -93.883895874023395, 18.169330596923899 ], [ -93.897331237792898, 18.181751251220799 ], [ -93.943649291992202, 18.188390731811499 ], [ -94.003379821777301, 18.171609878540199 ], [ -94.015678405761705, 18.1744899749756 ], [ -94.025093078613295, 18.189620971679702 ], [ -94.055007934570298, 18.182010650634801 ], [ -94.0947265625, 18.200628280639702 ], [ -94.110755920410099, 18.188699722290099 ], [ -94.131759643554602, 18.1932106018068 ], [ -94.121559143066307, 18.213809967041101 ], [ -93.852363586425795, 18.299863815307699 ], [ -93.870697021484403, 18.287361145019499 ], [ -93.882919311523395, 18.265138626098601 ], [ -93.874580383300795, 18.2459735870362 ], [ -93.847915649414105, 18.243473052978601 ], [ -93.786804199218693, 18.2551383972169 ], [ -93.746246337890597, 18.272083282470799 ], [ -93.754585266113196, 18.314027786254901 ], [ -93.725418090820298, 18.3304157257081 ], [ -93.716247558593693, 18.320419311523398 ], [ -93.676803588867202, 18.340694427490199 ], [ -93.682914733886705, 18.329027175903299 ], [ -93.668197631835895, 18.3168048858643 ], [ -93.592086791992102, 18.325138092041101 ], [ -93.569580078124901, 18.34375 ], [ -93.577919006347699, 18.355138778686602 ], [ -93.568473815917997, 18.3859462738037 ], [ -93.506858825683594, 18.373109817504901 ] ] ] }, { "type": "Polygon", "coordinates": [ [ [ -93.614860534667898, 18.376247406005898 ], [ -93.612976074218594, 18.3746566772462 ], [ -93.613471984863295, 18.373193740844801 ], [ -93.615692138671903, 18.374027252197401 ], [ -93.614860534667898, 18.376247406005898 ] ] ] }, { "type": "Polygon", "coordinates": [ [ [ -93.782081604003906, 18.3090305328369 ], [ -93.780136108398395, 18.307916641235401 ], [ -93.780136108398395, 18.3073616027832 ], [ -93.783470153808494, 18.308471679687599 ], [ -93.782081604003906, 18.3090305328369 ] ] ] } ] } },
{ "type": "Feature", "properties": { "NAME_1": "Tabasco", "NAME_2": "Catazajá" }, "geometry": { "type": "Polygon", "coordinates": [ [ [ -92.192909240722699, 17.829420089721701 ], [ -92.185188293457003, 17.8377494812012 ], [ -92.172950744628906, 17.835220336914102 ], [ -92.175117492675696, 17.826538085937401 ], [ -92.192909240722699, 17.829420089721701 ] ] ] } },
{ "type": "Feature", "properties": { "NAME_1": "Tabasco", "NAME_2": "Centla" }, "geometry": { "type": "GeometryCollection", "geometries": [ { "type": "Polygon", "coordinates": [ [ [ -93.118553161620994, 18.320449829101602 ], [ -93.126747131347699, 18.330339431762699 ], [ -93.114585876464702, 18.355417251586999 ], [ -93.105415344238196, 18.358749389648398 ], [ -93.100135803222699, 18.3745841979982 ], [ -93.080696105957003, 18.375137329101602 ], [ -93.068473815917997, 18.384027481079201 ], [ -93.063751220702997, 18.397083282470799 ], [ -93.076248168945199, 18.407083511352599 ], [ -93.112640380859304, 18.4134731292725 ], [ -93.116806030273395, 18.421527862548899 ], [ -93.119583129882798, 18.414304733276499 ], [ -93.133468627929602, 18.4245834350587 ], [ -93.147918701171903, 18.423194885253899 ], [ -93.128753662109403, 18.432638168335099 ], [ -93.136802673339702, 18.4426383972169 ], [ -93.007919311523395, 18.430973052978601 ], [ -92.889305114745994, 18.444026947021602 ], [ -92.828193664550696, 18.467082977295 ], [ -92.769027709960895, 18.5059719085694 ], [ -92.699859619140597, 18.587083816528299 ], [ -92.705413818359403, 18.588750839233501 ], [ -92.698196411132798, 18.6026382446288 ], [ -92.687362670898395, 18.599582672119201 ], [ -92.687080383300795, 18.61847114563 ], [ -92.669860839843693, 18.609861373901399 ], [ -92.633193969726605, 18.6120834350587 ], [ -92.470138549804702, 18.650138854980401 ], [ -92.449172973632798, 18.576530456543001 ], [ -92.409347534179702, 18.487491607666101 ], [ -92.340026855468807, 18.435319900512798 ], [ -92.329055786132798, 18.4311408996582 ], [ -92.308113098144503, 18.439149856567401 ], [ -92.273117065429702, 18.392501831054702 ], [ -92.261901855468594, 18.3901290893556 ], [ -92.253227233886605, 18.370340347290199 ], [ -92.266380310058494, 18.360071182250898 ], [ -92.255119323730398, 18.344221115112301 ], [ -92.271537780761605, 18.321212768554702 ], [ -92.242362976074205, 18.316642761230501 ], [ -92.245986938476605, 18.3007202148437 ], [ -92.235862731933494, 18.295511245727599 ], [ -92.229156494140597, 18.276210784912099 ], [ -92.246078491210895, 18.2365016937256 ], [ -92.293090820312401, 18.2197704315187 ], [ -92.303321838378906, 18.2424011230469 ], [ -92.312667846679702, 18.244890213012699 ], [ -92.322723388671804, 18.211059570312401 ], [ -92.360008239745994, 18.197160720825298 ], [ -92.351440429687401, 18.154739379882901 ], [ -92.331436157226605, 18.1505012512206 ], [ -92.322616577148395, 18.132829666137798 ], [ -92.299766540527202, 18.125270843505898 ], [ -92.314338684082003, 18.105390548706101 ], [ -92.459289550781193, 18.099130630493299 ], [ -92.501152038574205, 18.116661071777301 ], [ -92.528472900390597, 18.1409206390381 ], [ -92.592636108398295, 18.142520904541001 ], [ -92.625068664550795, 18.179399490356602 ], [ -92.680587768554702, 18.169919967651399 ], [ -92.687896728515597, 18.162040710449201 ], [ -92.680358886718693, 18.145429611206101 ], [ -92.687789916992102, 18.141628265380898 ], [ -92.748497009277301, 18.1840209960938 ], [ -92.740386962890597, 18.216209411621001 ], [ -92.75, 18.2316703796387 ], [ -92.8472900390625, 18.251712799072301 ], [ -92.989196777343807, 18.381669998168899 ], [ -93.024375915527301, 18.378160476684702 ], [ -93.045242309570298, 18.364709854126001 ], [ -93.058807373046903, 18.3691101074219 ], [ -93.097976684570298, 18.3538303375244 ], [ -93.118553161620994, 18.320449829101602 ] ] ] }, { "type": "Polygon", "coordinates": [ [ [ -93.150459289550795, 18.430973052978601 ], [ -93.157913208007798, 18.4381942749025 ], [ -93.131805419921903, 18.435693740844801 ], [ -93.136253356933594, 18.429027557373001 ], [ -93.150459289550795, 18.430973052978601 ] ] ] }, { "type": "Polygon", "coordinates": [ [ [ -93.136528015136705, 18.423194885253899 ], [ -93.132362365722699, 18.422084808349702 ], [ -93.131530761718693, 18.416530609131001 ], [ -93.142364501953097, 18.4223613739013 ], [ -93.136528015136705, 18.423194885253899 ] ] ] }, { "type": "Polygon", "coordinates": [ [ [ -93.145973205566406, 18.421249389648398 ], [ -93.142913818359403, 18.421527862548899 ], [ -93.139862060546903, 18.416805267333999 ], [ -93.147636413574205, 18.417640686035099 ], [ -93.145973205566406, 18.421249389648398 ] ] ] }, { "type": "Polygon", "coordinates": [ [ [ -93.112640380859304, 18.410972595214801 ], [ -93.1081924438475, 18.410694122314499 ], [ -93.107917785644503, 18.410139083862202 ], [ -93.1129150390625, 18.408472061157301 ], [ -93.112640380859304, 18.410972595214801 ] ] ] }, { "type": "Polygon", "coordinates": [ [ [ -93.166030883789105, 18.366228103637699 ], [ -93.125694274902301, 18.372638702392599 ], [ -93.109024047851506, 18.3862495422363 ], [ -93.105415344238196, 18.377082824707099 ], [ -93.125450134277301, 18.355180740356399 ], [ -93.160552978515497, 18.345359802246101 ], [ -93.166030883789105, 18.366228103637699 ] ] ] }, { "type": "Polygon", "coordinates": [ [ [ -93.106246948242202, 18.374027252197401 ], [ -93.103469848632798, 18.3729152679444 ], [ -93.108749389648395, 18.368473052978601 ], [ -93.109306335449205, 18.3706951141357 ], [ -93.106246948242202, 18.374027252197401 ] ] ] }, { "type": "Polygon", "coordinates": [ [ [ -93.166122436523395, 18.3665275573731 ], [ -93.165969848632798, 18.3665275573731 ], [ -93.166030883789105, 18.366228103637699 ], [ -93.166122436523395, 18.3665275573731 ] ] ] } ] } },
{ "type": "Feature", "properties": { "NAME_1": "Tabasco", "NAME_2": "Centro" }, "geometry": { "type": "Polygon", "coordinates": [ [ [ -93.087356567382798, 17.8630599975587 ], [ -93.120483398437401, 17.8766803741456 ], [ -93.153877258300696, 17.924110412597699 ], [ -93.175605773925696, 17.941511154174702 ], [ -93.175476074218807, 17.9622898101807 ], [ -93.148452758789105, 17.969680786132901 ], [ -93.135902404785199, 17.981929779052699 ], [ -93.106536865234304, 17.958429336547901 ], [ -92.962966918945298, 17.980159759521602 ], [ -92.954071044921804, 17.990980148315401 ], [ -92.954353332519503, 18.017890930175799 ], [ -92.937149047851605, 18.0354728698732 ], [ -92.917358398437401, 18.1262607574463 ], [ -92.856857299804702, 18.1827201843263 ], [ -92.834136962890597, 18.248380661010899 ], [ -92.75, 18.2316703796387 ], [ -92.740386962890597, 18.216209411621001 ], [ -92.748497009277301, 18.1840209960938 ], [ -92.684593200683594, 18.140569686889702 ], [ -92.668128967285199, 18.111930847168001 ], [ -92.677986145019503, 18.068189620971701 ], [ -92.644157409667997, 18.049730300903398 ], [ -92.678680419921903, 18.043481826782202 ], [ -92.666900634765597, 18.027000427246001 ], [ -92.676856994628906, 18.009571075439499 ], [ -92.682426452636705, 17.934789657592901 ], [ -92.786369323730497, 17.906692504882798 ], [ -92.855667114257798, 17.846942901611399 ], [ -92.862831115722699, 17.835050582885899 ], [ -92.847076416015497, 17.819129943847699 ], [ -92.864532470702997, 17.803201675415 ], [ -92.845451354980398, 17.789840698242202 ], [ -92.842872619628807, 17.7698192596437 ], [ -92.866828918457003, 17.728511810302798 ], [ -92.910926818847699, 17.768182754516701 ], [ -92.936569213867202, 17.767641067505 ], [ -92.9983291625975, 17.790920257568501 ], [ -92.981216430664105, 17.827760696411101 ], [ -92.977539062499901, 17.866630554199201 ], [ -92.994606018066307, 17.871820449829102 ], [ -93.036186218261705, 17.862552642822301 ], [ -93.087356567382798, 17.8630599975587 ] ] ] } },
{ "type": "Feature", "properties": { "NAME_1": "Tabasco", "NAME_2": "Comalcalco" }, "geometry": { "type": "Polygon", "coordinates": [ [ [ -93.1197509765625, 18.259750366210898 ], [ -93.10546875, 18.232160568237401 ], [ -93.119712829589801, 18.171949386596701 ], [ -93.145072937011705, 18.1661605834962 ], [ -93.15616607666, 18.144140243530298 ], [ -93.168220520019503, 18.140472412109499 ], [ -93.186317443847699, 18.154100418090799 ], [ -93.239021301269503, 18.132511138916101 ], [ -93.2528076171875, 18.177299499511701 ], [ -93.295356750488295, 18.176549911498999 ], [ -93.304412841796903, 18.158439636230501 ], [ -93.329208374023395, 18.1474494934081 ], [ -93.334907531738295, 18.1321411132812 ], [ -93.355735778808494, 18.1280403137207 ], [ -93.362472534179702, 18.114740371704201 ], [ -93.359359741210895, 18.0973796844482 ], [ -93.378692626953097, 18.1010208129882 ], [ -93.3875732421875, 18.114860534668001 ], [ -93.417961120605497, 18.121868133545 ], [ -93.445999145507798, 18.112859725952099 ], [ -93.460296630859403, 18.119329452514599 ], [ -93.518020629882798, 18.191770553588899 ], [ -93.516586303710895, 18.204740524291999 ], [ -93.488746643066406, 18.223760604858501 ], [ -93.492866516113295, 18.257770538330099 ], [ -93.480682373046804, 18.338569641113299 ], [ -93.506858825683594, 18.373109817504901 ], [ -93.451217651367102, 18.4093627929688 ], [ -93.448036193847699, 18.387630462646499 ], [ -93.435272216796804, 18.3731803894044 ], [ -93.416496276855398, 18.3919906616212 ], [ -93.411018371582003, 18.411830902099599 ], [ -93.421249389648395, 18.4110221862794 ], [ -93.421249389648395, 18.416530609131001 ], [ -93.402435302734403, 18.419305801391701 ], [ -93.396591186523395, 18.406112670898501 ], [ -93.339530944824205, 18.3980808258057 ], [ -93.281768798828097, 18.401220321655298 ], [ -93.216346740722699, 18.329610824585099 ], [ -93.176086425781193, 18.3107299804688 ], [ -93.1197509765625, 18.259750366210898 ] ] ] } },
{ "type": "Feature", "properties": { "NAME_1": "Tabasco", "NAME_2": "Cunduacán" }, "geometry": { "type": "Polygon", "coordinates": [ [ [ -93.175605773925696, 17.941511154174702 ], [ -93.205581665039105, 17.944471359253001 ], [ -93.261329650878807, 17.973590850830099 ], [ -93.272697448730398, 17.9689426422119 ], [ -93.283119201660199, 17.950750350952202 ], [ -93.307876586914006, 17.9597282409669 ], [ -93.308898925781193, 17.978450775146602 ], [ -93.293952941894503, 18.001611709594801 ], [ -93.295021057128807, 18.014238357544102 ], [ -93.334770202636705, 18.033229827880898 ], [ -93.364578247070298, 18.035938262939499 ], [ -93.415466308593594, 18.062150955200099 ], [ -93.445999145507798, 18.112859725952099 ], [ -93.417961120605497, 18.121868133545 ], [ -93.3875732421875, 18.114860534668001 ], [ -93.378692626953097, 18.1010208129882 ], [ -93.359359741210895, 18.0973796844482 ], [ -93.362472534179702, 18.114740371704201 ], [ -93.355735778808494, 18.1280403137207 ], [ -93.334907531738295, 18.1321411132812 ], [ -93.329208374023395, 18.1474494934081 ], [ -93.304412841796903, 18.158439636230501 ], [ -93.295356750488295, 18.176549911498999 ], [ -93.2528076171875, 18.177299499511701 ], [ -93.239021301269503, 18.132511138916101 ], [ -93.186317443847699, 18.154100418090799 ], [ -93.161689758300696, 18.1419792175293 ], [ -93.151420593261705, 18.148780822753999 ], [ -93.149353027343807, 18.162660598754801 ], [ -93.130355834960895, 18.1707992553712 ], [ -93.119712829589801, 18.171949386596701 ], [ -93.104766845703097, 18.1580104827881 ], [ -93.072357177734403, 18.153770446777401 ], [ -93.067230224609403, 18.143461227417099 ], [ -93.080841064453097, 18.1166496276856 ], [ -93.070487976074205, 18.1019401550293 ], [ -93.070571899414105, 18.078620910644599 ], [ -93.024459838867102, 18.052511215209901 ], [ -92.966712951660199, 18.000429153442401 ], [ -92.958236694335895, 17.983880996704201 ], [ -93.064552307128906, 17.9600505828857 ], [ -93.106536865234304, 17.958429336547901 ], [ -93.135902404785199, 17.981929779052699 ], [ -93.148452758789105, 17.969680786132901 ], [ -93.175476074218807, 17.9622898101807 ], [ -93.175605773925696, 17.941511154174702 ] ] ] } },
{ "type": "Feature", "properties": { "NAME_1": "Tabasco", "NAME_2": "Emiliano Zapata" }, "geometry": { "type": "Polygon", "coordinates": [ [ [ -91.740921020507798, 17.723598480224702 ], [ -91.760955810546903, 17.740230560302699 ], [ -91.753967285156193, 17.7664909362794 ], [ -91.764579772949205, 17.821380615234499 ], [ -91.798408508300696, 17.865869522094801 ], [ -91.820297241210895, 17.867731094360401 ], [ -91.789352416992102, 17.925979614257798 ], [ -91.746276855468807, 17.9162712097169 ], [ -91.727256774902301, 17.899530410766701 ], [ -91.735427856445298, 17.878690719604499 ], [ -91.719551086425696, 17.848390579223601 ], [ -91.739631652832003, 17.808170318603501 ], [ -91.7412109375, 17.786159515381001 ], [ -91.717498779296903, 17.762159347534201 ], [ -91.690322875976605, 17.755010604858398 ], [ -91.671348571777301, 17.7287502288819 ], [ -91.637321472167898, 17.7411098480225 ], [ -91.602310180664006, 17.7340602874756 ], [ -91.597656249999901, 17.743150711059599 ], [ -91.620323181152301, 17.769121170043999 ], [ -91.604125976562401, 17.7658004760743 ], [ -91.599998474121094, 17.779830932617202 ], [ -91.567756652832003, 17.779029846191499 ], [ -91.572990417480497, 17.763860702514702 ], [ -91.550506591796903, 17.7399005889893 ], [ -91.555442810058594, 17.734279632568501 ], [ -91.540817260742102, 17.713052749633899 ], [ -91.565483093261705, 17.7274684906007 ], [ -91.569641113281193, 17.7039604187013 ], [ -91.619598388671804, 17.679380416870199 ], [ -91.590446472167997, 17.627929687500099 ], [ -91.575317382812401, 17.568910598754801 ], [ -91.516006469726506, 17.475429534912202 ], [ -91.50821685791, 17.4344196319581 ], [ -91.533653259277301, 17.443580627441399 ], [ -91.570602416992202, 17.441179275512699 ], [ -91.619972229003807, 17.449769973754901 ], [ -91.637786865234304, 17.462989807128999 ], [ -91.638381958007798, 17.479129791259702 ], [ -91.616127014160199, 17.522541046142599 ], [ -91.607589721679602, 17.565269470214801 ], [ -91.634826660156193, 17.6126003265381 ], [ -91.652893066406193, 17.6805019378663 ], [ -91.688796997070298, 17.7140598297119 ], [ -91.710296630859304, 17.711830139160199 ], [ -91.740921020507798, 17.723598480224702 ] ] ] } },
{ "type": "Feature", "properties": { "NAME_1": "Tabasco", "NAME_2": "Huimanguillo" }, "geometry": { "type": "Polygon", "coordinates": [ [ [ -93.576393127441406, 17.374549865722699 ], [ -93.609413146972599, 17.339082717895501 ], [ -93.683921813964801, 17.359899520874102 ], [ -93.686531066894503, 17.404689788818501 ], [ -93.701705932617202, 17.452699661255 ], [ -93.686988830566406, 17.490779876708999 ], [ -93.693550109863196, 17.538700103759801 ], [ -93.746406555175795, 17.6668796539307 ], [ -93.808982849121094, 17.698650360107401 ], [ -93.855781555175696, 17.7122116088868 ], [ -93.881187438964801, 17.737739562988299 ], [ -93.919166564941307, 17.7356700897218 ], [ -93.932502746582003, 17.7417926788331 ], [ -93.962776184082003, 17.805360794067401 ], [ -94.041236877441307, 17.831848144531399 ], [ -94.074913024902301, 17.865289688110501 ], [ -94.079071044921903, 17.890529632568299 ], [ -94.071609497070298, 17.934461593627901 ], [ -94.081779479980398, 17.933599472046001 ], [ -94.071678161620994, 17.944351196289102 ], [ -94.0711669921875, 17.965959548950298 ], [ -94.096290588378807, 18.036409378051701 ], [ -94.096038818359403, 18.0888900756837 ], [ -94.106002807617102, 18.116880416870199 ], [ -94.101150512695298, 18.144990921020501 ], [ -94.131050109863295, 18.177740097046001 ], [ -94.104393005370994, 18.180030822753899 ], [ -94.096176147460895, 18.195430755615298 ], [ -94.050071716308594, 18.174150466918899 ], [ -94.034477233886705, 18.183301925659201 ], [ -94.013092041015597, 18.1520595550538 ], [ -94.006980895996094, 18.153690338134801 ], [ -94.012161254882798, 18.168340682983398 ], [ -94.030097961425696, 18.1869411468507 ], [ -94.040496826171804, 18.185279846191499 ], [ -94.025093078613295, 18.189620971679702 ], [ -94.015678405761705, 18.1744899749756 ], [ -94.003379821777301, 18.171609878540199 ], [ -93.943649291992202, 18.188390731811499 ], [ -93.903732299804602, 18.1838703155518 ], [ -93.883895874023395, 18.169330596923899 ], [ -93.84130859375, 18.057609558105501 ], [ -93.787071228027301, 18.045660018920799 ], [ -93.756401062011705, 18.007400512695298 ], [ -93.703346252441307, 18.006111145019599 ], [ -93.632980346679602, 17.976499557495199 ], [ -93.594291687011705, 17.982570648193398 ], [ -93.584297180175795, 17.964721679687599 ], [ -93.567031860351605, 17.958339691162202 ], [ -93.445266723632798, 17.9710502624512 ], [ -93.400695800781193, 17.991718292236399 ], [ -93.370689392089801, 17.965072631835898 ], [ -93.363380432128807, 17.939279556274499 ], [ -93.353492736816406, 17.931140899658299 ], [ -93.351089477539006, 17.875238418578999 ], [ -93.367340087890597, 17.827730178833001 ], [ -93.365661621093693, 17.7222003936768 ], [ -93.379310607910099, 17.668979644775401 ], [ -93.402626037597699, 17.6244411468506 ], [ -93.450439453124901, 17.594221115112301 ], [ -93.468589782714702, 17.559209823608501 ], [ -93.49796295166, 17.5352897644044 ], [ -93.506027221679702, 17.522630691528299 ], [ -93.508712768554602, 17.460689544677699 ], [ -93.576393127441406, 17.374549865722699 ] ] ] } },
{ "type": "Feature", "properties": { "NAME_1": "Tabasco", "NAME_2": "Jalapa" }, "geometry": { "type": "Polygon", "coordinates": [ [ [ -92.650451660156193, 17.697610855102699 ], [ -92.665367126464801, 17.674739837646499 ], [ -92.7139892578125, 17.634679794311499 ], [ -92.758972167968807, 17.617719650268601 ], [ -92.794876098632798, 17.623699188232401 ], [ -92.799156188964801, 17.633069992065501 ], [ -92.819961547851506, 17.6254196166993 ], [ -92.868415832519503, 17.627569198608299 ], [ -92.883140563964801, 17.616239547729499 ], [ -92.886329650878906, 17.639591217041001 ], [ -92.896942138671804, 17.652891159057699 ], [ -92.888236999511705, 17.669050216674901 ], [ -92.894065856933494, 17.684919357299901 ], [ -92.842872619628807, 17.7698192596437 ], [ -92.845451354980398, 17.789840698242202 ], [ -92.864532470702997, 17.803201675415 ], [ -92.847076416015497, 17.819129943847699 ], [ -92.862831115722699, 17.835050582885899 ], [ -92.855667114257798, 17.846942901611399 ], [ -92.786369323730497, 17.906692504882798 ], [ -92.682426452636705, 17.934789657592901 ], [ -92.675666809082003, 17.9308795928956 ], [ -92.661018371581903, 17.911769866943398 ], [ -92.676116943359403, 17.887702941894599 ], [ -92.663902282714801, 17.875780105590898 ], [ -92.669036865234403, 17.854658126831101 ], [ -92.653106689453097, 17.8367404937744 ], [ -92.660209655761705, 17.815580368042099 ], [ -92.644447326660199, 17.784120559692401 ], [ -92.671623229980497, 17.771539688110401 ], [ -92.624320983886705, 17.724821090698399 ], [ -92.650451660156193, 17.697610855102699 ] ] ] } },
{ "type": "Feature", "properties": { "NAME_1": "Tabasco", "NAME_2": "Jalpa de Méndez" }, "geometry": { "type": "Polygon", "coordinates": [ [ [ -92.956146240234304, 18.3530502319337 ], [ -93.021797180175795, 18.2824401855469 ], [ -93.008453369140597, 18.2625408172607 ], [ -93.015960693359304, 18.243299484252901 ], [ -93.001731872558494, 18.208681106567401 ], [ -93.028182983398295, 18.153419494628999 ], [ -92.984497070312401, 18.1437702178956 ], [ -92.955398559570298, 18.09912109375 ], [ -92.939666748046804, 18.029979705810501 ], [ -92.954353332519503, 18.017890930175799 ], [ -92.958068847656193, 17.986600875854499 ], [ -93.024459838867102, 18.052511215209901 ], [ -93.066535949707003, 18.0730495452881 ], [ -93.070487976074205, 18.1019401550293 ], [ -93.080841064453097, 18.1166496276856 ], [ -93.068153381347699, 18.150470733642699 ], [ -93.104766845703097, 18.1580104827881 ], [ -93.121147155761705, 18.1809902191163 ], [ -93.10546875, 18.232160568237401 ], [ -93.1197509765625, 18.259750366210898 ], [ -93.105537414550795, 18.2743911743163 ], [ -93.118553161620994, 18.320449829101602 ], [ -93.110061645507798, 18.325212478637699 ], [ -93.113105773925795, 18.335800170898398 ], [ -93.100852966308494, 18.352371215820401 ], [ -93.003616333007798, 18.382209777831999 ], [ -92.989196777343807, 18.381669998168899 ], [ -92.956146240234304, 18.3530502319337 ] ] ] } },
{ "type": "Feature", "properties": { "NAME_1": "Tabasco", "NAME_2": "Jonuta" }, "geometry": { "type": "Polygon", "coordinates": [ [ [ -92.187973022460895, 17.836851119995099 ], [ -92.212768554687401, 17.8497829437256 ], [ -92.235031127929702, 17.8501205444337 ], [ -92.243080139160099, 17.8743381500244 ], [ -92.256576538085895, 17.873300552368299 ], [ -92.278228759765597, 17.9043998718262 ], [ -92.288963317870994, 17.960680007934499 ], [ -92.338218688964801, 17.9835910797119 ], [ -92.338096618652301, 17.9976310729981 ], [ -92.319946289062401, 18.020751953125 ], [ -92.316131591796804, 18.039871215820401 ], [ -92.3269424438475, 18.0907802581788 ], [ -92.299766540527202, 18.125270843505898 ], [ -92.322616577148395, 18.132829666137798 ], [ -92.331436157226605, 18.1505012512206 ], [ -92.351440429687401, 18.154739379882901 ], [ -92.360847473144503, 18.193729400634801 ], [ -92.322723388671804, 18.211059570312401 ], [ -92.312667846679702, 18.244890213012699 ], [ -92.303321838378906, 18.2424011230469 ], [ -92.293090820312401, 18.2197704315187 ], [ -92.242370605468807, 18.239971160888601 ], [ -92.229156494140597, 18.276210784912099 ], [ -92.235862731933494, 18.295511245727599 ], [ -92.245986938476605, 18.3007202148437 ], [ -92.241088867187401, 18.315080642700199 ], [ -92.262077331542898, 18.3148517608644 ], [ -92.271896362304602, 18.323930740356499 ], [ -92.255119323730398, 18.344221115112301 ], [ -92.266380310058494, 18.360071182250898 ], [ -92.253227233886605, 18.370340347290199 ], [ -92.261901855468594, 18.3901290893556 ], [ -92.251296997070298, 18.3909511566162 ], [ -92.251838684082003, 18.407091140747099 ], [ -92.242256164550696, 18.414289474487401 ], [ -92.189216613769503, 18.353090286254901 ], [ -92.187332153320298, 18.3354110717775 ], [ -92.200798034667997, 18.2942810058594 ], [ -92.196601867675795, 18.277830123901399 ], [ -92.176490783691406, 18.262002944946399 ], [ -92.167800903320298, 18.218521118164102 ], [ -92.145072937011705, 18.193719863891701 ], [ -92.134033203125, 18.161598205566499 ], [ -92.101676940917898, 18.1283683776857 ], [ -92.086692810058494, 18.096319198608501 ], [ -92.036537170410099, 18.0707397460938 ], [ -92.003166198730398, 18.0377807617188 ], [ -91.948097229003906, 18.007738113403398 ], [ -91.934852600097599, 17.9781799316406 ], [ -91.906326293945298, 17.945390701294102 ], [ -91.885719299316406, 17.949420928955199 ], [ -91.851753234863295, 17.925451278686602 ], [ -91.801399230957003, 17.933521270751999 ], [ -91.789352416992102, 17.925979614257798 ], [ -91.820297241210895, 17.867731094360401 ], [ -91.853675842285199, 17.858350753784102 ], [ -91.900810241699205, 17.8650302886963 ], [ -91.916358947753807, 17.851280212402401 ], [ -91.933906555175696, 17.848779678344702 ], [ -91.946952819824205, 17.859889984130898 ], [ -91.941856384277301, 17.882560729980501 ], [ -91.964408874511705, 17.883369445800898 ], [ -91.992652893066307, 17.8974094390869 ], [ -92.000152587890597, 17.896619796753001 ], [ -92.023536682128906, 17.8319606781006 ], [ -92.042266845703097, 17.821470260620199 ], [ -92.106391906738295, 17.8249626159668 ], [ -92.161819458007798, 17.8448696136475 ], [ -92.187973022460895, 17.836851119995099 ] ] ] } },
{ "type": "Feature", "properties": { "NAME_1": "Tabasco", "NAME_2": "Macuspana" }, "geometry": { "type": "Polygon", "coordinates": [ [ [ -92.287239074707003, 17.693548202514599 ], [ -92.327842712402301, 17.6726398468019 ], [ -92.350547790527301, 17.641178131103601 ], [ -92.513938903808494, 17.517541885376001 ], [ -92.520217895507798, 17.543340682983501 ], [ -92.535751342773395, 17.562580108642599 ], [ -92.514152526855398, 17.574802398681701 ], [ -92.525909423828097, 17.598859786987401 ], [ -92.537826538085895, 17.604209899902301 ], [ -92.5714111328125, 17.587221145629801 ], [ -92.586112976074205, 17.587778091430799 ], [ -92.581848144531193, 17.6509609222413 ], [ -92.614326477050795, 17.692350387573299 ], [ -92.650451660156193, 17.697610855102699 ], [ -92.624679565429602, 17.727741241455099 ], [ -92.671623229980497, 17.771539688110401 ], [ -92.644447326660199, 17.784120559692401 ], [ -92.660209655761705, 17.815580368042099 ], [ -92.653106689453097, 17.8367404937744 ], [ -92.669036865234403, 17.854658126831101 ], [ -92.663902282714801, 17.875780105590898 ], [ -92.676116943359403, 17.887702941894599 ], [ -92.661018371581903, 17.911769866943398 ], [ -92.682426452636705, 17.934789657592901 ], [ -92.676856994628906, 18.009571075439499 ], [ -92.666900634765597, 18.027000427246001 ], [ -92.679786682128807, 18.039840698242202 ], [ -92.672943115234403, 18.0472412109375 ], [ -92.644157409667997, 18.049730300903398 ], [ -92.677986145019503, 18.068189620971701 ], [ -92.668128967285199, 18.111930847168001 ], [ -92.684593200683594, 18.140569686889702 ], [ -92.685829162597699, 18.165950775146399 ], [ -92.625068664550795, 18.179399490356602 ], [ -92.592636108398295, 18.142520904541001 ], [ -92.528472900390597, 18.1409206390381 ], [ -92.501152038574205, 18.116661071777301 ], [ -92.459289550781193, 18.099130630493299 ], [ -92.314338684082003, 18.105390548706101 ], [ -92.3269424438475, 18.0907802581788 ], [ -92.3157958984375, 18.054601669311602 ], [ -92.317642211914105, 18.029640197753999 ], [ -92.338096618652301, 17.9976310729981 ], [ -92.338218688964801, 17.9835910797119 ], [ -92.288963317870994, 17.960680007934499 ], [ -92.278228759765597, 17.9043998718262 ], [ -92.256576538085895, 17.873300552368299 ], [ -92.243080139160099, 17.8743381500244 ], [ -92.235031127929702, 17.8501205444337 ], [ -92.212768554687401, 17.8497829437256 ], [ -92.187973022460895, 17.836851119995099 ], [ -92.197380065917997, 17.815580368042099 ], [ -92.181343078613295, 17.759780883788999 ], [ -92.184997558593807, 17.731689453125099 ], [ -92.196342468261705, 17.7181911468506 ], [ -92.287239074707003, 17.693548202514599 ] ] ] } },
{ "type": "Feature", "properties": { "NAME_1": "Tabasco", "NAME_2": "Nacajuca" }, "geometry": { "type": "Polygon", "coordinates": [ [ [ -92.956146240234304, 18.3530502319337 ], [ -92.863777160644503, 18.265420913696399 ], [ -92.834136962890597, 18.248380661010899 ], [ -92.856857299804702, 18.1827201843263 ], [ -92.917358398437401, 18.1262607574463 ], [ -92.939666748046804, 18.029979705810501 ], [ -92.953292846679602, 18.092830657958999 ], [ -92.971496582031193, 18.129571914672901 ], [ -92.984497070312401, 18.1437702178956 ], [ -93.028182983398295, 18.153419494628999 ], [ -93.001731872558494, 18.208681106567401 ], [ -93.015960693359304, 18.243299484252901 ], [ -93.008453369140597, 18.2625408172607 ], [ -93.021797180175795, 18.2824401855469 ], [ -92.956146240234304, 18.3530502319337 ] ] ] } },
{ "type": "Feature", "properties": { "NAME_1": "Tabasco", "NAME_2": "Paraíso" }, "geometry": { "type": "GeometryCollection", "geometries": [ { "type": "Polygon", "coordinates": [ [ [ -93.120140075683594, 18.3587875366212 ], [ -93.126388549804602, 18.326929092407202 ], [ -93.105499267578097, 18.282569885253999 ], [ -93.106201171875, 18.271640777587901 ], [ -93.1197509765625, 18.259750366210898 ], [ -93.176086425781193, 18.3107299804688 ], [ -93.216346740722699, 18.329610824585099 ], [ -93.281768798828097, 18.401220321655298 ], [ -93.384422302246094, 18.403631210327301 ], [ -93.396591186523395, 18.406112670898501 ], [ -93.402435302734403, 18.419305801391701 ], [ -93.384025573730497, 18.4137496948243 ], [ -93.382080078124901, 18.4234714508057 ], [ -93.400970458984304, 18.423194885253899 ], [ -93.413475036621094, 18.416805267333999 ], [ -93.435417175292997, 18.426805496215898 ], [ -93.222915649414006, 18.439027786255 ], [ -93.214302062988196, 18.446805953979499 ], [ -93.212081909179702, 18.435138702392599 ], [ -93.195968627929702, 18.439861297607401 ], [ -93.187362670898395, 18.432081222534102 ], [ -93.184028625488295, 18.436527252197301 ], [ -93.190414428710895, 18.437915802002099 ], [ -93.189308166503906, 18.446805953979499 ], [ -93.197082519531193, 18.4515285491943 ], [ -93.197914123535099, 18.4523620605469 ], [ -93.197364807128807, 18.453193664550799 ], [ -93.189025878906193, 18.448194503784201 ], [ -93.187080383300795, 18.4418048858643 ], [ -93.148750305175795, 18.442361831665099 ], [ -93.145416259765597, 18.440971374511701 ], [ -93.165412902831903, 18.434860229492202 ], [ -93.174026489257798, 18.415138244628999 ], [ -93.185142517089801, 18.4187526702881 ], [ -93.173194885253906, 18.414304733276499 ], [ -93.162086486816406, 18.435138702392599 ], [ -93.148475646972699, 18.427360534667901 ], [ -93.174858093261605, 18.404859542846701 ], [ -93.165496826171804, 18.347690582275501 ], [ -93.120140075683594, 18.3587875366212 ] ] ] }, { "type": "Polygon", "coordinates": [ [ [ -93.150459289550795, 18.430973052978601 ], [ -93.150695800781193, 18.432081222534102 ], [ -93.150100708007798, 18.432081222534102 ], [ -93.150459289550795, 18.430973052978601 ] ] ] }, { "type": "Polygon", "coordinates": [ [ [ -93.568473815917997, 18.3859462738037 ], [ -93.575973510742102, 18.392915725708001 ], [ -93.584587097167997, 18.385972976684702 ], [ -93.585975646972599, 18.3881950378418 ], [ -93.583747863769503, 18.392915725708001 ], [ -93.538749694824205, 18.4051399230956 ], [ -93.442642211914006, 18.425693511963001 ], [ -93.430969238281193, 18.422916412353501 ], [ -93.439857482910099, 18.410694122314499 ], [ -93.434303283691406, 18.3987503051757 ], [ -93.416114807128807, 18.404859542846701 ], [ -93.416496276855398, 18.3919906616212 ], [ -93.435272216796804, 18.3731803894044 ], [ -93.448036193847699, 18.387630462646499 ], [ -93.451217651367102, 18.4093627929688 ], [ -93.506858825683594, 18.373109817504901 ], [ -93.568473815917997, 18.3859462738037 ] ] ] }, { "type": "Polygon", "coordinates": [ [ [ -93.150413513183494, 18.4234714508057 ], [ -93.150695800781193, 18.417358398437599 ], [ -93.158752441406193, 18.412082672119201 ], [ -93.157913208007798, 18.4190273284913 ], [ -93.150413513183494, 18.4234714508057 ] ] ] }, { "type": "Polygon", "coordinates": [ [ [ -93.414268493652301, 18.4086723327637 ], [ -93.420692443847599, 18.4081935882569 ], [ -93.421249389648395, 18.4110221862794 ], [ -93.412147521972699, 18.4132804870606 ], [ -93.414268493652301, 18.4086723327637 ] ] ] }, { "type": "Polygon", "coordinates": [ [ [ -93.4254150390625, 18.410139083862202 ], [ -93.42236328125, 18.407917022705099 ], [ -93.427085876464801, 18.405969619751001 ], [ -93.427085876464801, 18.408472061157301 ], [ -93.4254150390625, 18.410139083862202 ] ] ] } ] } },
{ "type": "Feature", "properties": { "NAME_1": "Tabasco", "NAME_2": "Tacotalpa" }, "geometry": { "type": "Polygon", "coordinates": [ [ [ -92.695968627929702, 17.379970550537099 ], [ -92.730003356933594, 17.361402511596701 ], [ -92.756477355956903, 17.358432769775401 ], [ -92.788803100585895, 17.3702297210694 ], [ -92.808113098144503, 17.388902664184599 ], [ -92.816719055175696, 17.4124526977538 ], [ -92.79931640625, 17.434221267700298 ], [ -92.798683166503906, 17.456029891967798 ], [ -92.785057067870994, 17.474300384521602 ], [ -92.806777954101605, 17.506679534912202 ], [ -92.829216003417898, 17.521511077880898 ], [ -92.847236633300696, 17.565668106078999 ], [ -92.874267578125, 17.591220855713001 ], [ -92.883140563964801, 17.616239547729499 ], [ -92.868415832519503, 17.627569198608299 ], [ -92.819961547851506, 17.6254196166993 ], [ -92.799156188964801, 17.633069992065501 ], [ -92.794876098632798, 17.623699188232401 ], [ -92.758972167968807, 17.617719650268601 ], [ -92.7139892578125, 17.634679794311499 ], [ -92.665367126464801, 17.674739837646499 ], [ -92.650451660156193, 17.697610855102699 ], [ -92.619873046875, 17.694259643554702 ], [ -92.579612731933594, 17.644931793212901 ], [ -92.586112976074205, 17.587778091430799 ], [ -92.533096313476506, 17.604101181030199 ], [ -92.516357421875, 17.5855598449706 ], [ -92.514152526855398, 17.574802398681701 ], [ -92.535751342773395, 17.562580108642599 ], [ -92.520217895507798, 17.543340682983501 ], [ -92.513938903808494, 17.517541885376001 ], [ -92.592887878417898, 17.470188140869102 ], [ -92.695968627929702, 17.379970550537099 ] ] ] } },
{ "type": "Feature", "properties": { "NAME_1": "Tabasco", "NAME_2": "Teapa" }, "geometry": { "type": "Polygon", "coordinates": [ [ [ -92.966583251953097, 17.5035305023194 ], [ -92.956672668457003, 17.5791702270507 ], [ -92.978889465332003, 17.613370895385799 ], [ -93.026306152343807, 17.6455097198487 ], [ -93.054031372070298, 17.698551177978601 ], [ -93.048370361328097, 17.7204494476318 ], [ -92.9983291625975, 17.790920257568501 ], [ -92.936569213867202, 17.767641067505 ], [ -92.910926818847699, 17.768182754516701 ], [ -92.866828918457003, 17.728511810302798 ], [ -92.892097473144503, 17.691270828247099 ], [ -92.888236999511705, 17.669050216674901 ], [ -92.895851135253906, 17.648847579956101 ], [ -92.886329650878906, 17.639591217041001 ], [ -92.874267578125, 17.591220855713001 ], [ -92.847236633300696, 17.565668106078999 ], [ -92.829216003417898, 17.521511077880898 ], [ -92.806777954101605, 17.506679534912202 ], [ -92.784217834472599, 17.4716205596925 ], [ -92.798683166503906, 17.456029891967798 ], [ -92.79931640625, 17.434221267700298 ], [ -92.816719055175696, 17.4124526977538 ], [ -92.817070007324205, 17.429029464721701 ], [ -92.830696105957003, 17.441921234130799 ], [ -92.848503112792898, 17.485120773315401 ], [ -92.871589660644403, 17.508039474487301 ], [ -92.886848449706903, 17.511070251464801 ], [ -92.909637451171804, 17.496200561523398 ], [ -92.938682556152301, 17.502681732177798 ], [ -92.958236694335895, 17.495571136474599 ], [ -92.966583251953097, 17.5035305023194 ] ] ] } },
{ "type": "Feature", "properties": { "NAME_1": "Tabasco", "NAME_2": "Tenosique" }, "geometry": { "type": "Polygon", "coordinates": [ [ [ -91.412246704101506, 17.252531051635899 ], [ -91.399253845214801, 17.285169601440501 ], [ -91.360290527343693, 17.303020477295 ], [ -91.362556457519503, 17.318912506103501 ], [ -91.404090881347699, 17.371610641479499 ], [ -91.456726074218807, 17.385320663452099 ], [ -91.464347839355398, 17.417100906372099 ], [ -91.50821685791, 17.4344196319581 ], [ -91.516006469726506, 17.475429534912202 ], [ -91.575317382812401, 17.568910598754801 ], [ -91.590446472167997, 17.627929687500099 ], [ -91.619712829589801, 17.681409835815401 ], [ -91.573081970214801, 17.702489852905401 ], [ -91.533287048339801, 17.684629440307599 ], [ -91.476676940917997, 17.680580139160298 ], [ -91.447921752929602, 17.6580104827881 ], [ -91.328048706054602, 17.594940185546999 ], [ -91.243263244628807, 17.6097412109375 ], [ -91.221786499023395, 17.621650695800898 ], [ -91.173751831054602, 17.619260787963899 ], [ -91.159912109374901, 17.631599426269599 ], [ -91.155487060546903, 17.647970199584901 ], [ -91.143302917480398, 17.654190063476602 ], [ -91.082946777343693, 17.635429382324201 ], [ -91.063392639160099, 17.643699645996101 ], [ -90.982139587402301, 17.6378498077393 ], [ -90.990173339843693, 17.259357452392699 ], [ -91.412246704101506, 17.252531051635899 ] ] ] } }
]
}
