{
"type": "FeatureCollection",
"name": "tlaxcala",
"crs": { "type": "name", "properties": { "name": "urn:ogc:def:crs:OGC:1.3:CRS84" } },
"features": [
{ "type": "Feature", "properties": { "NAME_1": "Tlaxcala", "NAME_2": "Acuamanala de Miguel Hidalgo" }, "geometry": { "type": "Polygon", "coordinates": [ [ [ -98.030441284179702, 19.230760574340898 ], [ -98.037307739257798, 19.2163391113282 ], [ -98.104728698730497, 19.2199611663819 ], [ -98.115867614746094, 19.240158081054702 ], [ -98.048576354980398, 19.245519638061602 ], [ -98.030441284179702, 19.230760574340898 ] ] ] } },
{ "type": "Feature", "properties": { "NAME_1": "Tlaxcala", "NAME_2": "Altzayanca" }, "geometry": { "type": "Polygon", "coordinates": [ [ [ -97.760856628417898, 19.387052536010899 ], [ -97.797515869140597, 19.392379760742202 ], [ -97.807052612304702, 19.401161193847699 ], [ -97.821533203124901, 19.444910049438501 ], [ -97.813499450683494, 19.4822902679443 ], [ -97.786087036132798, 19.524900436401399 ], [ -97.740325927734403, 19.521562576293999 ], [ -97.713142395019503, 19.539262771606399 ], [ -97.695556640624901, 19.538621902465799 ], [ -97.665069580078097, 19.517700195312599 ], [ -97.640289306640597, 19.4841499328613 ], [ -97.684967041015597, 19.444520950317401 ], [ -97.7091064453125, 19.410448074340799 ], [ -97.723052978515597, 19.4351100921632 ], [ -97.734275817870994, 19.432519912719801 ], [ -97.741317749023395, 19.382898330688501 ], [ -97.760856628417898, 19.387052536010899 ] ] ] } },
{ "type": "Feature", "properties": { "NAME_1": "Tlaxcala", "NAME_2": "Amaxac de Guerrero" }, "geometry": { "type": "Polygon", "coordinates": [ [ [ -98.083198547363196, 19.399351119995099 ], [ -98.069686889648395, 19.3731212615968 ], [ -98.103782653808594, 19.3738098144531 ], [ -98.115531921386705, 19.3932495117188 ], [ -98.101837158203097, 19.4050312042237 ], [ -98.096191406249901, 19.397590637207099 ], [ -98.083198547363196, 19.399351119995099 ] ] ] } },
{ "type": "Feature", "properties": { "NAME_1": "Tlaxcala", "NAME_2": "Apetatitlán de Antonio Carvajal" }, "geometry": { "type": "Polygon", "coordinates": [ [ [ -98.103782653808594, 19.3738098144531 ], [ -98.112846374511705, 19.353420257568501 ], [ -98.125839233398395, 19.3473300933838 ], [ -98.144012451171903, 19.3725700378418 ], [ -98.128562927246094, 19.377340316772599 ], [ -98.115531921386705, 19.3932495117188 ], [ -98.103782653808594, 19.3738098144531 ] ] ] } },
{ "type": "Feature", "properties": { "NAME_1": "Tlaxcala", "NAME_2": "Apizaco" }, "geometry": { "type": "Polygon", "coordinates": [ [ [ -98.010917663574205, 19.424850463867301 ], [ -98.042526245117202, 19.425380706787099 ], [ -98.083198547363196, 19.399351119995099 ], [ -98.077331542968807, 19.417640686035298 ], [ -98.090393066406193, 19.471668243408299 ], [ -98.047737121582003, 19.478361129760799 ], [ -98.016586303710895, 19.465080261230501 ], [ -97.987937927245994, 19.469289779663001 ], [ -98.012413024902301, 19.440322875976701 ], [ -98.010917663574205, 19.424850463867301 ] ] ] } },
{ "type": "Feature", "properties": { "NAME_1": "Tlaxcala", "NAME_2": "Atlangatepec" }, "geometry": { "type": "Polygon", "coordinates": [ [ [ -98.110572814941307, 19.5242729187012 ], [ -98.174171447753807, 19.561220169067401 ], [ -98.203742980957003, 19.5684127807618 ], [ -98.170936584472599, 19.593570709228601 ], [ -98.122726440429702, 19.593090057373001 ], [ -98.101158142089801, 19.6013507843019 ], [ -98.075149536132798, 19.5971794128419 ], [ -98.058906555175696, 19.564100265502901 ], [ -98.027519226074205, 19.5564994812012 ], [ -98.037292480468807, 19.539529800415199 ], [ -98.110572814941307, 19.5242729187012 ] ] ] } },
{ "type": "Feature", "properties": { "NAME_1": "Tlaxcala", "NAME_2": "Calpulalpan" }, "geometry": { "type": "Polygon", "coordinates": [ [ [ -98.411979675292997, 19.540451049804801 ], [ -98.439376831054702, 19.546382904052798 ], [ -98.453506469726506, 19.539979934692401 ], [ -98.470565795898395, 19.551319122314499 ], [ -98.506347656249901, 19.539560317993299 ], [ -98.532752990722599, 19.546239852905298 ], [ -98.557167053222599, 19.478420257568398 ], [ -98.584877014160199, 19.467300415039102 ], [ -98.605941772460895, 19.49001121521 ], [ -98.636253356933494, 19.481071472168001 ], [ -98.674797058105497, 19.5501594543457 ], [ -98.474403381347599, 19.614831924438501 ], [ -98.439796447753807, 19.607170104980501 ], [ -98.440170288085895, 19.595260620117202 ], [ -98.407951354980398, 19.5706996917725 ], [ -98.411979675292997, 19.540451049804801 ] ] ] } },
{ "type": "Feature", "properties": { "NAME_1": "Tlaxcala", "NAME_2": "Chiautempan" }, "geometry": { "type": "Polygon", "coordinates": [ [ [ -97.960159301757798, 19.341051101684599 ], [ -97.941780090332003, 19.2678127288819 ], [ -98.006431579589801, 19.2770099639893 ], [ -98.104721069335895, 19.261360168457099 ], [ -98.114051818847699, 19.273740768432699 ], [ -98.113555908203097, 19.3090305328369 ], [ -98.10595703125, 19.320280075073399 ], [ -98.128776550292898, 19.319282531738299 ], [ -98.135887145996094, 19.331930160522599 ], [ -98.117736816406193, 19.3549499511719 ], [ -98.026298522949205, 19.338871002197301 ], [ -98.021400451660099, 19.353939056396499 ], [ -97.991760253906193, 19.353412628173899 ], [ -97.960159301757798, 19.341051101684599 ] ] ] } },
{ "type": "Feature", "properties": { "NAME_1": "Tlaxcala", "NAME_2": "Contla de Juan Cuamatzi" }, "geometry": { "type": "Polygon", "coordinates": [ [ [ -98.103782653808594, 19.3738098144531 ], [ -98.069686889648395, 19.3731212615968 ], [ -98.021400451660099, 19.353939056396499 ], [ -98.020156860351506, 19.346000671386701 ], [ -98.031921386718807, 19.3390197753907 ], [ -98.055458068847599, 19.348949432373001 ], [ -98.109161376953097, 19.350509643554599 ], [ -98.103782653808594, 19.3738098144531 ] ] ] } },
{ "type": "Feature", "properties": { "NAME_1": "Tlaxcala", "NAME_2": "Cuapiaxtla" }, "geometry": { "type": "Polygon", "coordinates": [ [ [ -97.731269836425795, 19.3307094573975 ], [ -97.743263244628906, 19.353559494018601 ], [ -97.761566162109403, 19.3661193847657 ], [ -97.763549804687401, 19.379289627075298 ], [ -97.760856628417898, 19.387052536010899 ], [ -97.741317749023395, 19.382898330688501 ], [ -97.734275817870994, 19.432519912719801 ], [ -97.723052978515597, 19.4351100921632 ], [ -97.7091064453125, 19.410448074340799 ], [ -97.684967041015597, 19.444520950317401 ], [ -97.640289306640597, 19.4841499328613 ], [ -97.633743286132798, 19.479480743408299 ], [ -97.638572692871094, 19.414859771728601 ], [ -97.631248474120994, 19.404230117797901 ], [ -97.605628967285199, 19.397590637207099 ], [ -97.617317199707003, 19.373649597168001 ], [ -97.607727050781193, 19.338569641113299 ], [ -97.640647888183594, 19.337400436401399 ], [ -97.698097229003807, 19.318580627441499 ], [ -97.731269836425795, 19.3307094573975 ] ] ] } },
{ "type": "Feature", "properties": { "NAME_1": "Tlaxcala", "NAME_2": "Cuaxomulco" }, "geometry": { "type": "Polygon", "coordinates": [ [ [ -97.955513000488196, 19.362262725830099 ], [ -97.964317321777301, 19.341230392456101 ], [ -97.991760253906193, 19.353412628173899 ], [ -98.002296447753906, 19.371250152587901 ], [ -98.030265808105398, 19.378679275512798 ], [ -97.979042053222699, 19.382459640503001 ], [ -97.955513000488196, 19.362262725830099 ] ] ] } },
{ "type": "Feature", "properties": { "NAME_1": "Tlaxcala", "NAME_2": "El Carmen Tequexquitla" }, "geometry": { "type": "Polygon", "coordinates": [ [ [ -97.633743286132798, 19.479480743408299 ], [ -97.620201110839801, 19.472660064697401 ], [ -97.602378845214801, 19.41974067688 ], [ -97.546577453613196, 19.402540206909102 ], [ -97.558128356933494, 19.358779907226602 ], [ -97.582595825195298, 19.340269088745199 ], [ -97.607727050781193, 19.338569641113299 ], [ -97.617317199707003, 19.373649597168001 ], [ -97.605628967285199, 19.397590637207099 ], [ -97.631248474120994, 19.404230117797901 ], [ -97.638572692871094, 19.414859771728601 ], [ -97.633743286132798, 19.479480743408299 ] ] ] } },
{ "type": "Feature", "properties": { "NAME_1": "Tlaxcala", "NAME_2": "Españita" }, "geometry": { "type": "Polygon", "coordinates": [ [ [ -98.259498596191406, 19.4438209533693 ], [ -98.273246765136705, 19.430389404296999 ], [ -98.318977355957003, 19.429460525512798 ], [ -98.349227905273395, 19.417909622192401 ], [ -98.370277404785099, 19.403940200805799 ], [ -98.3892822265625, 19.377290725708001 ], [ -98.434028625488295, 19.402402877807599 ], [ -98.417793273925795, 19.423070907592798 ], [ -98.411796569824205, 19.465970993041999 ], [ -98.385887145995994, 19.475629806518601 ], [ -98.369918823242202, 19.494850158691499 ], [ -98.338691711425696, 19.492597579956101 ], [ -98.301612854003807, 19.470409393310501 ], [ -98.268371582031193, 19.468759536743299 ], [ -98.259498596191406, 19.4438209533693 ] ] ] } },
{ "type": "Feature", "properties": { "NAME_1": "Tlaxcala", "NAME_2": "Huamantla" }, "geometry": { "type": "Polygon", "coordinates": [ [ [ -97.779632568359403, 19.3018512725831 ], [ -97.857376098632798, 19.330379486084102 ], [ -97.888427734375, 19.2936706542968 ], [ -97.908729553222699, 19.2900199890137 ], [ -97.904579162597599, 19.2766628265381 ], [ -97.915992736816406, 19.238428115844702 ], [ -97.934432983398395, 19.248060226440401 ], [ -97.951332092285, 19.304082870483501 ], [ -97.960159301757798, 19.341051101684599 ], [ -97.950653076171804, 19.3896198272706 ], [ -97.922737121582003, 19.405179977417099 ], [ -97.884811401367202, 19.3962707519532 ], [ -97.881385803222699, 19.405179977417099 ], [ -97.904899597167997, 19.4281311035157 ], [ -97.905647277832003, 19.445640563965 ], [ -97.873863220214801, 19.448930740356602 ], [ -97.825729370117102, 19.490821838378999 ], [ -97.809112548828097, 19.4911994934082 ], [ -97.821533203124901, 19.444910049438501 ], [ -97.807052612304702, 19.401161193847699 ], [ -97.797515869140597, 19.392379760742202 ], [ -97.760856628417898, 19.387052536010899 ], [ -97.761566162109403, 19.3661193847657 ], [ -97.743263244628906, 19.353559494018601 ], [ -97.731269836425795, 19.3307094573975 ], [ -97.751800537109304, 19.313850402832099 ], [ -97.762031555175795, 19.2928791046143 ], [ -97.779632568359403, 19.3018512725831 ] ] ] } },
{ "type": "Feature", "properties": { "NAME_1": "Tlaxcala", "NAME_2": "Hueyotlipan" }, "geometry": { "type": "Polygon", "coordinates": [ [ [ -98.338691711425696, 19.492597579956101 ], [ -98.320770263671804, 19.528730392456101 ], [ -98.324638366699205, 19.573869705200298 ], [ -98.271362304687401, 19.5714111328125 ], [ -98.247619628906193, 19.556720733642599 ], [ -98.233161926269503, 19.558059692382798 ], [ -98.242675781249901, 19.521629333496101 ], [ -98.210189819335895, 19.530681610107401 ], [ -98.220016479492202, 19.506620407104599 ], [ -98.199310302734403, 19.4440002441406 ], [ -98.218688964843807, 19.423671722412099 ], [ -98.251861572265597, 19.4256896972656 ], [ -98.263687133789105, 19.465869903564499 ], [ -98.301612854003807, 19.470409393310501 ], [ -98.338691711425696, 19.492597579956101 ] ] ] } },
{ "type": "Feature", "properties": { "NAME_1": "Tlaxcala", "NAME_2": "Ixtacuixtla de Mariano Matamoros" }, "geometry": { "type": "Polygon", "coordinates": [ [ [ -98.360755920410199, 19.350379943847699 ], [ -98.3892822265625, 19.377290725708001 ], [ -98.365249633789105, 19.408460617065401 ], [ -98.328079223632798, 19.4269123077393 ], [ -98.273246765136705, 19.430389404296999 ], [ -98.259498596191406, 19.4438209533693 ], [ -98.251861572265597, 19.4256896972656 ], [ -98.215499877929602, 19.423030853271602 ], [ -98.205657958984304, 19.411558151245099 ], [ -98.209075927734304, 19.392139434814599 ], [ -98.200721740722699, 19.3772296905519 ], [ -98.199966430664105, 19.343299865722699 ], [ -98.215171813964801, 19.308469772338999 ], [ -98.223030090332003, 19.305620193481499 ], [ -98.240463256835895, 19.246839523315501 ], [ -98.292587280273395, 19.292699813842798 ], [ -98.3248291015625, 19.295419692993299 ], [ -98.341156005859403, 19.332389831542901 ], [ -98.360755920410199, 19.350379943847699 ] ] ] } },
{ "type": "Feature", "properties": { "NAME_1": "Tlaxcala", "NAME_2": "Ixtenco" }, "geometry": { "type": "Polygon", "coordinates": [ [ [ -97.779632568359403, 19.3018512725831 ], [ -97.8099365234375, 19.270179748535298 ], [ -97.841712951660199, 19.260311126708999 ], [ -97.855895996093807, 19.2765197753906 ], [ -97.904327392578097, 19.279619216918899 ], [ -97.908729553222699, 19.2900199890137 ], [ -97.888427734375, 19.2936706542968 ], [ -97.864219665527301, 19.325990676879901 ], [ -97.851997375488295, 19.331119537353601 ], [ -97.779632568359403, 19.3018512725831 ] ] ] } },
{ "type": "Feature", "properties": { "NAME_1": "Tlaxcala", "NAME_2": "Mazatecochco de José María Morelos" }, "geometry": { "type": "Polygon", "coordinates": [ [ [ -98.065505981445298, 19.1857109069825 ], [ -98.104011535644503, 19.191310882568501 ], [ -98.102516174316406, 19.222948074340898 ], [ -98.037307739257798, 19.2163391113282 ], [ -98.052276611328097, 19.188390731811499 ], [ -98.065505981445298, 19.1857109069825 ] ] ] } },
{ "type": "Feature", "properties": { "NAME_1": "Tlaxcala", "NAME_2": "Muñoz de Domingo Arenas" }, "geometry": { "type": "Polygon", "coordinates": [ [ [ -98.090393066406193, 19.471668243408299 ], [ -98.131340026855497, 19.460660934448399 ], [ -98.167419433593693, 19.465869903564499 ], [ -98.182243347167997, 19.530399322509801 ], [ -98.218772888183594, 19.530250549316399 ], [ -98.242675781249901, 19.521629333496101 ], [ -98.233161926269503, 19.558059692382798 ], [ -98.193130493164105, 19.567951202392599 ], [ -98.139808654785199, 19.542810440063601 ], [ -98.088722229003807, 19.5070095062257 ], [ -98.090393066406193, 19.471668243408299 ] ] ] } },
{ "type": "Feature", "properties": { "NAME_1": "Tlaxcala", "NAME_2": "Nanacamilpa de Mariano Arista" }, "geometry": { "type": "Polygon", "coordinates": [ [ [ -98.557167053222599, 19.478420257568398 ], [ -98.532752990722599, 19.546239852905298 ], [ -98.506347656249901, 19.539560317993299 ], [ -98.470565795898395, 19.551319122314499 ], [ -98.453506469726506, 19.539979934692401 ], [ -98.439376831054702, 19.546382904052798 ], [ -98.411979675292997, 19.540451049804801 ], [ -98.439872741699205, 19.485910415649499 ], [ -98.462120056152202, 19.478731155395501 ], [ -98.480628967285199, 19.450250625610401 ], [ -98.490699768066307, 19.447139739990199 ], [ -98.525962829589801, 19.475910186767699 ], [ -98.557167053222599, 19.478420257568398 ] ] ] } },
{ "type": "Feature", "properties": { "NAME_1": "Tlaxcala", "NAME_2": "Natívitas" }, "geometry": { "type": "Polygon", "coordinates": [ [ [ -98.237770080566406, 19.201450347900298 ], [ -98.253768920898395, 19.212150573730501 ], [ -98.223030090332003, 19.305620193481499 ], [ -98.192832946777301, 19.305610656738299 ], [ -98.183639526367102, 19.2983798980713 ], [ -98.193443298339801, 19.225980758666999 ], [ -98.175842285156193, 19.201980590820298 ], [ -98.182037353515597, 19.179931640625099 ], [ -98.237770080566406, 19.201450347900298 ] ] ] } },
{ "type": "Feature", "properties": { "NAME_1": "Tlaxcala", "NAME_2": "Panotla" }, "geometry": { "type": "Polygon", "coordinates": [ [ [ -98.218688964843807, 19.423671722412099 ], [ -98.199310302734403, 19.4440002441406 ], [ -98.168800354003906, 19.369720458984499 ], [ -98.185966491699205, 19.359220504760899 ], [ -98.180557250976605, 19.338350296020501 ], [ -98.197738647460895, 19.303951263427798 ], [ -98.215919494628906, 19.312099456787099 ], [ -98.201683044433594, 19.3369026184082 ], [ -98.198989868164006, 19.360860824585 ], [ -98.209075927734304, 19.392139434814599 ], [ -98.205657958984304, 19.411558151245099 ], [ -98.218688964843807, 19.423671722412099 ] ] ] } },
{ "type": "Feature", "properties": { "NAME_1": "Tlaxcala", "NAME_2": "Papalotla de Xicohténcatl" }, "geometry": { "type": "Polygon", "coordinates": [ [ [ -98.104011535644503, 19.191310882568501 ], [ -98.136398315429702, 19.162870407104499 ], [ -98.145431518554702, 19.160140991211101 ], [ -98.157379150390597, 19.169540405273398 ], [ -98.136886596679602, 19.177640914917099 ], [ -98.106689453125, 19.224250793456999 ], [ -98.104011535644503, 19.191310882568501 ] ] ] } },
{ "type": "Feature", "properties": { "NAME_1": "Tlaxcala", "NAME_2": "San Pablo del Monte" }, "geometry": { "type": "Polygon", "coordinates": [ [ [ -98.112510681152301, 19.1396808624268 ], [ -98.076812744140597, 19.162591934204201 ], [ -98.065505981445298, 19.1857109069825 ], [ -98.052276611328097, 19.188390731811499 ], [ -98.030441284179702, 19.230760574340898 ], [ -98.0152587890625, 19.2252712249756 ], [ -98.005386352539006, 19.1950302124025 ], [ -98.071533203125, 19.142759323120099 ], [ -98.112510681152301, 19.1396808624268 ] ] ] } },
{ "type": "Feature", "properties": { "NAME_1": "Tlaxcala", "NAME_2": "Sanctórum de Lázaro Cárdenas" }, "geometry": { "type": "Polygon", "coordinates": [ [ [ -98.411979675292997, 19.540451049804801 ], [ -98.405113220214801, 19.564620971679702 ], [ -98.440170288085895, 19.595260620117202 ], [ -98.439796447753807, 19.607170104980501 ], [ -98.398200988769503, 19.6079196929932 ], [ -98.332443237304702, 19.623710632324201 ], [ -98.320640563964801, 19.593269348144599 ], [ -98.327293395996094, 19.566999435424801 ], [ -98.319709777832003, 19.538049697875898 ], [ -98.326736450195298, 19.512680053710898 ], [ -98.338691711425696, 19.492597579956101 ], [ -98.374771118164105, 19.493509292602599 ], [ -98.385887145995994, 19.475629806518601 ], [ -98.409637451171804, 19.468908309936499 ], [ -98.417793273925795, 19.423070907592798 ], [ -98.434028625488295, 19.402402877807599 ], [ -98.490699768066307, 19.447139739990199 ], [ -98.472778320312401, 19.457649230957099 ], [ -98.462120056152202, 19.478731155395501 ], [ -98.439872741699205, 19.485910415649499 ], [ -98.411979675292997, 19.540451049804801 ] ] ] } },
{ "type": "Feature", "properties": { "NAME_1": "Tlaxcala", "NAME_2": "Santa Cruz Tlaxcala" }, "geometry": { "type": "Polygon", "coordinates": [ [ [ -98.069686889648395, 19.3731212615968 ], [ -98.083198547363196, 19.399351119995099 ], [ -98.0670166015625, 19.404569625854499 ], [ -98.025566101074205, 19.375509262085 ], [ -98.002296447753906, 19.371250152587901 ], [ -97.990531921386705, 19.3554706573487 ], [ -98.021400451660099, 19.353939056396499 ], [ -98.069686889648395, 19.3731212615968 ] ] ] } },
{ "type": "Feature", "properties": { "NAME_1": "Tlaxcala", "NAME_2": "Tenancingo" }, "geometry": { "type": "Polygon", "coordinates": [ [ [ -98.112510681152301, 19.1396808624268 ], [ -98.145431518554702, 19.160140991211101 ], [ -98.104011535644503, 19.191310882568501 ], [ -98.065505981445298, 19.1857109069825 ], [ -98.076812744140597, 19.162591934204201 ], [ -98.112510681152301, 19.1396808624268 ] ] ] } },
{ "type": "Feature", "properties": { "NAME_1": "Tlaxcala", "NAME_2": "Teolocholco" }, "geometry": { "type": "Polygon", "coordinates": [ [ [ -98.115867614746094, 19.240158081054702 ], [ -98.14054107666, 19.236959457397599 ], [ -98.143486022949205, 19.2605895996094 ], [ -97.987327575683594, 19.2765712738038 ], [ -97.941780090332003, 19.2678127288819 ], [ -97.934432983398395, 19.248060226440401 ], [ -97.9486083984375, 19.2446098327637 ], [ -98.005386352539006, 19.1950302124025 ], [ -98.0152587890625, 19.2252712249756 ], [ -98.040237426757798, 19.242679595947301 ], [ -98.115867614746094, 19.240158081054702 ] ] ] } },
{ "type": "Feature", "properties": { "NAME_1": "Tlaxcala", "NAME_2": "Tepetitla de Lardizábal" }, "geometry": { "type": "Polygon", "coordinates": [ [ [ -98.253768920898395, 19.212150573730501 ], [ -98.308570861816307, 19.264379501342798 ], [ -98.3248291015625, 19.295419692993299 ], [ -98.292587280273395, 19.292699813842798 ], [ -98.240463256835895, 19.246839523315501 ], [ -98.253768920898395, 19.212150573730501 ] ] ] } },
{ "type": "Feature", "properties": { "NAME_1": "Tlaxcala", "NAME_2": "Tepeyanco" }, "geometry": { "type": "Polygon", "coordinates": [ [ [ -98.143486022949205, 19.2605895996094 ], [ -98.154052734374901, 19.302759170532301 ], [ -98.147666931152301, 19.329940795898398 ], [ -98.139076232910099, 19.332340240478501 ], [ -98.128776550292898, 19.319282531738299 ], [ -98.10595703125, 19.316869735717901 ], [ -98.113555908203097, 19.3090305328369 ], [ -98.113548278808494, 19.267150878906399 ], [ -98.143486022949205, 19.2605895996094 ] ] ] } },
{ "type": "Feature", "properties": { "NAME_1": "Tlaxcala", "NAME_2": "Terrenate" }, "geometry": { "type": "Polygon", "coordinates": [ [ [ -97.971298217773395, 19.476312637329102 ], [ -97.982109069824205, 19.500320434570401 ], [ -97.962303161621094, 19.516029357910298 ], [ -97.970657348632798, 19.535060882568398 ], [ -97.8739013671875, 19.622350692749102 ], [ -97.858177185058594, 19.647680282592798 ], [ -97.778350830078097, 19.583280563354499 ], [ -97.795501708984304, 19.540010452270501 ], [ -97.786087036132798, 19.524900436401399 ], [ -97.797653198242202, 19.504278182983501 ], [ -97.809112548828097, 19.4911994934082 ], [ -97.827682495117202, 19.489660263061602 ], [ -97.873863220214801, 19.448930740356602 ], [ -97.894157409667997, 19.4473590850831 ], [ -97.927719116210895, 19.4722499847413 ], [ -97.953407287597599, 19.464679718017599 ], [ -97.971298217773395, 19.476312637329102 ] ] ] } },
{ "type": "Feature", "properties": { "NAME_1": "Tlaxcala", "NAME_2": "Tetla de la Solidaridad" }, "geometry": { "type": "Polygon", "coordinates": [ [ [ -97.971298217773395, 19.476312637329102 ], [ -98.016586303710895, 19.465080261230501 ], [ -98.047737121582003, 19.478361129760799 ], [ -98.085243225097699, 19.4769802093506 ], [ -98.088722229003807, 19.5070095062257 ], [ -98.110572814941307, 19.5242729187012 ], [ -98.037292480468807, 19.539529800415199 ], [ -98.027519226074205, 19.5564994812012 ], [ -97.984390258789006, 19.553350448608501 ], [ -97.941085815429702, 19.567260742187599 ], [ -97.955482482910199, 19.542739868164201 ], [ -97.970657348632798, 19.535060882568398 ], [ -97.963760375976605, 19.513282775878999 ], [ -97.981376647949205, 19.505340576171999 ], [ -97.971298217773395, 19.476312637329102 ] ] ] } },
{ "type": "Feature", "properties": { "NAME_1": "Tlaxcala", "NAME_2": "Tetlatlahuca" }, "geometry": { "type": "Polygon", "coordinates": [ [ [ -98.14054107666, 19.236959457397599 ], [ -98.161407470703097, 19.225051879882798 ], [ -98.175842285156193, 19.201980590820298 ], [ -98.190643310546903, 19.215509414673001 ], [ -98.183639526367102, 19.2983798980713 ], [ -98.154052734374901, 19.302759170532301 ], [ -98.14054107666, 19.236959457397599 ] ] ] } },
{ "type": "Feature", "properties": { "NAME_1": "Tlaxcala", "NAME_2": "Tlaxcala" }, "geometry": { "type": "Polygon", "coordinates": [ [ [ -98.154052734374901, 19.302759170532301 ], [ -98.181526184082003, 19.297359466552798 ], [ -98.192832946777301, 19.305610656738299 ], [ -98.180557250976605, 19.338350296020501 ], [ -98.155776977539006, 19.3425807952881 ], [ -98.134681701660199, 19.356540679931602 ], [ -98.125839233398395, 19.3473300933838 ], [ -98.135887145996094, 19.331930160522599 ], [ -98.147666931152301, 19.329940795898398 ], [ -98.154052734374901, 19.302759170532301 ] ] ] } },
{ "type": "Feature", "properties": { "NAME_1": "Tlaxcala", "NAME_2": "Tlaxco" }, "geometry": { "type": "Polygon", "coordinates": [ [ [ -98.322425842285199, 19.575721740722798 ], [ -98.321426391601506, 19.598028182983501 ], [ -98.332443237304702, 19.623710632324201 ], [ -98.292930603027301, 19.6627826690675 ], [ -98.260322570800696, 19.718250274658299 ], [ -98.234558105468693, 19.719831466674901 ], [ -98.121017456054702, 19.684061050415099 ], [ -98.083129882812401, 19.684812545776499 ], [ -98.058250427246094, 19.694139480590799 ], [ -97.99405670166, 19.763910293579102 ], [ -97.977203369140597, 19.760879516601602 ], [ -97.935043334960895, 19.706550598144599 ], [ -97.858177185058594, 19.647680282592798 ], [ -97.8739013671875, 19.622350692749102 ], [ -97.941085815429702, 19.567260742187599 ], [ -97.984390258789006, 19.553350448608501 ], [ -98.043685913085895, 19.5565395355225 ], [ -98.065536499023395, 19.5713195800782 ], [ -98.075149536132798, 19.5971794128419 ], [ -98.101158142089801, 19.6013507843019 ], [ -98.122726440429702, 19.593090057373001 ], [ -98.170936584472599, 19.593570709228601 ], [ -98.191291809082003, 19.5736408233643 ], [ -98.238578796386605, 19.5566711425782 ], [ -98.271362304687401, 19.5714111328125 ], [ -98.322425842285199, 19.575721740722798 ] ] ] } },
{ "type": "Feature", "properties": { "NAME_1": "Tlaxcala", "NAME_2": "Tocatlán" }, "geometry": { "type": "Polygon", "coordinates": [ [ [ -97.950653076171804, 19.3896198272706 ], [ -97.970718383789105, 19.394159317016701 ], [ -97.990173339843807, 19.4073810577394 ], [ -97.970260620117202, 19.423519134521499 ], [ -97.939910888671903, 19.429780960083001 ], [ -97.922737121582003, 19.405179977417099 ], [ -97.950653076171804, 19.3896198272706 ] ] ] } },
{ "type": "Feature", "properties": { "NAME_1": "Tlaxcala", "NAME_2": "Totolac" }, "geometry": { "type": "Polygon", "coordinates": [ [ [ -98.168800354003906, 19.369720458984499 ], [ -98.144012451171903, 19.3725700378418 ], [ -98.134681701660199, 19.356540679931602 ], [ -98.155776977539006, 19.3425807952881 ], [ -98.180557250976605, 19.338350296020501 ], [ -98.185966491699205, 19.359220504760899 ], [ -98.168800354003906, 19.369720458984499 ] ] ] } },
{ "type": "Feature", "properties": { "NAME_1": "Tlaxcala", "NAME_2": "Tzompantepec" }, "geometry": { "type": "Polygon", "coordinates": [ [ [ -98.0670166015625, 19.404569625854499 ], [ -98.042526245117202, 19.425380706787099 ], [ -98.016311645507798, 19.427070617675799 ], [ -97.978073120117202, 19.3979396820069 ], [ -97.950653076171804, 19.3896198272706 ], [ -97.955513000488196, 19.362262725830099 ], [ -97.979042053222699, 19.382459640503001 ], [ -98.030265808105398, 19.378679275512798 ], [ -98.0670166015625, 19.404569625854499 ] ] ] } },
{ "type": "Feature", "properties": { "NAME_1": "Tlaxcala", "NAME_2": "Xaloztoc" }, "geometry": { "type": "Polygon", "coordinates": [ [ [ -98.010917663574205, 19.424850463867301 ], [ -98.012413024902301, 19.440322875976701 ], [ -97.987937927245994, 19.469289779663001 ], [ -97.971298217773395, 19.476312637329102 ], [ -97.953407287597599, 19.464679718017599 ], [ -97.927719116210895, 19.4722499847413 ], [ -97.900032043457003, 19.450250625610401 ], [ -97.904899597167997, 19.4281311035157 ], [ -97.881629943847699, 19.3997097015381 ], [ -97.891647338867202, 19.394830703735401 ], [ -97.901702880859403, 19.405189514160199 ], [ -97.922737121582003, 19.405179977417099 ], [ -97.930847167968807, 19.423290252685501 ], [ -97.944068908691307, 19.430652618408299 ], [ -97.970260620117202, 19.423519134521499 ], [ -97.990173339843807, 19.4073810577394 ], [ -98.010917663574205, 19.424850463867301 ] ] ] } },
{ "type": "Feature", "properties": { "NAME_1": "Tlaxcala", "NAME_2": "Xaltocan" }, "geometry": { "type": "Polygon", "coordinates": [ [ [ -98.144012451171903, 19.3725700378418 ], [ -98.168800354003906, 19.369720458984499 ], [ -98.173217773437401, 19.375801086425799 ], [ -98.219039916992202, 19.501159667968899 ], [ -98.210189819335895, 19.530681610107401 ], [ -98.177085876464801, 19.5259094238282 ], [ -98.167419433593693, 19.465869903564499 ], [ -98.131340026855497, 19.460660934448399 ], [ -98.111228942870994, 19.467760086059599 ], [ -98.101837158203097, 19.4050312042237 ], [ -98.128562927246094, 19.377340316772599 ], [ -98.144012451171903, 19.3725700378418 ] ] ] } },
{ "type": "Feature", "properties": { "NAME_1": "Tlaxcala", "NAME_2": "Xicohtzinco" }, "geometry": { "type": "Polygon", "coordinates": [ [ [ -98.157379150390597, 19.169540405273398 ], [ -98.167266845703097, 19.174961090087901 ], [ -98.140060424804602, 19.207389831543001 ], [ -98.14054107666, 19.236959457397599 ], [ -98.115867614746094, 19.240158081054702 ], [ -98.106689453125, 19.224250793456999 ], [ -98.136886596679602, 19.177640914917099 ], [ -98.157379150390597, 19.169540405273398 ] ] ] } },
{ "type": "Feature", "properties": { "NAME_1": "Tlaxcala", "NAME_2": "Yauhquemecan" }, "geometry": { "type": "Polygon", "coordinates": [ [ [ -98.083198547363196, 19.399351119995099 ], [ -98.096191406249901, 19.397590637207099 ], [ -98.101837158203097, 19.4050312042237 ], [ -98.107063293457003, 19.469869613647401 ], [ -98.090393066406193, 19.471668243408299 ], [ -98.077331542968807, 19.417640686035298 ], [ -98.083198547363196, 19.399351119995099 ] ] ] } },
{ "type": "Feature", "properties": { "NAME_1": "Tlaxcala", "NAME_2": "Zacatelco" }, "geometry": { "type": "Polygon", "coordinates": [ [ [ -98.167266845703097, 19.174961090087901 ], [ -98.182037353515597, 19.179931640625099 ], [ -98.174667358398395, 19.204839706421001 ], [ -98.161407470703097, 19.225051879882798 ], [ -98.14054107666, 19.236959457397599 ], [ -98.140060424804602, 19.207389831543001 ], [ -98.167266845703097, 19.174961090087901 ] ] ] } },
{ "type": "Feature", "properties": { "NAME_1": "Tlaxcala", "NAME_2": "Zitlaltepec de Trinidad Sánchez Santos" }, "geometry": { "type": "Polygon", "coordinates": [ [ [ -97.915992736816406, 19.238428115844702 ], [ -97.904327392578097, 19.279619216918899 ], [ -97.855895996093807, 19.2765197753906 ], [ -97.841712951660199, 19.260311126708999 ], [ -97.8099365234375, 19.270179748535298 ], [ -97.779632568359403, 19.3018512725831 ], [ -97.762031555175795, 19.2928791046143 ], [ -97.787590026855497, 19.2423496246338 ], [ -97.836456298828097, 19.2105808258057 ], [ -97.867523193359403, 19.208431243896499 ], [ -97.915992736816406, 19.238428115844702 ] ] ] } }
]
}
