{
"type": "FeatureCollection",
"name": "zacatecas",
"crs": { "type": "name", "properties": { "name": "urn:ogc:def:crs:OGC:1.3:CRS84" } },
"features": [
{ "type": "Feature", "properties": { "NAME_1": "Zacatecas", "NAME_2": "Apozol" }, "geometry": { "type": "Polygon", "coordinates": [ [ [ -102.958847045897997, 21.396062850952301 ], [ -103.031799316405994, 21.303770065307699 ], [ -103.043006896972997, 21.328229904174801 ], [ -103.084747314452997, 21.356330871581999 ], [ -103.16040802002, 21.387050628662202 ], [ -103.254951477050994, 21.4063205718994 ], [ -103.252876281737997, 21.463701248169102 ], [ -103.241493225097997, 21.504070281982401 ], [ -103.183738708495994, 21.4705104827881 ], [ -103.140472412109006, 21.465919494628999 ], [ -102.958847045897997, 21.396062850952301 ] ] ] } },
{ "type": "Feature", "properties": { "NAME_1": "Zacatecas", "NAME_2": "Apulco" }, "geometry": { "type": "Polygon", "coordinates": [ [ [ -102.733749389647997, 21.301651000976602 ], [ -102.71671295166, 21.3573894500732 ], [ -102.724082946777003, 21.398309707641602 ], [ -102.775718688965, 21.449069976806602 ], [ -102.741226196289006, 21.525899887085 ], [ -102.646347045897997, 21.474161148071399 ], [ -102.639526367187997, 21.455682754516701 ], [ -102.665557861327997, 21.360040664672901 ], [ -102.698905944824006, 21.319778442382901 ], [ -102.733749389647997, 21.301651000976602 ] ] ] } },
{ "type": "Feature", "properties": { "NAME_1": "Zacatecas", "NAME_2": "Atolinga" }, "geometry": { "type": "Polygon", "coordinates": [ [ [ -103.477333068847997, 21.650081634521602 ], [ -103.541091918945, 21.592639923095799 ], [ -103.566673278809006, 21.578590393066499 ], [ -103.557083129882997, 21.656610488891602 ], [ -103.568466186522997, 21.7103710174562 ], [ -103.543395996094006, 21.740829467773398 ], [ -103.447273254395, 21.800439834594801 ], [ -103.422309875487997, 21.789009094238398 ], [ -103.318832397460994, 21.775390625 ], [ -103.331748962402003, 21.753250122070298 ], [ -103.423721313477003, 21.720539093017599 ], [ -103.463607788085994, 21.6864223480225 ], [ -103.477333068847997, 21.650081634521602 ] ] ] } },
{ "type": "Feature", "properties": { "NAME_1": "Zacatecas", "NAME_2": "Benito Juárez" }, "geometry": { "type": "Polygon", "coordinates": [ [ [ -103.639671325684006, 21.3636703491212 ], [ -103.666877746582003, 21.3783798217775 ], [ -103.683792114257997, 21.4009304046631 ], [ -103.70361328125, 21.446229934692401 ], [ -103.704795837402003, 21.480289459228601 ], [ -103.640548706055, 21.489959716796999 ], [ -103.626510620117003, 21.514310836792099 ], [ -103.584739685059006, 21.5435695648193 ], [ -103.569442749022997, 21.5176105499268 ], [ -103.481109619140994, 21.486030578613299 ], [ -103.484466552734006, 21.473739624023601 ], [ -103.506706237792997, 21.458522796630898 ], [ -103.508316040039006, 21.442888259887798 ], [ -103.495986938477003, 21.4334812164307 ], [ -103.507392883300994, 21.373821258545 ], [ -103.541687011719006, 21.299909591674901 ], [ -103.563423156737997, 21.3053207397462 ], [ -103.553726196289006, 21.3502807617188 ], [ -103.567657470702997, 21.376939773559599 ], [ -103.594482421875, 21.382230758666999 ], [ -103.639671325684006, 21.3636703491212 ] ] ] } },
{ "type": "Feature", "properties": { "NAME_1": "Zacatecas", "NAME_2": "Calera" }, "geometry": { "type": "Polygon", "coordinates": [ [ [ -102.812362670897997, 22.8142280578613 ], [ -102.818786621094006, 22.8408203125 ], [ -102.841491699219006, 22.8471775054932 ], [ -102.853042602539006, 22.85964012146 ], [ -102.840980529785, 22.8961505889893 ], [ -102.806816101074006, 22.8896808624268 ], [ -102.767539978027003, 22.897380828857401 ], [ -102.718803405762003, 22.936780929565501 ], [ -102.71573638916, 22.961391448974702 ], [ -102.723922729492003, 22.9982299804688 ], [ -102.679046630859006, 23.025600433349702 ], [ -102.64469909668, 23.0305995941163 ], [ -102.625183105469006, 23.018869400024499 ], [ -102.654663085937003, 22.986520767211999 ], [ -102.655578613280994, 22.9386405944825 ], [ -102.682960510254006, 22.8668003082275 ], [ -102.721656799315994, 22.850610733032202 ], [ -102.762016296387003, 22.809272766113398 ], [ -102.791107177734006, 22.819208145141701 ], [ -102.812362670897997, 22.8142280578613 ] ] ] } },
{ "type": "Feature", "properties": { "NAME_1": "Zacatecas", "NAME_2": "Cañitas de Felipe Pescador" }, "geometry": { "type": "Polygon", "coordinates": [ [ [ -102.618682861327997, 23.546211242675799 ], [ -102.658866882324006, 23.520330429077099 ], [ -102.670150756835994, 23.4995212554932 ], [ -102.732482910155994, 23.488580703735401 ], [ -102.744873046875, 23.454780578613299 ], [ -102.760757446289006, 23.445159912109499 ], [ -102.808067321777003, 23.454679489135899 ], [ -102.842269897460994, 23.429359436035298 ], [ -102.874893188477003, 23.487270355224599 ], [ -102.875076293945, 23.518140792846701 ], [ -102.861740112305, 23.525049209594702 ], [ -102.83780670166, 23.597938537597798 ], [ -102.820587158202997, 23.604061126708999 ], [ -102.800926208495994, 23.631151199340898 ], [ -102.736518859862997, 23.6363201141357 ], [ -102.701843261719006, 23.621879577636701 ], [ -102.618682861327997, 23.546211242675799 ] ] ] } },
{ "type": "Feature", "properties": { "NAME_1": "Zacatecas", "NAME_2": "Chalchihuites" }, "geometry": { "type": "Polygon", "coordinates": [ [ [ -103.731056213379006, 23.244251251220799 ], [ -103.759979248047003, 23.253299713134801 ], [ -103.800506591797003, 23.252880096435501 ], [ -103.863899230957003, 23.294481277465898 ], [ -103.932502746582003, 23.274600982666001 ], [ -103.977012634277003, 23.288698196411101 ], [ -104.026260375977003, 23.277820587158299 ], [ -104.044281005859006, 23.291629791259801 ], [ -104.030090332030994, 23.355150222778398 ], [ -104.028450012207003, 23.412879943847699 ], [ -104.018913269042997, 23.434059143066499 ], [ -103.935676574707003, 23.519119262695401 ], [ -103.840606689452997, 23.590589523315501 ], [ -103.817367553710994, 23.533269882202301 ], [ -103.831642150879006, 23.4616794586182 ], [ -103.826866149902003, 23.395059585571399 ], [ -103.813972473145, 23.387918472290099 ], [ -103.784866333007997, 23.3983898162843 ], [ -103.767906188965, 23.387741088867301 ], [ -103.720512390137003, 23.299730300903299 ], [ -103.717788696289006, 23.282529830932599 ], [ -103.731056213379006, 23.244251251220799 ] ] ] } },
{ "type": "Feature", "properties": { "NAME_1": "Zacatecas", "NAME_2": "Concepción del Oro" }, "geometry": { "type": "Polygon", "coordinates": [ [ [ -101.314521789550994, 24.110559463501001 ], [ -101.363632202147997, 24.131710052490298 ], [ -101.391418457030994, 24.158451080322401 ], [ -101.409545898437003, 24.2135410308837 ], [ -101.408538818359006, 24.255712509155298 ], [ -101.421463012695, 24.322322845458999 ], [ -101.432022094727003, 24.3319911956788 ], [ -101.454772949219006, 24.3308506011963 ], [ -101.462799072265994, 24.341651916503999 ], [ -101.449752807617003, 24.387332916259901 ], [ -101.443626403809006, 24.511899948120199 ], [ -101.50170135498, 24.56907081604 ], [ -101.521850585937997, 24.633581161499102 ], [ -101.511482238769005, 24.6637401580812 ], [ -101.53369140625, 24.682939529418899 ], [ -101.54931640625, 24.725589752197301 ], [ -101.510818481445, 24.728868484497202 ], [ -101.477966308594006, 24.7619724273682 ], [ -101.382606506347997, 24.777229309082099 ], [ -101.26513671875, 24.7588405609131 ], [ -101.219619750977003, 24.724391937255898 ], [ -101.178367614745994, 24.639810562133899 ], [ -101.126846313477003, 24.569208145141701 ], [ -101.024078369140994, 24.517972946166999 ], [ -101.031066894530994, 24.4686183929444 ], [ -101.07398223877, 24.441299438476602 ], [ -101.080879211425994, 24.341978073120199 ], [ -101.104919433594006, 24.323909759521499 ], [ -101.113243103027003, 24.2694625854493 ], [ -101.140548706055, 24.235519409179702 ], [ -101.149917602539006, 24.204130172729499 ], [ -101.214111328125, 24.1679801940919 ], [ -101.279258728027003, 24.1545028686525 ], [ -101.304496765137003, 24.131841659545898 ], [ -101.314521789550994, 24.110559463501001 ] ] ] } },
{ "type": "Feature", "properties": { "NAME_1": "Zacatecas", "NAME_2": "Cuauhtémoc" }, "geometry": { "type": "Polygon", "coordinates": [ [ [ -102.476119995117003, 22.297451019287202 ], [ -102.510513305664006, 22.339220046997099 ], [ -102.505897521972997, 22.373720169067401 ], [ -102.458625793457003, 22.3996295928956 ], [ -102.44066619873, 22.4510097503663 ], [ -102.417701721190994, 22.481660842895501 ], [ -102.390235900879006, 22.497240066528398 ], [ -102.376953125, 22.5370693206787 ], [ -102.342231750487997, 22.526758193969801 ], [ -102.321350097655994, 22.492071151733398 ], [ -102.351440429687997, 22.424829483032202 ], [ -102.34252166748, 22.4032802581788 ], [ -102.345031738280994, 22.371131896972798 ], [ -102.398345947265994, 22.330520629882901 ], [ -102.476119995117003, 22.297451019287202 ] ] ] } },
{ "type": "Feature", "properties": { "NAME_1": "Zacatecas", "NAME_2": "El Salvador" }, "geometry": { "type": "Polygon", "coordinates": [ [ [ -101.024078369140994, 24.517972946166999 ], [ -100.954216003417997, 24.531560897827301 ], [ -100.949913024902003, 24.554620742797901 ], [ -100.934448242187997, 24.569419860839801 ], [ -100.872650146484006, 24.567632675170799 ], [ -100.832496643065994, 24.555099487304599 ], [ -100.846603393555, 24.542650222778398 ], [ -100.881813049315994, 24.531709671020501 ], [ -100.900672912597997, 24.458248138427798 ], [ -100.948020935059006, 24.421382904052798 ], [ -100.981178283690994, 24.3520107269288 ], [ -101.01505279541, 24.3405990600587 ], [ -101.080879211425994, 24.341978073120199 ], [ -101.07398223877, 24.441299438476602 ], [ -101.031066894530994, 24.4686183929444 ], [ -101.024078369140994, 24.517972946166999 ] ] ] } },
{ "type": "Feature", "properties": { "NAME_1": "Zacatecas", "NAME_2": "Fresnillo" }, "geometry": { "type": "Polygon", "coordinates": [ [ [ -102.723922729492003, 22.9982299804688 ], [ -102.79020690918, 22.972019195556701 ], [ -102.836769104004006, 22.9386310577394 ], [ -102.839569091797003, 22.8873710632325 ], [ -102.856262207030994, 22.857931137085 ], [ -102.882522583007997, 22.870161056518601 ], [ -102.928649902344006, 22.8767395019532 ], [ -102.996643066405994, 22.873970031738299 ], [ -103.06046295166, 22.8543815612794 ], [ -103.098007202147997, 22.853540420532301 ], [ -103.103477478027003, 22.859199523925799 ], [ -103.113983154297003, 22.846599578857401 ], [ -103.108291625977003, 22.836969375610501 ], [ -103.12629699707, 22.8124694824219 ], [ -103.17008972168, 22.8082504272462 ], [ -103.219360351562003, 22.8271808624268 ], [ -103.223922729492003, 22.9033508300781 ], [ -103.248649597167997, 22.930149078369102 ], [ -103.241966247559006, 22.956159591674801 ], [ -103.248008728027003, 22.9622402191162 ], [ -103.298179626465, 22.9882907867432 ], [ -103.363502502440994, 22.987970352172901 ], [ -103.411842346190994, 23.008590698242301 ], [ -103.48388671875, 23.023790359497099 ], [ -103.54337310791, 23.0667629241943 ], [ -103.554496765137003, 23.086280822753899 ], [ -103.518539428710994, 23.1068210601807 ], [ -103.485153198242003, 23.168689727783299 ], [ -103.489356994629006, 23.253269195556602 ], [ -103.479751586914006, 23.309049606323299 ], [ -103.461639404297003, 23.2963790893556 ], [ -103.442718505859006, 23.310510635376001 ], [ -103.427673339844006, 23.307550430297798 ], [ -103.418876647949006, 23.320301055908299 ], [ -103.400543212890994, 23.306201934814599 ], [ -103.367378234862997, 23.3466606140138 ], [ -103.297653198242003, 23.386970520019599 ], [ -103.294342041015994, 23.376091003418001 ], [ -103.257369995117003, 23.379711151123001 ], [ -103.249649047852003, 23.3484706878662 ], [ -103.219718933105, 23.334699630737401 ], [ -103.194625854492003, 23.3519401550294 ], [ -103.140090942382997, 23.3574104309082 ], [ -103.067413330077997, 23.387979507446399 ], [ -103.037956237792997, 23.3926696777344 ], [ -103.013107299805, 23.447700500488299 ], [ -102.989059448242003, 23.473630905151399 ], [ -102.990386962890994, 23.512109756469801 ], [ -102.971199035645, 23.5724506378175 ], [ -102.877998352050994, 23.523099899291999 ], [ -102.874893188477003, 23.487270355224599 ], [ -102.842269897460994, 23.429359436035298 ], [ -102.808067321777003, 23.454679489135899 ], [ -102.775978088379006, 23.443639755248999 ], [ -102.751052856445, 23.449090957641602 ], [ -102.732482910155994, 23.488580703735401 ], [ -102.670150756835994, 23.4995212554932 ], [ -102.658866882324006, 23.520330429077099 ], [ -102.615936279297003, 23.547420501708999 ], [ -102.529266357422003, 23.4928512573243 ], [ -102.561988830565994, 23.441850662231399 ], [ -102.569671630859006, 23.384141921997099 ], [ -102.55248260498, 23.272539138793999 ], [ -102.561027526855, 23.192480087280298 ], [ -102.554878234862997, 23.171808242797901 ], [ -102.524940490722997, 23.134719848632798 ], [ -102.546310424805, 23.096500396728501 ], [ -102.555641174315994, 23.043340682983398 ], [ -102.616722106934006, 23.020059585571399 ], [ -102.64469909668, 23.0305995941163 ], [ -102.679046630859006, 23.025600433349702 ], [ -102.723922729492003, 22.9982299804688 ] ] ] } },
{ "type": "Feature", "properties": { "NAME_1": "Zacatecas", "NAME_2": "Genaro Codina" }, "geometry": { "type": "Polygon", "coordinates": [ [ [ -102.477752685547003, 22.296871185302798 ], [ -102.552307128905994, 22.250379562378001 ], [ -102.604637145995994, 22.243049621581999 ], [ -102.614097595215, 22.3066101074219 ], [ -102.658943176269005, 22.372890472412202 ], [ -102.675407409667997, 22.450590133666999 ], [ -102.707153320312003, 22.497459411621101 ], [ -102.724670410155994, 22.5707397460938 ], [ -102.711578369140994, 22.583299636840898 ], [ -102.692497253417997, 22.590621948242202 ], [ -102.659622192382997, 22.5701808929444 ], [ -102.634819030762003, 22.576112747192401 ], [ -102.572708129882997, 22.5602226257325 ], [ -102.564910888672003, 22.5340995788575 ], [ -102.542007446289006, 22.512660980224599 ], [ -102.49942779541, 22.534299850463899 ], [ -102.477012634277003, 22.5808906555175 ], [ -102.42830657959, 22.5513095855713 ], [ -102.376953125, 22.5370693206787 ], [ -102.390235900879006, 22.497240066528398 ], [ -102.417701721190994, 22.481660842895501 ], [ -102.44066619873, 22.4510097503663 ], [ -102.458625793457003, 22.3996295928956 ], [ -102.510070800780994, 22.3656024932862 ], [ -102.508766174315994, 22.3354301452637 ], [ -102.477752685547003, 22.296871185302798 ] ] ] } },
{ "type": "Feature", "properties": { "NAME_1": "Zacatecas", "NAME_2": "General Enrique Estrada" }, "geometry": { "type": "Polygon", "coordinates": [ [ [ -102.840980529785, 22.8961505889893 ], [ -102.836769104004006, 22.9386310577394 ], [ -102.79020690918, 22.972019195556701 ], [ -102.723922729492003, 22.9982299804688 ], [ -102.71541595459, 22.952461242675799 ], [ -102.726936340332003, 22.926660537719702 ], [ -102.777969360352003, 22.893369674682599 ], [ -102.840980529785, 22.8961505889893 ] ] ] } },
{ "type": "Feature", "properties": { "NAME_1": "Zacatecas", "NAME_2": "General Francisco R. Murguía" }, "geometry": { "type": "Polygon", "coordinates": [ [ [ -102.634170532227003, 24.414342880248999 ], [ -102.603942871094006, 24.329000473022599 ], [ -102.585716247559006, 24.303461074829201 ], [ -102.545120239257997, 24.292682647705199 ], [ -102.517143249512003, 24.255172729492202 ], [ -102.488693237305, 24.249740600585898 ], [ -102.438552856445, 24.1940002441407 ], [ -102.418167114257997, 24.1828804016113 ], [ -102.409767150879006, 24.161060333251999 ], [ -102.384002685547003, 24.1396007537843 ], [ -102.381019592285, 24.120109558105501 ], [ -102.343788146972997, 24.111192703247099 ], [ -102.323570251465, 23.972049713134801 ], [ -102.338012695312003, 23.9498481750488 ], [ -102.454086303710994, 23.849269866943501 ], [ -102.518821716309006, 23.856929779052699 ], [ -102.534393310547003, 23.846790313720799 ], [ -102.562019348145, 23.789220809936602 ], [ -102.585540771484006, 23.768190383911101 ], [ -102.657836914062003, 23.741899490356399 ], [ -102.731071472167997, 23.7352695465088 ], [ -102.763465881347997, 23.759860992431602 ], [ -102.780822753905994, 23.812990188598601 ], [ -102.83763885498, 23.844070434570298 ], [ -102.928337097167997, 23.845188140869201 ], [ -103.034706115722997, 23.8348808288575 ], [ -103.056617736815994, 23.854799270629901 ], [ -103.086708068847997, 23.853469848632901 ], [ -103.13565826416, 23.866870880126999 ], [ -103.167343139647997, 23.885152816772599 ], [ -103.249282836914006, 23.968009948730401 ], [ -103.331520080565994, 24.0047206878663 ], [ -103.397506713867003, 24.096809387206999 ], [ -103.366737365722997, 24.150571823120199 ], [ -103.375946044922003, 24.166088104248001 ], [ -103.371292114257997, 24.207351684570401 ], [ -103.300559997559006, 24.235389709472798 ], [ -103.289291381835994, 24.2648410797119 ], [ -103.297943115234006, 24.27250289917 ], [ -103.38835144043, 24.2806797027587 ], [ -103.379615783690994, 24.335250854492202 ], [ -103.370658874512003, 24.342910766601602 ], [ -103.364936828612997, 24.435728073120199 ], [ -103.272895812987997, 24.433090209960898 ], [ -103.175338745117003, 24.4067897796632 ], [ -103.137916564940994, 24.415138244628899 ], [ -103.102478027344006, 24.4346408843994 ], [ -103.056922912597997, 24.435108184814499 ], [ -102.999580383300994, 24.403600692748999 ], [ -102.902610778809006, 24.375949859619102 ], [ -102.864212036132997, 24.4125881195068 ], [ -102.805221557617003, 24.400220870971701 ], [ -102.634170532227003, 24.414342880248999 ] ] ] } },
{ "type": "Feature", "properties": { "NAME_1": "Zacatecas", "NAME_2": "General Joaquin Amaro" }, "geometry": { "type": "Polygon", "coordinates": [ [ [ -102.905380249022997, 21.992040634155298 ], [ -102.965896606445, 21.983650207519499 ], [ -102.996215820312003, 21.963260650634901 ], [ -103.050682067870994, 21.884149551391602 ], [ -103.051788330077997, 21.858711242675799 ], [ -103.064308166504006, 21.843980789184702 ], [ -103.061012268065994, 21.828001022338899 ], [ -103.084358215332003, 21.805870056152301 ], [ -103.141128540039006, 21.806190490722798 ], [ -103.177406311035, 21.846019744873001 ], [ -103.204139709472997, 21.933410644531399 ], [ -103.167442321777003, 21.958509445190501 ], [ -103.119743347167997, 21.9356994628907 ], [ -103.089881896972997, 21.943540573120099 ], [ -103.055206298827997, 21.9758796691894 ], [ -103.045860290527003, 22.024610519409201 ], [ -103.027320861815994, 22.027999877929801 ], [ -103.003776550292997, 22.066350936889599 ], [ -102.932029724120994, 22.066938400268601 ], [ -102.935539245605, 22.0277309417725 ], [ -102.916175842285, 22.013231277465799 ], [ -102.905380249022997, 21.992040634155298 ] ] ] } },
{ "type": "Feature", "properties": { "NAME_1": "Zacatecas", "NAME_2": "General Pánfilo Natera" }, "geometry": { "type": "Polygon", "coordinates": [ [ [ -101.94310760498, 22.646249771118299 ], [ -102.037017822265994, 22.5736408233643 ], [ -102.066436767577997, 22.541669845581101 ], [ -102.133491516112997, 22.535539627075298 ], [ -102.171882629394005, 22.561580657959102 ], [ -102.195472717285, 22.6012382507325 ], [ -102.200386047362997, 22.7115211486818 ], [ -102.257637023925994, 22.703489303588899 ], [ -102.274291992187997, 22.7140712738037 ], [ -102.266403198242003, 22.725019454956101 ], [ -102.265258789062003, 22.7623596191407 ], [ -102.244766235352003, 22.804489135742301 ], [ -102.074569702147997, 22.707620620727599 ], [ -102.036399841309006, 22.660610198974702 ], [ -101.94310760498, 22.646249771118299 ] ] ] } },
{ "type": "Feature", "properties": { "NAME_1": "Zacatecas", "NAME_2": "Guadalupe" }, "geometry": { "type": "Polygon", "coordinates": [ [ [ -102.692497253417997, 22.590621948242202 ], [ -102.669242858887003, 22.6097106933594 ], [ -102.632797241210994, 22.621320724487401 ], [ -102.598518371582003, 22.6679401397706 ], [ -102.526802062987997, 22.733259201049901 ], [ -102.506820678710994, 22.762939453125099 ], [ -102.444137573242003, 22.798469543456999 ], [ -102.423728942870994, 22.8418197631837 ], [ -102.450927734375, 22.863670349121101 ], [ -102.439041137695, 22.921342849731399 ], [ -102.421890258789006, 22.921920776367202 ], [ -102.413375854492003, 22.9080696105957 ], [ -102.394256591797003, 22.914640426635799 ], [ -102.384788513184006, 22.909259796142599 ], [ -102.358688354492003, 22.940481185913001 ], [ -102.328926086425994, 22.950820922851499 ], [ -102.279548645019005, 22.946969985961999 ], [ -102.289726257324006, 22.885658264160199 ], [ -102.285530090332003, 22.850770950317401 ], [ -102.244766235352003, 22.804489135742301 ], [ -102.265258789062003, 22.7623596191407 ], [ -102.27082824707, 22.7169208526612 ], [ -102.362937927245994, 22.6667881011963 ], [ -102.382942199707003, 22.639900207519599 ], [ -102.463356018065994, 22.5766201019287 ], [ -102.480476379395, 22.578710556030298 ], [ -102.49942779541, 22.534299850463899 ], [ -102.532089233397997, 22.513269424438601 ], [ -102.544242858887003, 22.513719558715799 ], [ -102.56241607666, 22.5307807922363 ], [ -102.572708129882997, 22.5602226257325 ], [ -102.634819030762003, 22.576112747192401 ], [ -102.659622192382997, 22.5701808929444 ], [ -102.692497253417997, 22.590621948242202 ] ] ] } },
{ "type": "Feature", "properties": { "NAME_1": "Zacatecas", "NAME_2": "Huanusco" }, "geometry": { "type": "Polygon", "coordinates": [ [ [ -102.831420898437997, 21.646400451660199 ], [ -102.862716674805, 21.66037940979 ], [ -102.971122741699006, 21.678962707519599 ], [ -103.049766540527003, 21.7098693847657 ], [ -103.095092773437997, 21.7105503082275 ], [ -103.100738525390994, 21.776741027832099 ], [ -103.095710754394005, 21.804790496826101 ], [ -103.015998840332003, 21.803300857543999 ], [ -102.940032958984006, 21.7859210968018 ], [ -102.872711181640994, 21.795480728149499 ], [ -102.86841583252, 21.7716903686525 ], [ -102.849380493164006, 21.744461059570298 ], [ -102.788398742675994, 21.691770553588899 ], [ -102.774803161620994, 21.687871932983501 ], [ -102.779220581055, 21.613080978393601 ], [ -102.831420898437997, 21.646400451660199 ] ] ] } },
{ "type": "Feature", "properties": { "NAME_1": "Zacatecas", "NAME_2": "Jalpa" }, "geometry": { "type": "Polygon", "coordinates": [ [ [ -102.831420898437997, 21.646400451660199 ], [ -102.836799621582003, 21.591619491577099 ], [ -102.867073059082003, 21.571672439575099 ], [ -102.907592773437997, 21.500881195068398 ], [ -102.953506469727003, 21.443069458007798 ], [ -102.958847045897997, 21.396062850952301 ], [ -103.140472412109006, 21.465919494628999 ], [ -103.183738708495994, 21.4705104827881 ], [ -103.241493225097997, 21.504070281982401 ], [ -103.227416992187003, 21.547929763793999 ], [ -103.123725891112997, 21.655210494995199 ], [ -103.10383605957, 21.6674404144288 ], [ -103.092140197754006, 21.712009429931701 ], [ -103.049766540527003, 21.7098693847657 ], [ -102.971122741699006, 21.678962707519599 ], [ -102.862716674805, 21.66037940979 ], [ -102.831420898437997, 21.646400451660199 ] ] ] } },
{ "type": "Feature", "properties": { "NAME_1": "Zacatecas", "NAME_2": "Jerez" }, "geometry": { "type": "Polygon", "coordinates": [ [ [ -103.08251953125, 22.477718353271499 ], [ -103.085700988769005, 22.507371902465898 ], [ -103.071769714355, 22.5354919433594 ], [ -103.080078125, 22.548030853271602 ], [ -103.143035888672003, 22.584531784057699 ], [ -103.178916931152003, 22.6185207366943 ], [ -103.207778930664006, 22.620201110839901 ], [ -103.214782714844006, 22.598901748657301 ], [ -103.248786926269005, 22.617429733276399 ], [ -103.236389160155994, 22.646240234375 ], [ -103.251892089844006, 22.7499103546143 ], [ -103.226547241210994, 22.776350021362401 ], [ -103.219360351562003, 22.8271808624268 ], [ -103.189819335937997, 22.812778472900501 ], [ -103.144172668457003, 22.8066806793212 ], [ -103.116706848144005, 22.824010848999102 ], [ -103.108291625977003, 22.836969375610501 ], [ -103.11247253418, 22.852369308471701 ], [ -103.103477478027003, 22.859199523925799 ], [ -103.098007202147997, 22.853540420532301 ], [ -103.06046295166, 22.8543815612794 ], [ -102.996643066405994, 22.873970031738299 ], [ -102.928649902344006, 22.8767395019532 ], [ -102.882522583007997, 22.870161056518601 ], [ -102.818786621094006, 22.8408203125 ], [ -102.804229736327997, 22.7604694366456 ], [ -102.778495788574006, 22.746030807495199 ], [ -102.786331176757997, 22.6166095733643 ], [ -102.77857208252, 22.607530593872202 ], [ -102.800765991210994, 22.582517623901399 ], [ -102.822288513184006, 22.528320312500099 ], [ -102.844032287597997, 22.511560440063601 ], [ -102.934440612792997, 22.475460052490199 ], [ -102.977630615234006, 22.438110351562599 ], [ -103.001411437987997, 22.430210113525298 ], [ -103.046249389647997, 22.450149536132798 ], [ -103.062866210937997, 22.448459625244201 ], [ -103.08251953125, 22.477718353271499 ] ] ] } },
{ "type": "Feature", "properties": { "NAME_1": "Zacatecas", "NAME_2": "Jiménez del Teul" }, "geometry": { "type": "Polygon", "coordinates": [ [ [ -103.738838195800994, 23.069219589233299 ], [ -103.772583007812003, 23.0406608581544 ], [ -103.814758300780994, 23.018579483032202 ], [ -103.861686706542997, 23.014450073242202 ], [ -103.90306854248, 23.028100967407301 ], [ -103.958076477050994, 23.003612518310501 ], [ -104.016952514647997, 23.006549835205099 ], [ -104.088256835937997, 22.960540771484499 ], [ -104.11563873291, 22.974769592285199 ], [ -104.155776977539006, 22.934440612793001 ], [ -104.165679931640994, 22.968330383300898 ], [ -104.162651062012003, 23.015581130981399 ], [ -104.115348815917997, 23.0853595733643 ], [ -104.107551574707003, 23.116970062255898 ], [ -104.083625793457003, 23.130350112915 ], [ -104.063102722167997, 23.236722946166999 ], [ -104.044281005859006, 23.291629791259801 ], [ -104.026260375977003, 23.277820587158299 ], [ -103.977012634277003, 23.288698196411101 ], [ -103.932502746582003, 23.274600982666001 ], [ -103.863899230957003, 23.294481277465898 ], [ -103.800506591797003, 23.252880096435501 ], [ -103.759979248047003, 23.253299713134801 ], [ -103.731056213379006, 23.244251251220799 ], [ -103.73616027832, 23.207830429077301 ], [ -103.687088012695, 23.1851310729982 ], [ -103.676872253417997, 23.1739101409913 ], [ -103.674827575684006, 23.154371261596701 ], [ -103.697402954102003, 23.114282608032301 ], [ -103.741928100585994, 23.0942306518556 ], [ -103.738838195800994, 23.069219589233299 ] ] ] } },
{ "type": "Feature", "properties": { "NAME_1": "Zacatecas", "NAME_2": "Juan Aldama" }, "geometry": { "type": "Polygon", "coordinates": [ [ [ -103.397506713867003, 24.096809387206999 ], [ -103.420486450195, 24.131799697876001 ], [ -103.45874786377, 24.154741287231602 ], [ -103.482696533202997, 24.186990737915199 ], [ -103.501037597655994, 24.2369098663331 ], [ -103.492736816405994, 24.2847499847413 ], [ -103.537162780762003, 24.3265075683594 ], [ -103.511116027832003, 24.350589752197301 ], [ -103.502113342285, 24.383119583129901 ], [ -103.485443115234006, 24.4068126678468 ], [ -103.450477600097997, 24.436759948730501 ], [ -103.431159973145, 24.443250656128001 ], [ -103.364936828612997, 24.435728073120199 ], [ -103.370658874512003, 24.342910766601602 ], [ -103.379615783690994, 24.335250854492202 ], [ -103.38835144043, 24.2806797027587 ], [ -103.297943115234006, 24.27250289917 ], [ -103.289291381835994, 24.2648410797119 ], [ -103.300559997559006, 24.235389709472798 ], [ -103.371292114257997, 24.207351684570401 ], [ -103.375946044922003, 24.166088104248001 ], [ -103.366737365722997, 24.150571823120199 ], [ -103.397506713867003, 24.096809387206999 ] ] ] } },
{ "type": "Feature", "properties": { "NAME_1": "Zacatecas", "NAME_2": "Juchipila" }, "geometry": { "type": "Polygon", "coordinates": [ [ [ -103.031799316405994, 21.303770065307699 ], [ -103.058662414550994, 21.214870452880898 ], [ -103.249153137207003, 21.285509109497202 ], [ -103.259658813477003, 21.3231811523438 ], [ -103.254951477050994, 21.4063205718994 ], [ -103.16040802002, 21.387050628662202 ], [ -103.084747314452997, 21.356330871581999 ], [ -103.043006896972997, 21.328229904174801 ], [ -103.031799316405994, 21.303770065307699 ] ] ] } },
{ "type": "Feature", "properties": { "NAME_1": "Zacatecas", "NAME_2": "Loreto" }, "geometry": { "type": "Polygon", "coordinates": [ [ [ -102.133338928222997, 22.2659606933594 ], [ -102.206207275390994, 22.303609848022401 ], [ -102.171516418457003, 22.355390548706101 ], [ -102.124549865722997, 22.349170684814499 ], [ -102.063751220702997, 22.364400863647599 ], [ -101.981056213379006, 22.325790405273398 ], [ -101.92357635498, 22.311531066894499 ], [ -101.912986755370994, 22.297910690307599 ], [ -101.842491149902003, 22.2841281890869 ], [ -101.815086364745994, 22.288270950317401 ], [ -101.817596435547003, 22.273900985717798 ], [ -101.802352905272997, 22.2559623718262 ], [ -101.824157714844006, 22.212829589843899 ], [ -101.820640563965, 22.1510295867919 ], [ -101.90544128418, 22.160169601440501 ], [ -101.955421447754006, 22.187891006469801 ], [ -102.037986755370994, 22.203010559081999 ], [ -102.063446044922003, 22.236160278320298 ], [ -102.133338928222997, 22.2659606933594 ] ] ] } },
{ "type": "Feature", "properties": { "NAME_1": "Zacatecas", "NAME_2": "Luis Moya" }, "geometry": { "type": "Polygon", "coordinates": [ [ [ -102.206207275390994, 22.303609848022401 ], [ -102.274620056152003, 22.3661098480225 ], [ -102.305641174315994, 22.417680740356499 ], [ -102.34252166748, 22.4032802581788 ], [ -102.351440429687997, 22.424829483032202 ], [ -102.32527923584, 22.471929550171001 ], [ -102.323593139647997, 22.497901916503999 ], [ -102.295852661132997, 22.494140625000099 ], [ -102.289108276367003, 22.4668903350831 ], [ -102.235649108887003, 22.477439880371101 ], [ -102.205406188965, 22.4239826202393 ], [ -102.199951171875, 22.385789871215799 ], [ -102.171516418457003, 22.355390548706101 ], [ -102.206207275390994, 22.303609848022401 ] ] ] } },
{ "type": "Feature", "properties": { "NAME_1": "Zacatecas", "NAME_2": "Mazapil" }, "geometry": { "type": "Polygon", "coordinates": [ [ [ -101.334831237792997, 23.878799438476602 ], [ -101.344917297362997, 23.853090286254901 ], [ -101.397926330565994, 23.789592742919901 ], [ -101.54035949707, 23.753578186035298 ], [ -101.573089599609006, 23.778610229492099 ], [ -101.644943237305, 23.8065509796143 ], [ -101.737380981445, 23.820142745971602 ], [ -101.827842712402003, 23.793140411376999 ], [ -101.881332397460994, 23.7981491088868 ], [ -101.94068145752, 23.786090850830199 ], [ -102.000198364257997, 23.790199279785298 ], [ -102.027732849120994, 23.806829452514599 ], [ -102.058326721190994, 23.8025608062744 ], [ -102.085151672362997, 23.821729660034201 ], [ -102.134796142577997, 23.828781127929599 ], [ -102.283409118652003, 23.926010131836101 ], [ -102.324508666992003, 23.973840713501001 ], [ -102.343788146972997, 24.111192703247099 ], [ -102.381019592285, 24.120109558105501 ], [ -102.384002685547003, 24.1396007537843 ], [ -102.409767150879006, 24.161060333251999 ], [ -102.418167114257997, 24.1828804016113 ], [ -102.438552856445, 24.1940002441407 ], [ -102.48380279541, 24.245580673217798 ], [ -102.517143249512003, 24.255172729492202 ], [ -102.545120239257997, 24.292682647705199 ], [ -102.585716247559006, 24.303461074829201 ], [ -102.605476379395, 24.332679748535298 ], [ -102.634170532227003, 24.414342880248999 ], [ -102.559059143065994, 24.424352645874102 ], [ -102.55396270752, 24.441900253296001 ], [ -102.57984161377, 24.468339920044102 ], [ -102.570861816405994, 24.479230880737401 ], [ -102.541999816894005, 24.4853210449219 ], [ -102.538681030272997, 24.494108200073299 ], [ -102.573707580565994, 24.637220382690501 ], [ -102.614212036132997, 24.646209716796999 ], [ -102.627555847167997, 24.6568698883057 ], [ -102.60986328125, 24.712560653686602 ], [ -102.611633300780994, 24.786371231079102 ], [ -102.595199584960994, 24.835840225219801 ], [ -102.611671447754006, 24.8614006042481 ], [ -102.688537597655994, 24.895410537719702 ], [ -102.70662689209, 24.941930770874102 ], [ -102.732955932617003, 24.948011398315401 ], [ -102.734100341797003, 25.012649536132901 ], [ -102.748046875, 25.026861190796001 ], [ -102.747482299805, 25.086370468139702 ], [ -102.741096496582003, 25.0961208343507 ], [ -102.72200012207, 25.105850219726602 ], [ -102.656066894530994, 25.1097011566162 ], [ -102.580093383789006, 25.1279201507569 ], [ -102.561866760254006, 25.1018505096437 ], [ -102.528923034667997, 25.084810256958001 ], [ -102.481811523437997, 25.039619445800799 ], [ -102.437187194824006, 25.026540756225501 ], [ -102.381698608397997, 24.976739883422901 ], [ -102.293243408202997, 24.972721099853501 ], [ -102.262359619140994, 24.881290435791101 ], [ -102.243690490722997, 24.857641220092798 ], [ -102.204208374022997, 24.853269577026399 ], [ -102.192115783690994, 24.8354396820068 ], [ -102.047302246094006, 24.798891067505 ], [ -101.893287658690994, 24.737550735473601 ], [ -101.85124206543, 24.738651275634901 ], [ -101.814262390137003, 24.7595310211182 ], [ -101.772796630859006, 24.7541904449463 ], [ -101.753952026367003, 24.7280807495118 ], [ -101.707061767577997, 24.733129501342798 ], [ -101.680206298827997, 24.7415294647218 ], [ -101.662422180175994, 24.7694396972657 ], [ -101.643600463867003, 24.7794895172119 ], [ -101.641647338867003, 24.731838226318398 ], [ -101.635032653809006, 24.7258911132813 ], [ -101.54931640625, 24.725589752197301 ], [ -101.53369140625, 24.682939529418899 ], [ -101.511482238769005, 24.6637401580812 ], [ -101.521850585937997, 24.633581161499102 ], [ -101.50170135498, 24.56907081604 ], [ -101.443626403809006, 24.511899948120199 ], [ -101.447891235352003, 24.406030654907202 ], [ -101.460807800292997, 24.336160659790199 ], [ -101.42928314209, 24.331239700317401 ], [ -101.421463012695, 24.322322845458999 ], [ -101.408538818359006, 24.255712509155298 ], [ -101.409545898437003, 24.2135410308837 ], [ -101.391418457030994, 24.158451080322401 ], [ -101.363632202147997, 24.131710052490298 ], [ -101.314521789550994, 24.110559463501001 ], [ -101.322166442870994, 24.099790573120099 ], [ -101.320472717285, 24.037269592285199 ], [ -101.338272094727003, 24.0052928924562 ], [ -101.297576904297003, 23.961521148681701 ], [ -101.334831237792997, 23.878799438476602 ] ] ] } },
{ "type": "Feature", "properties": { "NAME_1": "Zacatecas", "NAME_2": "Melchor Ocampo" }, "geometry": { "type": "Polygon", "coordinates": [ [ [ -102.580093383789006, 25.1279201507569 ], [ -102.47093963623, 25.147518157958999 ], [ -102.251373291015994, 25.124729156494102 ], [ -102.130836486815994, 25.122800827026399 ], [ -102.039138793945, 25.064590454101602 ], [ -101.929306030272997, 25.024829864501999 ], [ -101.851013183594006, 24.964588165283299 ], [ -101.765090942382997, 24.852460861206101 ], [ -101.744155883789006, 24.8507003784181 ], [ -101.706130981445, 24.8674411773682 ], [ -101.665596008300994, 24.861629486083999 ], [ -101.653327941895, 24.839370727539102 ], [ -101.643600463867003, 24.7794895172119 ], [ -101.662422180175994, 24.7694396972657 ], [ -101.680206298827997, 24.7415294647218 ], [ -101.701637268065994, 24.7340812683107 ], [ -101.753952026367003, 24.7280807495118 ], [ -101.772796630859006, 24.7541904449463 ], [ -101.814262390137003, 24.7595310211182 ], [ -101.847633361815994, 24.7398204803468 ], [ -101.884780883789006, 24.735740661621101 ], [ -102.047302246094006, 24.798891067505 ], [ -102.192115783690994, 24.8354396820068 ], [ -102.204208374022997, 24.853269577026399 ], [ -102.236923217772997, 24.8548698425293 ], [ -102.257057189940994, 24.871080398559599 ], [ -102.293243408202997, 24.972721099853501 ], [ -102.381698608397997, 24.976739883422901 ], [ -102.437187194824006, 25.026540756225501 ], [ -102.481811523437997, 25.039619445800799 ], [ -102.528923034667997, 25.084810256958001 ], [ -102.561866760254006, 25.1018505096437 ], [ -102.580093383789006, 25.1279201507569 ] ] ] } },
{ "type": "Feature", "properties": { "NAME_1": "Zacatecas", "NAME_2": "Mezquital del Oro" }, "geometry": { "type": "Polygon", "coordinates": [ [ [ -103.249153137207003, 21.285509109497202 ], [ -103.241859436035, 21.2282104492188 ], [ -103.249908447265994, 21.158901214599702 ], [ -103.255256652832003, 21.149940490722699 ], [ -103.288513183594006, 21.137020111084102 ], [ -103.294570922852003, 21.123989105224702 ], [ -103.294738769530994, 21.108190536499102 ], [ -103.265609741210994, 21.053541183471602 ], [ -103.281059265137003, 21.0147819519043 ], [ -103.316337585449006, 21.017360687255898 ], [ -103.355728149414006, 20.999540328979599 ], [ -103.466636657715, 21.058242797851602 ], [ -103.449752807617003, 21.085189819336101 ], [ -103.413246154785, 21.118770599365199 ], [ -103.400527954100994, 21.162389755249102 ], [ -103.404449462890994, 21.2076206207275 ], [ -103.392295837402003, 21.225980758666999 ], [ -103.33349609375, 21.276769638061602 ], [ -103.299201965332003, 21.281370162963899 ], [ -103.255149841309006, 21.300729751586999 ], [ -103.249153137207003, 21.285509109497202 ] ] ] } },
{ "type": "Feature", "properties": { "NAME_1": "Zacatecas", "NAME_2": "Miguel Auza" }, "geometry": { "type": "Polygon", "coordinates": [ [ [ -103.397506713867003, 24.096809387206999 ], [ -103.429756164550994, 24.0712795257569 ], [ -103.444412231445, 24.0104293823243 ], [ -103.370018005370994, 23.968799591064499 ], [ -103.372856140137003, 23.915601730346701 ], [ -103.406898498535, 23.950170516967901 ], [ -103.452789306640994, 23.943452835083001 ], [ -103.497177124022997, 23.963071823120099 ], [ -103.540435791015994, 23.953039169311602 ], [ -103.639472961425994, 23.965980529785199 ], [ -103.703178405762003, 23.9398307800294 ], [ -103.765190124512003, 23.969869613647401 ], [ -103.858428955077997, 24.0012016296387 ], [ -103.88111114502, 24.017829895019499 ], [ -103.891372680664006, 24.015558242797798 ], [ -103.892562866210994, 24.047500610351701 ], [ -103.880508422852003, 24.068599700927798 ], [ -103.811637878417997, 24.081050872802699 ], [ -103.784446716309006, 24.094951629638601 ], [ -103.69393157959, 24.173540115356399 ], [ -103.660926818847997, 24.225519180298001 ], [ -103.611351013184006, 24.277271270752099 ], [ -103.537162780762003, 24.3265075683594 ], [ -103.492736816405994, 24.2847499847413 ], [ -103.501037597655994, 24.2369098663331 ], [ -103.482696533202997, 24.186990737915199 ], [ -103.45874786377, 24.154741287231602 ], [ -103.420486450195, 24.131799697876001 ], [ -103.397506713867003, 24.096809387206999 ] ] ] } },
{ "type": "Feature", "properties": { "NAME_1": "Zacatecas", "NAME_2": "Momax" }, "geometry": { "type": "Polygon", "coordinates": [ [ [ -103.328948974609006, 21.8903312683106 ], [ -103.251747131347997, 21.925830841064499 ], [ -103.204139709472997, 21.933410644531399 ], [ -103.178962707519005, 21.850070953369201 ], [ -103.219383239745994, 21.844890594482401 ], [ -103.262428283690994, 21.824710845947301 ], [ -103.30322265625, 21.8336696624756 ], [ -103.360572814940994, 21.812259674072301 ], [ -103.425407409667997, 21.821678161621001 ], [ -103.376792907715, 21.865301132202099 ], [ -103.328948974609006, 21.8903312683106 ] ] ] } },
{ "type": "Feature", "properties": { "NAME_1": "Zacatecas", "NAME_2": "Monte Escobedo" }, "geometry": { "type": "Polygon", "coordinates": [ [ [ -103.612442016602003, 22.465030670166101 ], [ -103.55477142334, 22.467767715454102 ], [ -103.469390869140994, 22.4486408233644 ], [ -103.46248626709, 22.4536228179931 ], [ -103.462730407715, 22.474241256713899 ], [ -103.480628967285, 22.519229888916101 ], [ -103.471603393555, 22.533670425415099 ], [ -103.409896850585994, 22.5264396667481 ], [ -103.356300354004006, 22.5789699554444 ], [ -103.331275939940994, 22.586971282959102 ], [ -103.299446105957003, 22.586210250854499 ], [ -103.296173095702997, 22.5340175628662 ], [ -103.273376464844006, 22.491809844970799 ], [ -103.225807189940994, 22.479000091552798 ], [ -103.202529907227003, 22.458879470825298 ], [ -103.234977722167997, 22.423152923583899 ], [ -103.244895935059006, 22.395410537719801 ], [ -103.266510009765994, 22.3696308135987 ], [ -103.28044128418, 22.328559875488299 ], [ -103.363983154297003, 22.301519393920799 ], [ -103.376556396484006, 22.231941223144499 ], [ -103.363098144530994, 22.2153205871582 ], [ -103.332176208495994, 22.206180572509801 ], [ -103.326988220215, 22.193830490112401 ], [ -103.354690551757997, 22.162982940673899 ], [ -103.415817260742003, 22.131891250610401 ], [ -103.459991455077997, 22.058679580688501 ], [ -103.488670349120994, 22.044082641601602 ], [ -103.513465881347997, 22.0471305847169 ], [ -103.523918151855, 22.0618190765381 ], [ -103.546379089355, 22.058599472046001 ], [ -103.571846008300994, 22.069650650024499 ], [ -103.609527587890994, 22.036422729492301 ], [ -103.672378540039006, 22.037340164184599 ], [ -103.70263671875, 22.064500808715898 ], [ -103.698806762695, 22.081689834594702 ], [ -103.545745849609006, 22.320430755615298 ], [ -103.559936523437997, 22.405790328979599 ], [ -103.574638366699006, 22.431690216064599 ], [ -103.612442016602003, 22.465030670166101 ] ] ] } },
{ "type": "Feature", "properties": { "NAME_1": "Zacatecas", "NAME_2": "Morelos" }, "geometry": { "type": "Polygon", "coordinates": [ [ [ -102.587882995605, 22.815710067749102 ], [ -102.586006164550994, 22.792720794677798 ], [ -102.609832763672003, 22.785261154174801 ], [ -102.642707824707003, 22.753498077392699 ], [ -102.658378601074006, 22.754989624023398 ], [ -102.679191589355, 22.783950805664102 ], [ -102.705039978027003, 22.782590866088899 ], [ -102.738288879394005, 22.806819915771499 ], [ -102.762016296387003, 22.809272766113398 ], [ -102.721656799315994, 22.850610733032202 ], [ -102.692115783690994, 22.858020782470799 ], [ -102.68000793457, 22.871469497680799 ], [ -102.643013000487997, 22.845991134643601 ], [ -102.628219604492003, 22.826402664184599 ], [ -102.587882995605, 22.815710067749102 ] ] ] } },
{ "type": "Feature", "properties": { "NAME_1": "Zacatecas", "NAME_2": "Moyahua de Estrada" }, "geometry": { "type": "Polygon", "coordinates": [ [ [ -103.249153137207003, 21.285509109497202 ], [ -103.058662414550994, 21.214870452880898 ], [ -103.062126159667997, 21.151041030883899 ], [ -103.075813293457003, 21.134889602661101 ], [ -103.094177246094006, 21.053300857543899 ], [ -103.140167236327997, 21.0460510253907 ], [ -103.158561706542997, 21.028400421142599 ], [ -103.191429138184006, 21.031650543212901 ], [ -103.227127075195, 21.0465412139894 ], [ -103.267906188965, 21.039100646972699 ], [ -103.265609741210994, 21.053541183471602 ], [ -103.294738769530994, 21.108190536499102 ], [ -103.294570922852003, 21.123989105224702 ], [ -103.288513183594006, 21.137020111084102 ], [ -103.255256652832003, 21.149940490722699 ], [ -103.249908447265994, 21.158901214599702 ], [ -103.241859436035, 21.2282104492188 ], [ -103.249153137207003, 21.285509109497202 ] ] ] } },
{ "type": "Feature", "properties": { "NAME_1": "Zacatecas", "NAME_2": "Nochistlán de Mejía" }, "geometry": { "type": "Polygon", "coordinates": [ [ [ -103.031799316405994, 21.303770065307699 ], [ -102.965461730957003, 21.3838329315187 ], [ -102.953506469727003, 21.443069458007798 ], [ -102.907592773437997, 21.500881195068398 ], [ -102.869270324707003, 21.568651199340799 ], [ -102.836799621582003, 21.591619491577099 ], [ -102.831420898437997, 21.646400451660199 ], [ -102.779220581055, 21.613080978393601 ], [ -102.757400512695, 21.547531127929801 ], [ -102.741226196289006, 21.525899887085 ], [ -102.770545959472997, 21.470090866088999 ], [ -102.774726867675994, 21.444580078125099 ], [ -102.73021697998, 21.410530090332099 ], [ -102.71671295166, 21.362369537353601 ], [ -102.733749389647997, 21.301651000976602 ], [ -102.828002929687997, 21.240779876709102 ], [ -102.883743286132997, 21.188539505004901 ], [ -102.928855895995994, 21.159200668334901 ], [ -103.003189086914006, 21.17746925354 ], [ -103.062126159667997, 21.151041030883899 ], [ -103.056976318359006, 21.232561111450199 ], [ -103.031799316405994, 21.303770065307699 ] ] ] } },
{ "type": "Feature", "properties": { "NAME_1": "Zacatecas", "NAME_2": "Noria de Angeles" }, "geometry": { "type": "Polygon", "coordinates": [ [ [ -101.801277160645, 22.476539611816499 ], [ -101.824935913085994, 22.414670944213899 ], [ -101.826721191405994, 22.380319595336999 ], [ -101.847511291504006, 22.350387573242099 ], [ -101.823356628417997, 22.3397026062012 ], [ -101.815086364745994, 22.288270950317401 ], [ -101.842491149902003, 22.2841281890869 ], [ -101.912986755370994, 22.297910690307599 ], [ -101.92357635498, 22.311531066894499 ], [ -101.981056213379006, 22.325790405273398 ], [ -102.063751220702997, 22.364400863647599 ], [ -102.124549865722997, 22.349170684814499 ], [ -102.171516418457003, 22.355390548706101 ], [ -102.093376159667997, 22.426639556884801 ], [ -102.023422241210994, 22.465011596679801 ], [ -102.005867004394005, 22.465030670166101 ], [ -101.993026733397997, 22.454929351806701 ], [ -101.950531005859006, 22.457380294799801 ], [ -101.92064666748, 22.446289062500099 ], [ -101.829498291015994, 22.490709304809599 ], [ -101.819450378417997, 22.493209838867301 ], [ -101.801277160645, 22.476539611816499 ] ] ] } },
{ "type": "Feature", "properties": { "NAME_1": "Zacatecas", "NAME_2": "Ojocaliente" }, "geometry": { "type": "Polygon", "coordinates": [ [ [ -102.093902587890994, 22.536989212036101 ], [ -102.08374786377, 22.5170803070068 ], [ -102.079040527344006, 22.435470581054702 ], [ -102.171516418457003, 22.355390548706101 ], [ -102.199951171875, 22.385789871215799 ], [ -102.205406188965, 22.4239826202393 ], [ -102.235649108887003, 22.477439880371101 ], [ -102.289108276367003, 22.4668903350831 ], [ -102.295852661132997, 22.494140625000099 ], [ -102.323593139647997, 22.497901916503999 ], [ -102.342231750487997, 22.526758193969801 ], [ -102.42830657959, 22.5513095855713 ], [ -102.463356018065994, 22.5766201019287 ], [ -102.350563049315994, 22.674301147460898 ], [ -102.274291992187997, 22.7140712738037 ], [ -102.257637023925994, 22.703489303588899 ], [ -102.206108093262003, 22.7145195007325 ], [ -102.198356628417997, 22.690450668335 ], [ -102.199951171875, 22.616998672485401 ], [ -102.175598144530994, 22.566450119018501 ], [ -102.133491516112997, 22.535539627075298 ], [ -102.109992980957003, 22.5417194366456 ], [ -102.093902587890994, 22.536989212036101 ] ] ] } },
{ "type": "Feature", "properties": { "NAME_1": "Zacatecas", "NAME_2": "Pánuco" }, "geometry": { "type": "Polygon", "coordinates": [ [ [ -102.451705932617003, 22.8704929351807 ], [ -102.552803039550994, 22.811019897460898 ], [ -102.628219604492003, 22.826402664184599 ], [ -102.643013000487997, 22.845991134643601 ], [ -102.68000793457, 22.871469497680799 ], [ -102.675231933594006, 22.9009094238281 ], [ -102.655578613280994, 22.9386405944825 ], [ -102.654663085937003, 22.986520767211999 ], [ -102.625183105469006, 23.018869400024499 ], [ -102.555641174315994, 23.043340682983398 ], [ -102.499557495117003, 23.0335006713868 ], [ -102.478736877440994, 23.047451019287099 ], [ -102.416488647460994, 23.0424003601075 ], [ -102.358688354492003, 22.940481185913001 ], [ -102.384788513184006, 22.909259796142599 ], [ -102.394256591797003, 22.914640426635799 ], [ -102.413375854492003, 22.9080696105957 ], [ -102.421890258789006, 22.921920776367202 ], [ -102.439041137695, 22.921342849731399 ], [ -102.451705932617003, 22.8704929351807 ] ] ] } },
{ "type": "Feature", "properties": { "NAME_1": "Zacatecas", "NAME_2": "Pinos" }, "geometry": { "type": "Polygon", "coordinates": [ [ [ -101.80940246582, 22.005470275878999 ], [ -101.824913024902003, 22.207361221313601 ], [ -101.802352905272997, 22.2559623718262 ], [ -101.817596435547003, 22.273900985717798 ], [ -101.815086364745994, 22.288270950317401 ], [ -101.791389465332003, 22.303222656250099 ], [ -101.761566162109006, 22.302070617675799 ], [ -101.69938659668, 22.326240539550799 ], [ -101.665908813477003, 22.3201599121094 ], [ -101.650367736815994, 22.328001022338999 ], [ -101.633750915527003, 22.367719650268601 ], [ -101.613487243652003, 22.388990402221701 ], [ -101.609992980957003, 22.407449722290199 ], [ -101.64176940918, 22.495389938354499 ], [ -101.600151062012003, 22.511550903320401 ], [ -101.559089660645, 22.5636711120607 ], [ -101.441566467285, 22.671550750732401 ], [ -101.383087158202997, 22.697639465332099 ], [ -101.354522705077997, 22.6993103027344 ], [ -101.275749206542997, 22.6038494110107 ], [ -101.275299072265994, 22.5683307647706 ], [ -101.344612121582003, 22.406290054321399 ], [ -101.415573120117003, 22.2713718414307 ], [ -101.412506103515994, 22.247930526733398 ], [ -101.365936279297003, 22.164810180663999 ], [ -101.361831665039006, 22.1156406402587 ], [ -101.37467956543, 22.0665702819825 ], [ -101.390396118164006, 22.067590713501001 ], [ -101.396621704102003, 22.0595111846925 ], [ -101.395362854004006, 22.047290802001999 ], [ -101.38484954834, 22.0406799316406 ], [ -101.394416809082003, 22.0141201019287 ], [ -101.493125915527003, 21.8289394378662 ], [ -101.511756896972997, 21.8223800659181 ], [ -101.533157348632997, 21.832902908325298 ], [ -101.55339050293, 21.857789993286101 ], [ -101.641983032227003, 21.887609481811602 ], [ -101.748847961425994, 21.975019454956101 ], [ -101.80940246582, 22.005470275878999 ] ] ] } },
{ "type": "Feature", "properties": { "NAME_1": "Zacatecas", "NAME_2": "Río Grande" }, "geometry": { "type": "Polygon", "coordinates": [ [ [ -102.971199035645, 23.5724506378175 ], [ -103.039192199707003, 23.593469619751001 ], [ -103.066757202147997, 23.6095409393312 ], [ -103.080101013184006, 23.6250095367432 ], [ -103.073890686035, 23.6486206054688 ], [ -103.085601806640994, 23.656061172485401 ], [ -103.103706359862997, 23.656299591064499 ], [ -103.126266479492003, 23.640382766723601 ], [ -103.135711669922003, 23.6603012084962 ], [ -103.182579040527003, 23.703428268432599 ], [ -103.196502685547003, 23.742420196533299 ], [ -103.21452331543, 23.743410110473601 ], [ -103.231903076172003, 23.726591110229499 ], [ -103.269371032715, 23.776308059692401 ], [ -103.301788330077997, 23.7484817504882 ], [ -103.362800598145, 23.7535095214844 ], [ -103.372673034667997, 23.8119297027588 ], [ -103.351936340332003, 23.861730575561499 ], [ -103.372856140137003, 23.915601730346701 ], [ -103.370018005370994, 23.968799591064499 ], [ -103.444412231445, 24.0104293823243 ], [ -103.426628112792997, 24.0753898620606 ], [ -103.397506713867003, 24.096809387206999 ], [ -103.331520080565994, 24.0047206878663 ], [ -103.249282836914006, 23.968009948730401 ], [ -103.167343139647997, 23.885152816772599 ], [ -103.13565826416, 23.866870880126999 ], [ -103.086708068847997, 23.853469848632901 ], [ -103.056617736815994, 23.854799270629901 ], [ -103.034706115722997, 23.8348808288575 ], [ -102.850700378417997, 23.846260070800799 ], [ -102.780822753905994, 23.812990188598601 ], [ -102.763465881347997, 23.759860992431602 ], [ -102.731071472167997, 23.7352695465088 ], [ -102.742637634277003, 23.6944808959962 ], [ -102.736518859862997, 23.6363201141357 ], [ -102.805603027344006, 23.6290206909181 ], [ -102.820587158202997, 23.604061126708999 ], [ -102.83780670166, 23.597938537597798 ], [ -102.841491699219006, 23.573190689086999 ], [ -102.868919372559006, 23.5174484252931 ], [ -102.971199035645, 23.5724506378175 ] ] ] } },
{ "type": "Feature", "properties": { "NAME_1": "Zacatecas", "NAME_2": "Saín Alto" }, "geometry": { "type": "Polygon", "coordinates": [ [ [ -103.479751586914006, 23.309049606323299 ], [ -103.464660644530994, 23.406810760498001 ], [ -103.477096557617003, 23.447309494018601 ], [ -103.471977233887003, 23.535221099853601 ], [ -103.467437744140994, 23.547630310058501 ], [ -103.413352966309006, 23.566869735717798 ], [ -103.40217590332, 23.5844402313232 ], [ -103.411796569824006, 23.620069503784102 ], [ -103.438056945800994, 23.6534328460694 ], [ -103.439819335937003, 23.6661701202393 ], [ -103.387077331542997, 23.702552795410199 ], [ -103.367347717285, 23.759319305419901 ], [ -103.345252990722997, 23.748081207275401 ], [ -103.301788330077997, 23.7484817504882 ], [ -103.269371032715, 23.776308059692401 ], [ -103.231903076172003, 23.726591110229499 ], [ -103.21452331543, 23.743410110473601 ], [ -103.196502685547003, 23.742420196533299 ], [ -103.182579040527003, 23.703428268432599 ], [ -103.135711669922003, 23.6603012084962 ], [ -103.126266479492003, 23.640382766723601 ], [ -103.103706359862997, 23.656299591064499 ], [ -103.085601806640994, 23.656061172485401 ], [ -103.073890686035, 23.6486206054688 ], [ -103.080101013184006, 23.6250095367432 ], [ -103.066757202147997, 23.6095409393312 ], [ -103.039192199707003, 23.593469619751001 ], [ -102.971199035645, 23.5724506378175 ], [ -102.990386962890994, 23.512109756469801 ], [ -102.989059448242003, 23.473630905151399 ], [ -103.013107299805, 23.447700500488299 ], [ -103.037956237792997, 23.3926696777344 ], [ -103.067413330077997, 23.387979507446399 ], [ -103.140090942382997, 23.3574104309082 ], [ -103.194625854492003, 23.3519401550294 ], [ -103.219718933105, 23.334699630737401 ], [ -103.249649047852003, 23.3484706878662 ], [ -103.257369995117003, 23.379711151123001 ], [ -103.294342041015994, 23.376091003418001 ], [ -103.297653198242003, 23.386970520019599 ], [ -103.367378234862997, 23.3466606140138 ], [ -103.400543212890994, 23.306201934814599 ], [ -103.418876647949006, 23.320301055908299 ], [ -103.427673339844006, 23.307550430297798 ], [ -103.442718505859006, 23.310510635376001 ], [ -103.461639404297003, 23.2963790893556 ], [ -103.479751586914006, 23.309049606323299 ] ] ] } },
{ "type": "Feature", "properties": { "NAME_1": "Zacatecas", "NAME_2": "Sombrerete" }, "geometry": { "type": "Polygon", "coordinates": [ [ [ -103.840606689452997, 23.590589523315501 ], [ -103.821006774902003, 23.621849060058601 ], [ -103.859451293945, 23.765691757202202 ], [ -103.841316223144005, 23.809400558471701 ], [ -103.856590270995994, 23.8920612335206 ], [ -103.843650817870994, 23.9409103393556 ], [ -103.858428955077997, 24.0012016296387 ], [ -103.765190124512003, 23.969869613647401 ], [ -103.703178405762003, 23.9398307800294 ], [ -103.639472961425994, 23.965980529785199 ], [ -103.540435791015994, 23.953039169311602 ], [ -103.497177124022997, 23.963071823120099 ], [ -103.452789306640994, 23.943452835083001 ], [ -103.406898498535, 23.950170516967901 ], [ -103.372856140137003, 23.915601730346701 ], [ -103.351936340332003, 23.861730575561499 ], [ -103.372337341309006, 23.814250946044901 ], [ -103.37092590332, 23.735410690307699 ], [ -103.391456604004006, 23.697900772094801 ], [ -103.428855895995994, 23.677579879760799 ], [ -103.440536499022997, 23.662412643432599 ], [ -103.411796569824006, 23.620069503784102 ], [ -103.40217590332, 23.5844402313232 ], [ -103.413352966309006, 23.566869735717798 ], [ -103.467437744140994, 23.547630310058501 ], [ -103.471977233887003, 23.535221099853601 ], [ -103.477096557617003, 23.447309494018601 ], [ -103.464660644530994, 23.406810760498001 ], [ -103.48819732666, 23.275619506836101 ], [ -103.485153198242003, 23.168689727783299 ], [ -103.518539428710994, 23.1068210601807 ], [ -103.544792175292997, 23.088710784912202 ], [ -103.565055847167997, 23.0882797241212 ], [ -103.600440979004006, 23.0711994171144 ], [ -103.629699707030994, 23.038801193237401 ], [ -103.740196228027003, 23.071979522705199 ], [ -103.741928100585994, 23.0942306518556 ], [ -103.697402954102003, 23.114282608032301 ], [ -103.674491882324006, 23.165201187133899 ], [ -103.687088012695, 23.1851310729982 ], [ -103.73616027832, 23.207830429077301 ], [ -103.738311767577997, 23.225601196289102 ], [ -103.7197265625, 23.272800445556701 ], [ -103.719421386719006, 23.294811248779201 ], [ -103.767906188965, 23.387741088867301 ], [ -103.784866333007997, 23.3983898162843 ], [ -103.813972473145, 23.387918472290099 ], [ -103.826866149902003, 23.395059585571399 ], [ -103.831642150879006, 23.4616794586182 ], [ -103.817367553710994, 23.533269882202301 ], [ -103.840606689452997, 23.590589523315501 ] ] ] } },
{ "type": "Feature", "properties": { "NAME_1": "Zacatecas", "NAME_2": "Susticacán" }, "geometry": { "type": "Polygon", "coordinates": [ [ [ -103.299446105957003, 22.586210250854499 ], [ -103.266006469727003, 22.599060058593899 ], [ -103.248786926269005, 22.617429733276399 ], [ -103.214782714844006, 22.598901748657301 ], [ -103.207778930664006, 22.620201110839901 ], [ -103.178916931152003, 22.6185207366943 ], [ -103.143035888672003, 22.584531784057699 ], [ -103.073547363280994, 22.5406894683838 ], [ -103.085700988769005, 22.507371902465898 ], [ -103.08251953125, 22.477718353271499 ], [ -103.13623046875, 22.489290237426701 ], [ -103.170471191405994, 22.457120895385899 ], [ -103.178749084472997, 22.437891006469801 ], [ -103.193099975585994, 22.432411193847599 ], [ -103.21208190918, 22.4709491729737 ], [ -103.273376464844006, 22.491809844970799 ], [ -103.283432006835994, 22.502531051635899 ], [ -103.296173095702997, 22.5340175628662 ], [ -103.299446105957003, 22.586210250854499 ] ] ] } },
{ "type": "Feature", "properties": { "NAME_1": "Zacatecas", "NAME_2": "Tabasco" }, "geometry": { "type": "Polygon", "coordinates": [ [ [ -102.872711181640994, 21.795480728149499 ], [ -102.940032958984006, 21.7859210968018 ], [ -103.015998840332003, 21.803300857543999 ], [ -103.084358215332003, 21.805870056152301 ], [ -103.061012268065994, 21.828001022338899 ], [ -103.064308166504006, 21.843980789184702 ], [ -103.051788330077997, 21.858711242675799 ], [ -103.050682067870994, 21.884149551391602 ], [ -102.996215820312003, 21.963260650634901 ], [ -102.965896606445, 21.983650207519499 ], [ -102.916763305664006, 21.9947910308838 ], [ -102.878402709960994, 21.968330383300898 ], [ -102.829696655272997, 21.963630676269499 ], [ -102.805206298827997, 21.945671081543001 ], [ -102.856231689452997, 21.856159210205099 ], [ -102.872711181640994, 21.795480728149499 ] ] ] } },
{ "type": "Feature", "properties": { "NAME_1": "Zacatecas", "NAME_2": "Tepechitlán" }, "geometry": { "type": "Polygon", "coordinates": [ [ [ -103.250946044922003, 21.4355201721193 ], [ -103.271209716797003, 21.440759658813501 ], [ -103.312866210937003, 21.424379348755 ], [ -103.356826782227003, 21.428770065307599 ], [ -103.423301696777003, 21.464469909668001 ], [ -103.484550476074006, 21.4475402832032 ], [ -103.499176025390994, 21.4329528808593 ], [ -103.508316040039006, 21.442888259887798 ], [ -103.506706237792997, 21.458522796630898 ], [ -103.484466552734006, 21.473739624023601 ], [ -103.481109619140994, 21.486030578613299 ], [ -103.569442749022997, 21.5176105499268 ], [ -103.584739685059006, 21.5435695648193 ], [ -103.566673278809006, 21.578590393066499 ], [ -103.541091918945, 21.592639923095799 ], [ -103.477333068847997, 21.650081634521602 ], [ -103.398002624512003, 21.6478805541993 ], [ -103.337799072265994, 21.637130737304702 ], [ -103.244781494140994, 21.585840225219702 ], [ -103.227676391602003, 21.5522193908693 ], [ -103.251678466797003, 21.470291137695401 ], [ -103.250946044922003, 21.4355201721193 ] ] ] } },
{ "type": "Feature", "properties": { "NAME_1": "Zacatecas", "NAME_2": "Tepetongo" }, "geometry": { "type": "Polygon", "coordinates": [ [ [ -103.001411437987997, 22.430210113525298 ], [ -103.006576538085994, 22.390550613403299 ], [ -103.031478881835994, 22.366870880127099 ], [ -103.078941345215, 22.275630950927798 ], [ -103.078918457030994, 22.237800598144599 ], [ -103.05980682373, 22.198369979858398 ], [ -103.062705993652003, 22.1868801116943 ], [ -103.076026916504006, 22.178911209106602 ], [ -103.088447570800994, 22.177230834960898 ], [ -103.090049743652003, 22.198600769043001 ], [ -103.104866027832003, 22.2105007171632 ], [ -103.193260192870994, 22.216941833496101 ], [ -103.212547302245994, 22.228479385376001 ], [ -103.214668273925994, 22.2500400543213 ], [ -103.185836791992003, 22.290390014648501 ], [ -103.195510864257997, 22.318059921264801 ], [ -103.28044128418, 22.328559875488299 ], [ -103.266510009765994, 22.3696308135987 ], [ -103.244895935059006, 22.395410537719801 ], [ -103.234977722167997, 22.423152923583899 ], [ -103.202529907227003, 22.458879470825298 ], [ -103.196601867675994, 22.435279846191399 ], [ -103.183670043945, 22.433389663696399 ], [ -103.170471191405994, 22.457120895385899 ], [ -103.13623046875, 22.489290237426701 ], [ -103.08251953125, 22.477718353271499 ], [ -103.062866210937997, 22.448459625244201 ], [ -103.046249389647997, 22.450149536132798 ], [ -103.001411437987997, 22.430210113525298 ] ] ] } },
{ "type": "Feature", "properties": { "NAME_1": "Zacatecas", "NAME_2": "Teul de González Ortega" }, "geometry": { "type": "Polygon", "coordinates": [ [ [ -103.404449462890994, 21.2076206207275 ], [ -103.43627166748, 21.2063503265381 ], [ -103.480117797852003, 21.2476711273194 ], [ -103.518272399902003, 21.2415790557862 ], [ -103.567413330077997, 21.196760177612401 ], [ -103.590591430664006, 21.120790481567401 ], [ -103.604476928710994, 21.114658355713001 ], [ -103.623077392577997, 21.118721008300799 ], [ -103.652687072754006, 21.1621112823487 ], [ -103.74308013916, 21.1816501617432 ], [ -103.75910949707, 21.188249588012798 ], [ -103.766311645507997, 21.207220077514801 ], [ -103.758209228515994, 21.2189006805419 ], [ -103.604682922362997, 21.274549484253001 ], [ -103.563423156737997, 21.3053207397462 ], [ -103.541687011719006, 21.299909591674901 ], [ -103.508796691895, 21.367919921874901 ], [ -103.504920959472997, 21.4097709655763 ], [ -103.484550476074006, 21.4475402832032 ], [ -103.419120788574006, 21.464349746704102 ], [ -103.356826782227003, 21.428770065307599 ], [ -103.312866210937003, 21.424379348755 ], [ -103.271209716797003, 21.440759658813501 ], [ -103.250946044922003, 21.4355201721193 ], [ -103.260406494140994, 21.384820938110401 ], [ -103.255149841309006, 21.300729751586999 ], [ -103.299201965332003, 21.281370162963899 ], [ -103.33349609375, 21.276769638061602 ], [ -103.404449462890994, 21.2076206207275 ] ] ] } },
{ "type": "Feature", "properties": { "NAME_1": "Zacatecas", "NAME_2": "Tlaltenango de Sánchez Román" }, "geometry": { "type": "Polygon", "coordinates": [ [ [ -103.447273254395, 21.800439834594801 ], [ -103.425407409667997, 21.821678161621001 ], [ -103.360572814940994, 21.812259674072301 ], [ -103.30322265625, 21.8336696624756 ], [ -103.262428283690994, 21.824710845947301 ], [ -103.219383239745994, 21.844890594482401 ], [ -103.178962707519005, 21.850070953369201 ], [ -103.145088195800994, 21.8083209991456 ], [ -103.095710754394005, 21.804790496826101 ], [ -103.100738525390994, 21.776741027832099 ], [ -103.095565795897997, 21.701467514038001 ], [ -103.10383605957, 21.6674404144288 ], [ -103.123725891112997, 21.655210494995199 ], [ -103.227416992187003, 21.547929763793999 ], [ -103.244781494140994, 21.585840225219702 ], [ -103.337799072265994, 21.637130737304702 ], [ -103.398002624512003, 21.6478805541993 ], [ -103.477333068847997, 21.650081634521602 ], [ -103.463607788085994, 21.6864223480225 ], [ -103.423721313477003, 21.720539093017599 ], [ -103.331748962402003, 21.753250122070298 ], [ -103.318786621094006, 21.7676906585693 ], [ -103.322807312012003, 21.778438568115298 ], [ -103.417869567870994, 21.7882194519043 ], [ -103.447273254395, 21.800439834594801 ] ] ] } },
{ "type": "Feature", "properties": { "NAME_1": "Zacatecas", "NAME_2": "Trinidad García de la Cadena" }, "geometry": { "type": "Polygon", "coordinates": [ [ [ -103.466636657715, 21.058242797851602 ], [ -103.562271118164006, 21.0524806976319 ], [ -103.599502563477003, 21.0707912445069 ], [ -103.623077392577997, 21.118721008300799 ], [ -103.591796875, 21.118970870971701 ], [ -103.567413330077997, 21.196760177612401 ], [ -103.529487609862997, 21.234560012817401 ], [ -103.496780395507997, 21.248849868774499 ], [ -103.476905822754006, 21.246170043945401 ], [ -103.43627166748, 21.2063503265381 ], [ -103.404449462890994, 21.2076206207275 ], [ -103.399665832519005, 21.185188293456999 ], [ -103.413246154785, 21.118770599365199 ], [ -103.449752807617003, 21.085189819336101 ], [ -103.466636657715, 21.058242797851602 ] ] ] } },
{ "type": "Feature", "properties": { "NAME_1": "Zacatecas", "NAME_2": "Valparaíso" }, "geometry": { "type": "Polygon", "coordinates": [ [ [ -104.059562683105, 22.2954006195069 ], [ -104.083946228027003, 22.284410476684702 ], [ -104.094551086425994, 22.302610397338999 ], [ -104.053672790527003, 22.412530899047901 ], [ -104.052642822265994, 22.422870635986399 ], [ -104.068862915039006, 22.436861038208001 ], [ -104.13591003418, 22.410501480102699 ], [ -104.19026184082, 22.4016304016113 ], [ -104.208976745605, 22.3638801574707 ], [ -104.211540222167997, 22.3319797515869 ], [ -104.201072692870994, 22.293149948120099 ], [ -104.208961486815994, 22.282039642333999 ], [ -104.233268737792997, 22.294321060180799 ], [ -104.266059875487997, 22.293411254882798 ], [ -104.291496276855, 22.276790618896499 ], [ -104.308959960937997, 22.248582839965799 ], [ -104.317520141602003, 22.249378204345799 ], [ -104.337966918945, 22.264520645141701 ], [ -104.351036071777003, 22.286460876465 ], [ -104.358787536620994, 22.332138061523398 ], [ -104.355659484862997, 22.382989883422901 ], [ -104.363327026367003, 22.403251647949201 ], [ -104.31160736084, 22.524999618530401 ], [ -104.266670227050994, 22.580961227416999 ], [ -104.155639648437003, 22.620410919189499 ], [ -104.141487121582003, 22.635089874267599 ], [ -104.140106201172003, 22.709089279174901 ], [ -104.128608703612997, 22.766229629516701 ], [ -104.130836486815994, 22.843809127807599 ], [ -104.155776977539006, 22.934440612793001 ], [ -104.119300842285, 22.973430633544901 ], [ -104.088256835937997, 22.960540771484499 ], [ -104.016952514647997, 23.006549835205099 ], [ -103.958076477050994, 23.003612518310501 ], [ -103.90306854248, 23.028100967407301 ], [ -103.861686706542997, 23.014450073242202 ], [ -103.814758300780994, 23.018579483032202 ], [ -103.772583007812003, 23.0406608581544 ], [ -103.738838195800994, 23.069219589233299 ], [ -103.629699707030994, 23.038801193237401 ], [ -103.600440979004006, 23.0711994171144 ], [ -103.56143951416, 23.08842086792 ], [ -103.517181396484006, 23.0441703796388 ], [ -103.48388671875, 23.023790359497099 ], [ -103.411842346190994, 23.008590698242301 ], [ -103.363502502440994, 22.987970352172901 ], [ -103.298179626465, 22.9882907867432 ], [ -103.243476867675994, 22.958200454711999 ], [ -103.248649597167997, 22.930149078369102 ], [ -103.223121643065994, 22.898759841919102 ], [ -103.219917297362997, 22.8089809417725 ], [ -103.226547241210994, 22.776350021362401 ], [ -103.251892089844006, 22.7499103546143 ], [ -103.236389160155994, 22.646240234375 ], [ -103.238716125487997, 22.630109786987401 ], [ -103.25984954834, 22.603822708129901 ], [ -103.299446105957003, 22.586210250854499 ], [ -103.351608276367003, 22.582309722900401 ], [ -103.409896850585994, 22.5264396667481 ], [ -103.471603393555, 22.533670425415099 ], [ -103.480628967285, 22.519229888916101 ], [ -103.462730407715, 22.474241256713899 ], [ -103.46248626709, 22.4536228179931 ], [ -103.469390869140994, 22.4486408233644 ], [ -103.55477142334, 22.467767715454102 ], [ -103.612442016602003, 22.465030670166101 ], [ -103.653846740722997, 22.487472534179801 ], [ -103.683036804199006, 22.493579864501999 ], [ -103.810417175292997, 22.471830368042099 ], [ -103.839897155762003, 22.458749771118299 ], [ -103.8486328125, 22.3973197937012 ], [ -103.841262817382997, 22.262670516967798 ], [ -103.845176696777003, 22.185850143432699 ], [ -103.855232238769005, 22.149572372436602 ], [ -103.877227783202997, 22.137220382690501 ], [ -103.921592712402003, 22.162258148193398 ], [ -103.954795837402003, 22.215450286865199 ], [ -103.960021972655994, 22.247238159179702 ], [ -103.953582763672003, 22.3391208648682 ], [ -103.90007019043, 22.4746608734132 ], [ -103.830177307129006, 22.562969207763601 ], [ -103.783737182617003, 22.595340728759901 ], [ -103.774971008300994, 22.624080657958999 ], [ -103.799766540527003, 22.649700164795 ], [ -103.849578857422003, 22.6664028167725 ], [ -103.888168334960994, 22.6674003601075 ], [ -103.955780029297003, 22.652439117431602 ], [ -104.006332397460994, 22.624122619628899 ], [ -104.047676086425994, 22.584011077880898 ], [ -104.036026000977003, 22.541540145874102 ], [ -103.976959228515994, 22.424108505249102 ], [ -103.968933105469006, 22.379280090332099 ], [ -104.011741638182997, 22.3271083831787 ], [ -104.059562683105, 22.2954006195069 ] ] ] } },
{ "type": "Feature", "properties": { "NAME_1": "Zacatecas", "NAME_2": "Vetagrande" }, "geometry": { "type": "Polygon", "coordinates": [ [ [ -102.512008666992003, 22.756589889526499 ], [ -102.615509033202997, 22.779119491577099 ], [ -102.584518432617003, 22.794599533081101 ], [ -102.587882995605, 22.815710067749102 ], [ -102.548828125, 22.812299728393501 ], [ -102.451705932617003, 22.8704929351807 ], [ -102.444900512695, 22.853389739990298 ], [ -102.423980712890994, 22.8443202972413 ], [ -102.442413330077997, 22.801490783691399 ], [ -102.512008666992003, 22.756589889526499 ] ] ] } },
{ "type": "Feature", "properties": { "NAME_1": "Zacatecas", "NAME_2": "Villa de Cos" }, "geometry": { "type": "Polygon", "coordinates": [ [ [ -102.279548645019005, 22.946969985961999 ], [ -102.328926086425994, 22.950820922851499 ], [ -102.362922668457003, 22.942621231079201 ], [ -102.389137268065994, 23.004261016845799 ], [ -102.425216674805, 23.0455417633057 ], [ -102.478736877440994, 23.047451019287099 ], [ -102.499557495117003, 23.0335006713868 ], [ -102.555107116699006, 23.0401515960694 ], [ -102.546310424805, 23.096500396728501 ], [ -102.524971008300994, 23.138151168823299 ], [ -102.554878234862997, 23.171808242797901 ], [ -102.561027526855, 23.192480087280298 ], [ -102.55248260498, 23.272539138793999 ], [ -102.569641113280994, 23.4062194824219 ], [ -102.561988830565994, 23.441850662231399 ], [ -102.529266357422003, 23.4928512573243 ], [ -102.618682861327997, 23.546211242675799 ], [ -102.692077636719006, 23.616460800170898 ], [ -102.736518859862997, 23.6363201141357 ], [ -102.742637634277003, 23.6944808959962 ], [ -102.731071472167997, 23.7352695465088 ], [ -102.657836914062003, 23.741899490356399 ], [ -102.575401306152003, 23.773880004882798 ], [ -102.534393310547003, 23.846790313720799 ], [ -102.518821716309006, 23.856929779052699 ], [ -102.454086303710994, 23.849269866943501 ], [ -102.338012695312003, 23.9498481750488 ], [ -102.323570251465, 23.972049713134801 ], [ -102.272850036620994, 23.917221069336101 ], [ -102.134796142577997, 23.828781127929599 ], [ -102.085151672362997, 23.821729660034201 ], [ -102.058326721190994, 23.8025608062744 ], [ -102.027732849120994, 23.806829452514599 ], [ -102.000198364257997, 23.790199279785298 ], [ -101.94068145752, 23.786090850830199 ], [ -101.881332397460994, 23.7981491088868 ], [ -101.827842712402003, 23.793140411376999 ], [ -101.737380981445, 23.820142745971602 ], [ -101.644943237305, 23.8065509796143 ], [ -101.552436828612997, 23.766029357910099 ], [ -101.54035949707, 23.753578186035298 ], [ -101.57820892334, 23.7381401062012 ], [ -101.62622833252, 23.684392929077099 ], [ -101.686950683594006, 23.583589553833001 ], [ -101.726226806640994, 23.5394191741943 ], [ -101.76651763916, 23.5115680694581 ], [ -101.949981689452997, 23.439271926879901 ], [ -101.98420715332, 23.4015102386475 ], [ -102.005256652832003, 23.347959518432699 ], [ -102.031967163085994, 23.337970733642599 ], [ -102.122596740722997, 23.3271503448487 ], [ -102.189567565917997, 23.344221115112401 ], [ -102.215507507324006, 23.361120223999102 ], [ -102.238372802734006, 23.3580226898193 ], [ -102.276412963867003, 23.292209625244102 ], [ -102.247108459472997, 23.250801086425898 ], [ -102.271682739257997, 23.1996593475343 ], [ -102.230682373047003, 23.088069915771499 ], [ -102.236610412597997, 23.051141738891701 ], [ -102.263236999512003, 23.000869750976602 ], [ -102.279548645019005, 22.946969985961999 ] ] ] } },
{ "type": "Feature", "properties": { "NAME_1": "Zacatecas", "NAME_2": "Villa García" }, "geometry": { "type": "Polygon", "coordinates": [ [ [ -101.80940246582, 22.005470275878999 ], [ -101.896492004394005, 22.0389308929443 ], [ -101.979438781737997, 22.055059432983501 ], [ -102.024139404297003, 22.134670257568398 ], [ -102.037986755370994, 22.203010559081999 ], [ -101.955421447754006, 22.187891006469801 ], [ -101.90544128418, 22.160169601440501 ], [ -101.820640563965, 22.1510295867919 ], [ -101.80940246582, 22.005470275878999 ] ] ] } },
{ "type": "Feature", "properties": { "NAME_1": "Zacatecas", "NAME_2": "Villa González Ortega" }, "geometry": { "type": "Polygon", "coordinates": [ [ [ -102.079040527344006, 22.435470581054702 ], [ -102.08374786377, 22.5170803070068 ], [ -102.093902587890994, 22.536989212036101 ], [ -102.066436767577997, 22.541669845581101 ], [ -102.037017822265994, 22.5736408233643 ], [ -101.94310760498, 22.646249771118299 ], [ -101.91512298584, 22.639520645141701 ], [ -101.89518737793, 22.624679565429702 ], [ -101.858406066894005, 22.550090789795 ], [ -101.819450378417997, 22.493209838867301 ], [ -101.91446685791, 22.447120666503899 ], [ -101.958442687987997, 22.4587802886962 ], [ -101.993026733397997, 22.454929351806701 ], [ -102.015266418457003, 22.4663696289062 ], [ -102.079040527344006, 22.435470581054702 ] ] ] } },
{ "type": "Feature", "properties": { "NAME_1": "Zacatecas", "NAME_2": "Villa Hidalgo" }, "geometry": { "type": "Polygon", "coordinates": [ [ [ -101.801277160645, 22.476539611816499 ], [ -101.751556396484006, 22.468231201171999 ], [ -101.64176940918, 22.495389938354499 ], [ -101.609992980957003, 22.407449722290199 ], [ -101.613487243652003, 22.388990402221701 ], [ -101.633750915527003, 22.367719650268601 ], [ -101.650367736815994, 22.328001022338999 ], [ -101.665908813477003, 22.3201599121094 ], [ -101.69938659668, 22.326240539550799 ], [ -101.761566162109006, 22.302070617675799 ], [ -101.791389465332003, 22.303222656250099 ], [ -101.815086364745994, 22.288270950317401 ], [ -101.823356628417997, 22.3397026062012 ], [ -101.847511291504006, 22.350387573242099 ], [ -101.826721191405994, 22.380319595336999 ], [ -101.824935913085994, 22.414670944213899 ], [ -101.801277160645, 22.476539611816499 ] ] ] } },
{ "type": "Feature", "properties": { "NAME_1": "Zacatecas", "NAME_2": "Villanueva" }, "geometry": { "type": "Polygon", "coordinates": [ [ [ -103.139030456542997, 22.0093498229981 ], [ -103.088447570800994, 22.177230834960898 ], [ -103.066162109375, 22.183580398559599 ], [ -103.060028076172003, 22.193582534790099 ], [ -103.080718994140994, 22.245491027831999 ], [ -103.076042175292997, 22.2848510742188 ], [ -103.031478881835994, 22.366870880127099 ], [ -103.006576538085994, 22.390550613403299 ], [ -103.001411437987997, 22.430210113525298 ], [ -102.977630615234006, 22.438110351562599 ], [ -102.934440612792997, 22.475460052490199 ], [ -102.834381103515994, 22.516702651977699 ], [ -102.81859588623, 22.5353012084962 ], [ -102.800765991210994, 22.582517623901399 ], [ -102.77857208252, 22.607530593872202 ], [ -102.742706298827997, 22.593080520629901 ], [ -102.72191619873, 22.565820693969702 ], [ -102.707153320312003, 22.497459411621101 ], [ -102.675407409667997, 22.450590133666999 ], [ -102.658943176269005, 22.372890472412202 ], [ -102.614097595215, 22.3066101074219 ], [ -102.604637145995994, 22.243049621581999 ], [ -102.633346557617003, 22.231559753417901 ], [ -102.659286499022997, 22.204879760742202 ], [ -102.678802490234006, 22.118289947509801 ], [ -102.709297180175994, 22.060300827026399 ], [ -102.805206298827997, 21.945671081543001 ], [ -102.829696655272997, 21.963630676269499 ], [ -102.863800048827997, 21.9636726379394 ], [ -102.900718688965, 21.983608245849702 ], [ -102.916175842285, 22.013231277465799 ], [ -102.935539245605, 22.0277309417725 ], [ -102.92928314209, 22.062049865722699 ], [ -102.938232421875, 22.069442749023398 ], [ -103.009696960449006, 22.062280654907202 ], [ -103.027320861815994, 22.027999877929801 ], [ -103.048545837402003, 22.0206508636475 ], [ -103.055206298827997, 21.9758796691894 ], [ -103.104682922362997, 21.936670303344801 ], [ -103.131622314452997, 21.9380207061769 ], [ -103.167442321777003, 21.958509445190501 ], [ -103.139030456542997, 22.0093498229981 ] ] ] } },
{ "type": "Feature", "properties": { "NAME_1": "Zacatecas", "NAME_2": "Zacatecas" }, "geometry": { "type": "Polygon", "coordinates": [ [ [ -102.692497253417997, 22.590621948242202 ], [ -102.724670410155994, 22.5707397460938 ], [ -102.742706298827997, 22.593080520629901 ], [ -102.784057617187003, 22.611669540405298 ], [ -102.778495788574006, 22.746030807495199 ], [ -102.804229736327997, 22.7604694366456 ], [ -102.812362670897997, 22.8142280578613 ], [ -102.788375854492003, 22.818840026855401 ], [ -102.770141601562003, 22.808469772338999 ], [ -102.738288879394005, 22.806819915771499 ], [ -102.705039978027003, 22.782590866088899 ], [ -102.679191589355, 22.783950805664102 ], [ -102.656616210937997, 22.753908157348601 ], [ -102.634017944335994, 22.755859375000099 ], [ -102.615509033202997, 22.779119491577099 ], [ -102.512008666992003, 22.756589889526499 ], [ -102.526802062987997, 22.733259201049901 ], [ -102.598518371582003, 22.6679401397706 ], [ -102.632797241210994, 22.621320724487401 ], [ -102.669242858887003, 22.6097106933594 ], [ -102.692497253417997, 22.590621948242202 ] ] ] } }
]
}
